[{"meetingID":"33","meetingName":"A NEW WAY OF LIVING","streetAddress":"701 West 168th Street and Fort Washington Avenue","buildingName":"Columbia Presbyterian Hospital","roomFloor":"","city":"New York","state":"NY","zipCode":"10032","detailsBox":"Check with Security for Room # T Last Thu, Living Sober & Anniv Last Fri. No meetings on public holidays","wheelChair":true},{"meetingID":"65","meetingName":"BRIDGE TO SOBRIETY (:I)","streetAddress":"715 West 179th Street","buildingName":"Holy Rood Church","roomFloor":"","city":"New York","state":"NY","zipCode":"10033","detailsBox":"Living Sober Last Tuesday, T Last Wednesday","wheelChair":false},{"meetingID":"820","meetingName":"BRIDGE TO SOBRIETY (:II)","streetAddress":"715 West 179th Street","buildingName":"Holy Rood Church","roomFloor":"","city":"New York","state":"NY","zipCode":"10040","detailsBox":"10th Step","wheelChair":true},{"meetingID":"138","meetingName":"DYCKMAN","streetAddress":"431 West 204th Street","buildingName":"St. Jude's School","roomFloor":"Basement","city":"New York","state":"NY","zipCode":"10034","detailsBox":"BB 1st & T Last Wed.","wheelChair":false},{"meetingID":"158","meetingName":"FOUND-A-WAY","streetAddress":"550 West 155th Street","buildingName":"Church of the Intercession","roomFloor":"2nd Floor Guild Room","city":"New York","state":"NY","zipCode":"10032","detailsBox":"Men's meeting & Gay men's focus. All are welcome. Anniversary last Sat., 1st Sat.=S followed by Bus. Mtg.","wheelChair":false},{"meetingID":"174","meetingName":"GRUPO DESPERTAR","streetAddress":"557 West 156th Street","buildingName":"Casita Esperanza","roomFloor":"","city":"New York","state":"NY","zipCode":"10032","detailsBox":"Spanish Speaking Meetings.","wheelChair":true},{"meetingID":"179","meetingName":"GRUPO LA FLAMA PANAMERICANA","streetAddress":"35 Thayer Street","buildingName":"","roomFloor":"Basement","city":"New York","state":"NY","zipCode":"10040","detailsBox":"Spanish speaking meetings.","wheelChair":true},{"meetingID":"180","meetingName":"GRUPO LIBERTAD","streetAddress":"715 West 179th Street","buildingName":"Episcopal Holy Rood Church","roomFloor":"1st Floor","city":"New York","state":"NY","zipCode":"10033","detailsBox":"Spanish speaking meetings.","wheelChair":true},{"meetingID":"182","meetingName":"GRUPO RECUPERACION","streetAddress":"502 West 165th Street","buildingName":"Church Santa Rosa de Lima","roomFloor":"Basement","city":"New York","state":"NY","zipCode":"10032","detailsBox":"Spanish speaking meetings.","wheelChair":false},{"meetingID":"216","meetingName":"GRUPO UN NUEVO AMANECER","streetAddress":"91 Arden Street","buildingName":"Our Lady Queen of Martyrs","roomFloor":"","city":"New York","state":"NY","zipCode":"10034","detailsBox":"Spanish Speaking Meetings.","wheelChair":false},{"meetingID":"1477","meetingName":"HAPPY DESTINY","streetAddress":"20 Cumming Street","buildingName":"Holy Trinity Episcopal Church","roomFloor":"","city":"New York","state":"NY","zipCode":"10034","detailsBox":"LGBT All welcome. Sun= As Bill See it; Wed=Steps1-3 Sun.meeting in Sanctuary; Wed meeting in Auditorium","wheelChair":false},{"meetingID":"226","meetingName":"INWOOD FORT TRYON","streetAddress":"84 Vermilyea Avenue","buildingName":"Mount Washington Presbyterian Church","roomFloor":"","city":"New York","state":"NY","zipCode":"10034","detailsBox":"Sat. Closed meeting rotating step/speaker/trad/anniversary In Dec. first two weeks will be Step meeting","wheelChair":false},{"meetingID":"227","meetingName":"ISHAM PARK","streetAddress":"620 Isham Street","buildingName":"Church of the Good Shepherd","roomFloor":"","city":"New York","state":"NY","zipCode":"10034","detailsBox":"Open Anniv. Last Mon.","wheelChair":false},{"meetingID":"1553","meetingName":"PROGRESS NOT PERFECTION","streetAddress":"2005 Amsterdam Avenue","buildingName":"COATHA Church on the Hill Senior Center","roomFloor":"","city":"New York","state":"NY","zipCode":"10032","detailsBox":"Open Discussion 1st, 2nd, 4th,and 5th when applicable. OPEN meeting is 3rd Fridays","wheelChair":true},{"meetingID":"827","meetingName":"THE MEN UPSTAIRS","streetAddress":"178 Bennett Avenue","buildingName":"Our Saviour's Atonement Lutheran Church","roomFloor":"2nd Floor (Lorenz Library)","city":"New York","state":"NY","zipCode":"10040","detailsBox":"Men's Meeting","wheelChair":false},{"meetingID":"256","meetingName":"THE MISSING LINK","streetAddress":"178 Bennett Avenue","buildingName":"Our Saviour's Atonement Church","roomFloor":"2nd Floor","city":"New York","state":"NY","zipCode":"10040","detailsBox":"1st- Step, 2nd-OD, 3rd-Beg., 4th- BB, 5th- OD","wheelChair":false},{"meetingID":"395","meetingName":"UPPER MANHATTAN","streetAddress":"91 Arden Street","buildingName":"Our Lady Queen of Martyrs","roomFloor":"","city":"New York","state":"NY","zipCode":"10034","detailsBox":"","wheelChair":false},{"meetingID":"396","meetingName":"UPTOWN SATURDAY NIGHT","streetAddress":"20 Cummings Street","buildingName":"Holy Trinity Church","roomFloor":"","city":"New York","state":"NY","zipCode":"10034","detailsBox":"","wheelChair":false},{"meetingID":"399","meetingName":"WASHINGTON HEIGHTS                  (:I)","streetAddress":"715 West 179th Street","buildingName":"Holy Rood Church","roomFloor":"","city":"New York","state":"NY","zipCode":"10033","detailsBox":"","wheelChair":true},{"meetingID":"400","meetingName":"WASHINGTON HEIGHTS                 (:II)","streetAddress":"189th Street and Bennett Avenue","buildingName":"Cornerstone Center","roomFloor":"Kitchen","city":"New York","state":"NY","zipCode":"10040","detailsBox":"","wheelChair":false},{"meetingID":"414","meetingName":"WHAT WE ARE LIKE NOW","streetAddress":"178 Bennett Avenue","buildingName":"The Corner Stone Center","roomFloor":"2nd Floor","city":"New York","state":"NY","zipCode":"10040","detailsBox":"","wheelChair":false},{"meetingID":"426","meetingName":"WOMEN'S NITE","streetAddress":"178 Bennett Avenue","buildingName":"Cornerstone Center","roomFloor":"Kitchen","city":"New York","state":"NY","zipCode":"10040","detailsBox":"","wheelChair":false}]