[{"meetingID":"1505","meetingName":"A DESIGN FOR LIVING","streetAddress":"20 Cardinal Hayes Place","buildingName":"St Andrews Church","roomFloor":"Rectory Basement","city":"New York","state":"NY","zipCode":"10007","detailsBox":"@Duane and Centre behind Federal courthouse enter thru driveway behind Church No meetings on Holidays","wheelChair":false},{"meetingID":"74","meetingName":"CHAMBERS STREET","streetAddress":"20 Cardinal Hayes Place","buildingName":"St. Andrew's Church","roomFloor":"Enter through driveway behind Church","city":"New York","state":"NY","zipCode":"10007","detailsBox":"No meetings on Holidays. **LOCATION SUBJECT TO CHANGE- Call Inter-Group","wheelChair":false},{"meetingID":"78","meetingName":"CHINATOWN","streetAddress":"29 Mott Street","buildingName":"Church of the Transfiguration","roomFloor":"Basement","city":"New York","state":"NY","zipCode":"10013","detailsBox":"","wheelChair":false},{"meetingID":"137","meetingName":"DOWNTOWN","streetAddress":"49 Fulton Street","buildingName":"St. Margaret's Residence","roomFloor":"1st Floor Library","city":"New York","state":"NY","zipCode":"10038","detailsBox":"","wheelChair":true},{"meetingID":"1556","meetingName":"EXCHANGE VIEWS @ JOHN STREET CHURCH","streetAddress":"44 John Street","buildingName":"","roomFloor":"","city":"New York","state":"NY","zipCode":"10038","detailsBox":"Thursday 1:30 = Alt. Step/Tradition Email exchangeviews1215@yahoo.com for questions","wheelChair":false},{"meetingID":"1557","meetingName":"EXCHANGE VIEWS @ ST. MARGARET'S HOUSE","streetAddress":"49 Fulton Street","buildingName":"","roomFloor":"","city":"New York","state":"NY","zipCode":"10038","detailsBox":"This is new location as of 9-12-14 M 7:30 am= Trad 1st Monday.","wheelChair":true},{"meetingID":"161","meetingName":"FRIDAY DOWNTOWN","streetAddress":"20 Cardinal Hayes Place","buildingName":"St. Andrew's Church","roomFloor":"Enter through driveway behind Church","city":"New York","state":"NY","zipCode":"10007","detailsBox":"Note: Location Subject to change","wheelChair":true},{"meetingID":"164","meetingName":"GATEWAY","streetAddress":"22 Barclay Street","buildingName":"St. Peter's Church","roomFloor":"","city":"New York","state":"NY","zipCode":"null","detailsBox":"","wheelChair":false},{"meetingID":"296","meetingName":"PASSING THE BAR","streetAddress":"20 Cardinal Hayes Place","buildingName":"St. Andrew's Church","roomFloor":"Enter through driveway behind Church","city":"New York","state":"NY","zipCode":"10007","detailsBox":"*Business meeting last Tuesday @ Mar,Jun,Sep & Dec.only. **Promises 1st Wednesday, ***T Last Thursday ** LOCATION IS SUBJECT TO CHANGE","wheelChair":true},{"meetingID":"1402","meetingName":"S.O.B.E.R.","streetAddress":"22 Barclay Street","buildingName":"Saint Peter's Church","roomFloor":"","city":"New York","state":"NY","zipCode":"10007","detailsBox":"Enter on Church Street Lower floor, Parish Office Room","wheelChair":false},{"meetingID":"89","meetingName":"SANE AND SOBER","streetAddress":"283 West Broadway","buildingName":"Hazelden Tribeca","roomFloor":"","city":"New York","state":"NY","zipCode":"10013","detailsBox":"Mental Health Challenges in Sobriety. *Alternating Closed & rotating 1, 2, 3 Step every other week. Open â€“ Last Wednesday.","wheelChair":true},{"meetingID":"321","meetingName":"SATURDAY AFTERNOON DISCUSSION","streetAddress":"125 Barclay Street","buildingName":"Municipal Union Bldg DC 37","roomFloor":"","city":"New York","state":"NY","zipCode":"10007","detailsBox":"Ask security guard for room #","wheelChair":false},{"meetingID":"1195","meetingName":"SEAMEN'S GROUP","streetAddress":"49 Fulton Street","buildingName":"St. Margaret's House","roomFloor":"Conference Room #1","city":"New York","state":"NY","zipCode":"10038","detailsBox":"*Co-ed meeting, all are welcome.","wheelChair":true},{"meetingID":"343","meetingName":"SEAPORT","streetAddress":"49 Fulton Street","buildingName":"St. Margaret's House","roomFloor":"","city":"New York","state":"NY","zipCode":"10038","detailsBox":"11th Step Meditation (Mon), Topic (Thu)","wheelChair":true},{"meetingID":"385","meetingName":"TOWER","streetAddress":"20 Cardinal Hayes Place","buildingName":"Church of Saint Andrew","roomFloor":"","city":"New York","state":"NY","zipCode":"10007","detailsBox":"Step 1st Wednesday","wheelChair":false},{"meetingID":"1446","meetingName":"TRIANGLE GROUP","streetAddress":"283 West Broadway","buildingName":"Tribeca 12 Building","roomFloor":"","city":"New York","state":"NY","zipCode":"10013","detailsBox":"Walk thru green doors; first floor, rear. Addtl meditation meeting on Sunday at 11:15 if room full","wheelChair":true},{"meetingID":"1555","meetingName":"TRIBECA GROUP @ ST. MARGARET'S HOUSE","streetAddress":"49 Fulton Street","buildingName":"","roomFloor":"","city":"New York","state":"NY","zipCode":"10038","detailsBox":"this is the new location as of 9/8/14 tribecagroup2014@gmail.com","wheelChair":true},{"meetingID":"387","meetingName":"TRIBECA GROUP @ ST. PETER'S CHURCH","streetAddress":"22 Barclay Street","buildingName":"St. Peter's Church","roomFloor":"","city":"New York","state":"NY","zipCode":"10006","detailsBox":"Monday step - 3rd and 11th step workshop tribecagroup2014@gmail.com","wheelChair":false},{"meetingID":"1549","meetingName":"WOMEN'S DOWNTOWN AA STEP MEETING","streetAddress":"20 Cardinal Hayes Place","buildingName":"St. Andrew's Church","roomFloor":"","city":"New York","state":"NY","zipCode":"10007","detailsBox":"","wheelChair":false},{"meetingID":"434","meetingName":"YOUNG PEOPLE'S DIVERSITY","streetAddress":"283 West Broadway","buildingName":"Hazelden Center","roomFloor":"","city":"New York","state":"NY","zipCode":"10013","detailsBox":"Lesbian, Gay, Bi-sexual & Transgendered Focus All are welcome.","wheelChair":false},{"meetingID":"130","meetingName":"YOUNG PEOPLE'S STEP","streetAddress":"283 West Broadway","buildingName":"Hazelden Center","roomFloor":"","city":"New York","state":"NY","zipCode":"10013","detailsBox":"","wheelChair":true},{"meetingID":"435","meetingName":"YOUTH ENJOYING SOBRIETY (Y.E.S.)","streetAddress":"283 West Broadway","buildingName":"Hazelden Center","roomFloor":"","city":"New York","state":"NY","zipCode":"10013","detailsBox":"Open Anniv. Last Saturday.","wheelChair":true}]