[{"zoneID":4,"meetingID":"159","meetingName":"4 THE GRACE","streetAddress":"252 West 46th Street","buildingName":"46th Street Club House","roomFloor":"3rd Floor","city":"New York","state":"NY","zipCode":"10036","detailsBox":"","wheelChair":false},{"zoneID":4,"meetingID":"29","meetingName":"42nd AT 9:00pm","streetAddress":"303 West 42nd Street","buildingName":"","roomFloor":"Room #404","city":"New York","state":"NY","zipCode":"10036","detailsBox":"Sat=A.A. Literature","wheelChair":false},{"zoneID":4,"meetingID":"1146","meetingName":"A NEW FREEDOM","streetAddress":"303 West 42nd Street","buildingName":"","roomFloor":"3rd Floor Room #306","city":"New York","state":"NY","zipCode":"10036","detailsBox":"Sun=11th Step, Wed=Gratitude, Thu=Daily Reflections","wheelChair":false},{"zoneID":4,"meetingID":"39","meetingName":"ABINGDON SQUARE IN CHELSEA","streetAddress":"305 7th Avenue","buildingName":"S.A.G.E.","roomFloor":"6th Floor","city":"New York","state":"NY","zipCode":"10001","detailsBox":"","wheelChair":true},{"zoneID":4,"meetingID":"582","meetingName":"ADVENTURES IN SOBRIETY","streetAddress":"1 West 53rd Street","buildingName":"Saint Thomas Church","roomFloor":"3rd Floor Andrew Hall","city":"New York","state":"NY","zipCode":"10019","detailsBox":"Gay & Lesbian Focus.  All are welcome.","wheelChair":true},{"zoneID":4,"meetingID":"44","meetingName":"ALANON HOUSE   (AA Meetings Only)","streetAddress":"303 West 42nd Street","buildingName":"","roomFloor":"3rd Floor Room #306","city":"New York","state":"NY","zipCode":"10036","detailsBox":"Sun.2pm=Women's Meeting","wheelChair":false},{"zoneID":4,"meetingID":"47","meetingName":"AMAZING GRACE","streetAddress":"133 West 46th Street","buildingName":"St. Mary the Virgin Church","roomFloor":"3rd Floor","city":"New York","state":"NY","zipCode":"10036","detailsBox":"T Last Thursday All meetings are non-smoking.","wheelChair":false},{"zoneID":4,"meetingID":"49","meetingName":"ANNEX                               (:I)","streetAddress":"441 West 26th Street","buildingName":"Hudson Guild","roomFloor":"2nd Floor Activity Room A","city":"New York","state":"NY","zipCode":"10001","detailsBox":"","wheelChair":true},{"zoneID":4,"meetingID":"50","meetingName":"ANNEX    (:II)","streetAddress":"446 West 33rd Street","buildingName":"GMHC","roomFloor":"6th Floor Room #6046","city":"New York","state":"NY","zipCode":"10001","detailsBox":"Gay & Lesbian focus.  All are welcome.","wheelChair":true},{"zoneID":4,"meetingID":"1208","meetingName":"ARTISTS IN RECOVERY","streetAddress":"252 West 46th Street","buildingName":"46th Street Clubhouse","roomFloor":"3rd Floor","city":"New York","state":"NY","zipCode":"10036","detailsBox":"All are welcome.","wheelChair":false},{"zoneID":4,"meetingID":"569","meetingName":"BEGINNERS","streetAddress":"252 West 46th Street","buildingName":"46th Street Club House","roomFloor":"3rd Floor","city":"New York","state":"NY","zipCode":"10036","detailsBox":"Readings from Living Sober","wheelChair":false},{"zoneID":4,"meetingID":"571","meetingName":"BEGINNERS","streetAddress":"252 West 46th Street","buildingName":"46th Street Club House","roomFloor":"3rd Floor","city":"New York","state":"NY","zipCode":"10036","detailsBox":"","wheelChair":false},{"zoneID":4,"meetingID":"60","meetingName":"BETWEEN SHOWS","streetAddress":"339 West 47th Street","buildingName":"The Actor's Temple","roomFloor":"","city":"New York","state":"NY","zipCode":"10036","detailsBox":"Non-Smoking Meeting.","wheelChair":false},{"zoneID":4,"meetingID":"1449","meetingName":"BLUEPRINT FOR LIVING","streetAddress":"303 West 42nd Street","buildingName":"","roomFloor":"","city":"New York","state":"NY","zipCode":"10036","detailsBox":"","wheelChair":false},{"zoneID":4,"meetingID":"62","meetingName":"BOOKSHOP AT NOON","streetAddress":"139 West 31st Street","buildingName":"St. Francis of Assisi Education Center","roomFloor":"3rd Floor","city":"New York","state":"NY","zipCode":"10001","detailsBox":"No Meeting on Legal Holidays All meetings are non-smoking.","wheelChair":false},{"zoneID":4,"meetingID":"113","meetingName":"CLEAN AND DRY","streetAddress":"422 West 57th Street","buildingName":"Trinity Presbyterian Church","roomFloor":"Upstairs","city":"New York","state":"NY","zipCode":"10019","detailsBox":"","wheelChair":false},{"zoneID":4,"meetingID":"131","meetingName":"COMMUTERS SPECIAL","streetAddress":"211 West 30th Street","buildingName":"St. John's Hall","roomFloor":"","city":"New York","state":"NY","zipCode":"10001","detailsBox":"","wheelChair":false},{"zoneID":4,"meetingID":"135","meetingName":"D.I.V.A.  (Divinely Inspired Vivacious Alcoholics)","streetAddress":"252 West 46th Street","buildingName":"46th Street Club House","roomFloor":"3rd Floor","city":"New York","state":"NY","zipCode":"10036","detailsBox":"Women's Meeting","wheelChair":false},{"zoneID":4,"meetingID":"1048","meetingName":"FIFTH AVENUE STEP","streetAddress":"1 West 53rd Street","buildingName":"St. Thomas Church","roomFloor":"3rd Floor","city":"New York","state":"NY","zipCode":"10019","detailsBox":"","wheelChair":true},{"zoneID":4,"meetingID":"153","meetingName":"FIRESIDE  (:I)  WEEKDAY MEETINGS ONLY","streetAddress":"422 West 57th Street","buildingName":"Trinity Presbyterian Church","roomFloor":"","city":"New York","state":"NY","zipCode":"10019","detailsBox":"Tue.12:30 = T 1st Tuesday Beginners upstairs; other meetings in the chapel","wheelChair":false},{"zoneID":4,"meetingID":"156","meetingName":"FOGLIFTERS-FIFTH AVENUE","streetAddress":"7 West 55th Street","buildingName":"Fifth Av Presbyterian Church","roomFloor":"5th Floor","city":"New York","state":"NY","zipCode":"10019","detailsBox":"Monday thru Thursday Beginners Meeting 5th floor Monday thru Thursday Open Discussion 3rd floor Wednesday Step Meeting","wheelChair":true},{"zoneID":4,"meetingID":"157","meetingName":"FORTY-FIVE SOLUTIONS","streetAddress":"252 West 46th Street","buildingName":"46th Street Club House","roomFloor":"","city":"New York","state":"NY","zipCode":"10036","detailsBox":"","wheelChair":false},{"zoneID":4,"meetingID":"169","meetingName":"GREEN ROOM","streetAddress":"729 7th Avenue","buildingName":"The Actors Fund of America","roomFloor":"10th Floor small conference room","city":"New York","state":"NY","zipCode":"10019","detailsBox":"Focus is on those in the entertainment industry.  All are welcome. As Bill Sees It","wheelChair":true},{"zoneID":4,"meetingID":"171","meetingName":"GRUPO BUENA VOLUNTAD","streetAddress":"538 West 47th Street","buildingName":"Apartment Building","roomFloor":"","city":"New York","state":"NY","zipCode":"10036","detailsBox":"All meetings are Open Discussion format.","wheelChair":false},{"zoneID":4,"meetingID":"220","meetingName":"HELL'S KITCHEN","streetAddress":"1000 Tenth Avenue","buildingName":"Mount Sinai - Roosevelt Hospital","roomFloor":"8th Floor Room #8G49","city":"New York","state":"NY","zipCode":"10019","detailsBox":"Anniv. 1st Monday, T 2nd & S Last Thursday, NOTE: On legal holidays, the meeting meets on the 1st Floor (Ask for the room at the reception desk)","wheelChair":true},{"zoneID":4,"meetingID":"221","meetingName":"HENRY HUDSON","streetAddress":"303 West 42nd Street","buildingName":"","roomFloor":"3rd Floor Room #306","city":"New York","state":"NY","zipCode":"10036","detailsBox":"","wheelChair":false},{"zoneID":4,"meetingID":"572","meetingName":"JOE AND CHARLIE CD MEETING","streetAddress":"252 West 46th Street","buildingName":"46th Street Club House","roomFloor":"3rd Floor","city":"New York","state":"NY","zipCode":"10036","detailsBox":"Big Book Workshop","wheelChair":false},{"zoneID":4,"meetingID":"231","meetingName":"LEARNING TO LIVE (:I)","streetAddress":"307 West 26th Street","buildingName":"Upright Citizens Brigade Theatre","roomFloor":"","city":"New York","state":"NY","zipCode":"10001","detailsBox":"All meetings are non-smoking.","wheelChair":false},{"zoneID":4,"meetingID":"1450","meetingName":"LUCKY ONES","streetAddress":"405 West 59th Street","buildingName":"St. Paul's Episcopal Parish House","roomFloor":"","city":"New York","state":"NY","zipCode":"10019","detailsBox":"Room LL2","wheelChair":true},{"zoneID":4,"meetingID":"253","meetingName":"MIDNIGHT IN MIDTOWN","streetAddress":"303 West 42nd Street","buildingName":"","roomFloor":"","city":"New York","state":"NY","zipCode":"10036","detailsBox":"T Last Sunday, Mon=Came To Believe, Last Sat. Open Anniversary Last Sat. meets at 252 West 46th Street","wheelChair":false},{"zoneID":4,"meetingID":"254","meetingName":"MIRACLE","streetAddress":"422 West 57th Street","buildingName":"Trinity Presbyterian Church ","roomFloor":"","city":"New York","state":"NY","zipCode":"10019","detailsBox":"Open on Holidays.","wheelChair":true},{"zoneID":4,"meetingID":"1200","meetingName":"MORNING CALL","streetAddress":"133 West 46th Street","buildingName":"St. Mary the Virgin Church","roomFloor":"3rd Floor","city":"New York","state":"NY","zipCode":"10036","detailsBox":"","wheelChair":false},{"zoneID":4,"meetingID":"273","meetingName":"NEW BUT WEST","streetAddress":"133 West 46th Street","buildingName":"St. Mary the Virgin Church","roomFloor":"2nd and 3rd Floor","city":"New York","state":"NY","zipCode":"10036","detailsBox":"Tue.Step=#'s 4-7, Wed.5:30=Grapevine Topic, Thu.12:30 Step=#'s 4-7 Thu.5:30=T last Thu.,Fri.BB=T last Fri. Fri.Step=#'s 8-12","wheelChair":false},{"zoneID":4,"meetingID":"561","meetingName":"NEW PHOENIX","streetAddress":"303 West 42nd Street","buildingName":"","roomFloor":"Room #306","city":"New York","state":"NY","zipCode":"10036","detailsBox":"","wheelChair":false},{"zoneID":4,"meetingID":"285","meetingName":"NINTH AVENUE           (:I)","streetAddress":"296 9th Avenue","buildingName":"Holy Apostles Church Rectory","roomFloor":"2nd Floor","city":"New York","state":"NY","zipCode":"10001","detailsBox":"Business meeting held on 1st Monday at 7:45pm LGBTQ Friendly.  All are welcome.","wheelChair":false},{"zoneID":4,"meetingID":"287","meetingName":"NU GARDEN","streetAddress":"139 West 31st Street","buildingName":"St. Francis of Assisi Center","roomFloor":"3rd Floor","city":"New York","state":"NY","zipCode":"10001","detailsBox":"All meetings are non-smoking.","wheelChair":false},{"zoneID":4,"meetingID":"1400","meetingName":"PARK BENCH   (:I)","streetAddress":"1 West 53rd Street","buildingName":"St. Thomas Church","roomFloor":"3rd Floor","city":"New York","state":"NY","zipCode":"10019","detailsBox":"","wheelChair":true},{"zoneID":4,"meetingID":"302","meetingName":"POWERLESS","streetAddress":"484 West 43rd Street","buildingName":"Manhattan Plaza Health Club","roomFloor":"1st Floor","city":"New York","state":"NY","zipCode":"10036","detailsBox":"Fri=Living Sober, Sat=Promises","wheelChair":true},{"zoneID":4,"meetingID":"304","meetingName":"PROMISES","streetAddress":"7 West 55th Street","buildingName":"Fifth Av Presbyterian Church","roomFloor":"","city":"New York","state":"NY","zipCode":"10019","detailsBox":"","wheelChair":true},{"zoneID":4,"meetingID":"568","meetingName":"PROMISES","streetAddress":"252 West 46th Street","buildingName":"46th Street Club House","roomFloor":"3rd Floor","city":"New York","state":"NY","zipCode":"10036","detailsBox":"","wheelChair":false},{"zoneID":4,"meetingID":"307","meetingName":"RAINBOW ROOM","streetAddress":"252 West 46th Street","buildingName":"46th Street Club House","roomFloor":"3rd Floor","city":"New York","state":"NY","zipCode":"10036","detailsBox":"Gay, Lesbian, Bisexual & Transgender Focus.  All are welcome. *Last Saturday of month=\"Open Anniversary\"","wheelChair":false},{"zoneID":4,"meetingID":"312","meetingName":"RENAISSANCE","streetAddress":"4 West 43rd Street","buildingName":"The Learning Center","roomFloor":"","city":"New York","state":"NY","zipCode":"10017","detailsBox":"","wheelChair":true},{"zoneID":4,"meetingID":"573","meetingName":"SATURDAY ROTATING 12 STEP","streetAddress":"252 West 46th Street","buildingName":"46th Street Club House","roomFloor":"3rd Floor","city":"New York","state":"NY","zipCode":"10036","detailsBox":"Rotating Step meeting.","wheelChair":false},{"zoneID":4,"meetingID":"1356","meetingName":"SPIRITUAL FRIDAYS","streetAddress":"296 Ninth Avenue","buildingName":"Church of The Holy Apostles","roomFloor":"Rectory 1st Floor","city":"New York","state":"NY","zipCode":"10001","detailsBox":"Topic meeting, focus is on Spirituality","wheelChair":false},{"zoneID":4,"meetingID":"364","meetingName":"ST. THOMAS A.M.","streetAddress":"1 West 53rd Street","buildingName":"St. Thomas Church Parish House","roomFloor":"3rd Floor","city":"New York","state":"NY","zipCode":"10019","detailsBox":"Round Robin Meeting.","wheelChair":false},{"zoneID":4,"meetingID":"365","meetingName":"STATLER AT NOON","streetAddress":"210 West 31st Street","buildingName":"St. John the Baptist Church","roomFloor":"Basement (On Left)","city":"New York","state":"NY","zipCode":"10001","detailsBox":"T Last Thursday; S other Thursdays All meetings are non-smoking.","wheelChair":false},{"zoneID":4,"meetingID":"142","meetingName":"STEPS AND TRADITIONS ON WEDNESDAY","streetAddress":"422 West 57th Street","buildingName":"Trinity Presbyterian Church","roomFloor":"","city":"New York","state":"NY","zipCode":"10019","detailsBox":"T-1st Wednesday","wheelChair":false},{"zoneID":4,"meetingID":"574","meetingName":"SUNDAY NIGHT BEGINNERS","streetAddress":"252 West 46th Street","buildingName":"46th Street Club House","roomFloor":"3rd Floor","city":"New York","state":"NY","zipCode":"10036","detailsBox":"","wheelChair":false},{"zoneID":4,"meetingID":"1481","meetingName":"TUESDAY SOBER AGNOSTICS","streetAddress":"134 West 29th Street","buildingName":"","roomFloor":"2nd Floor Studio 203","city":"New York","state":"NY","zipCode":"10001","detailsBox":"Agnostic- no prayer","wheelChair":true},{"zoneID":4,"meetingID":"408","meetingName":"WEST 58th STREET STEP","streetAddress":"1000 Tenth Avenue","buildingName":"Mount Sinai - Roosevelt Hospital","roomFloor":"8th Fl Room #8G-49","city":"New York","state":"NY","zipCode":"10019","detailsBox":"","wheelChair":true},{"zoneID":4,"meetingID":"419","meetingName":"WOMEN OVER FORTY","streetAddress":"446 West 33rd Street","buildingName":"GMHC","roomFloor":"","city":"New York","state":"NY","zipCode":"10001","detailsBox":"S 1st, C 2nd, BB 3rd, O Anniversary Meeting 4th Friday Women's Meeting.","wheelChair":true},{"zoneID":4,"meetingID":"436","meetingName":"YOUNG IN 164","streetAddress":"423 West 46th Street","buildingName":"St. Clements Church","roomFloor":"","city":"New York","state":"NY","zipCode":"10036","detailsBox":"","wheelChair":true},{"zoneID":4,"meetingID":"1438","meetingName":"YOUNG PEOPLE'S MEETING","streetAddress":"252 West 46th Street","buildingName":"46th Street Club House","roomFloor":"3rd Floor","city":"New York","state":"NY","zipCode":"10036","detailsBox":"Young People BB Meeting","wheelChair":false}]