[{"zoneID":6,"meetingID":"34","meetingName":"A NEW DAY","streetAddress":"207 West 96th Street","buildingName":"Holy Name Church","roomFloor":"Basement","city":"New York","state":"NY","zipCode":"10025","detailsBox":"Mon=As Bill Sees It, Wed=Living Sober","wheelChair":false},{"zoneID":6,"meetingID":"35","meetingName":"A VISION FOR YOU","streetAddress":"120 West 69th Street","buildingName":"Christ & St. Stephen's Church","roomFloor":"Basement","city":"New York","state":"NY","zipCode":"10023","detailsBox":"","wheelChair":false},{"zoneID":6,"meetingID":"41","meetingName":"AFTER EIGHT (:i)","streetAddress":"422 West 57th Street","buildingName":"Trinity Presbyterian Church","roomFloor":"","city":"New York","state":"NY","zipCode":"10023","detailsBox":"Tues= AA Literature/Topic meeting The group's focus is on long-term sobriety; but all A.A. members are welcome.","wheelChair":false},{"zoneID":6,"meetingID":"1562","meetingName":"AFTER EIGHT (:ii)","streetAddress":"164 West 74th Street","buildingName":"Phoenix House","roomFloor":"1st Floor","city":"New York","state":"NY","zipCode":"10023","detailsBox":"","wheelChair":true},{"zoneID":6,"meetingID":"46","meetingName":"ALTERED ATTITUDES","streetAddress":"207 West 96th Street","buildingName":"Holy Name Church","roomFloor":"Little Room Basement","city":"New York","state":"NY","zipCode":"10025","detailsBox":"","wheelChair":false},{"zoneID":6,"meetingID":"48","meetingName":"AMSTERDAM","streetAddress":"144 West 90th Street","buildingName":"St. Gregory's Church","roomFloor":"Basement","city":"New York","state":"NY","zipCode":"10024","detailsBox":"T - Last Friday, Anniversary-Last Saturday.","wheelChair":false},{"zoneID":6,"meetingID":"51","meetingName":"ANSONIA","streetAddress":"141 West 73rd Street","buildingName":"Hamilton House","roomFloor":"","city":"New York","state":"NY","zipCode":"10023","detailsBox":"Anniv. Meeting last Monday.","wheelChair":true},{"zoneID":6,"meetingID":"57","meetingName":"ATLANTIC WEST STEP & TRADITION","streetAddress":"4 West 76th Street","buildingName":"Fourth Universalist Church","roomFloor":"","city":"New York","state":"NY","zipCode":"10023","detailsBox":"Alternating Step and Tradition meeting.","wheelChair":false},{"zoneID":6,"meetingID":"61","meetingName":"BLOOMINGDALE","streetAddress":"221 West 107th Street","buildingName":"Church of the Ascension","roomFloor":"Basement","city":"New York","state":"NY","zipCode":"10025","detailsBox":"All Meetings Are Non-Smoking. Anniversary meeting last Tues at 6:15","wheelChair":false},{"zoneID":6,"meetingID":"66","meetingName":"BROADWAY AT 96TH","streetAddress":"207 West 96th Street","buildingName":"Holy Name Church","roomFloor":"Basement Little Room","city":"New York","state":"NY","zipCode":"10025","detailsBox":"","wheelChair":false},{"zoneID":6,"meetingID":"67","meetingName":"CADILLACS FOR EVERYONE","streetAddress":"215 West 82nd Street","buildingName":"Holy Trinity Rectory","roomFloor":"","city":"New York","state":"NY","zipCode":"10024","detailsBox":"Men's Meeting","wheelChair":true},{"zoneID":6,"meetingID":"69","meetingName":"CAMPUS CHEER","streetAddress":"601 West 114th Street","buildingName":"Broadway Presbyterian Church","roomFloor":"2nd Red Door","city":"New York","state":"NY","zipCode":"10025","detailsBox":"","wheelChair":false},{"zoneID":6,"meetingID":"73","meetingName":"CENTRAL PARK WEST","streetAddress":"Central Park West and 76th Street","buildingName":"Universalist Church","roomFloor":"basement gymnasium","city":"New York","state":"NY","zipCode":"10023","detailsBox":"T Last Thursday","wheelChair":false},{"zoneID":6,"meetingID":"1423","meetingName":"CHELSEA RIVERSIDE","streetAddress":"5 West 63rd Street","buildingName":"West Side YMCA at 63rd Street","roomFloor":"Downstairs in large meeting Room","city":"New York","state":"NY","zipCode":"10023","detailsBox":"10:15pm = Topic Meeting","wheelChair":true},{"zoneID":6,"meetingID":"79","meetingName":"CHOCK FULL OF SOBRIETY","streetAddress":"4 West 76th Street","buildingName":"Universalist Church","roomFloor":"In the Gym","city":"New York","state":"NY","zipCode":"10023","detailsBox":"S 1st & T Last Friday","wheelChair":false},{"zoneID":6,"meetingID":"110","meetingName":"CLASSEN HALL     (:II)","streetAddress":"160 Central Park West","buildingName":"Fourth Universalist Society","roomFloor":"Gym Basement","city":"New York","state":"NY","zipCode":"10023","detailsBox":"","wheelChair":false},{"zoneID":6,"meetingID":"108","meetingName":"CLASSEN HALL STEP MEETING  ( :I )","streetAddress":"152 West 66th Street","buildingName":"Good Shepherd Faith Church","roomFloor":"Basement Level Chapel","city":"New York","state":"NY","zipCode":"10023","detailsBox":"Enter basement level @ red door on left side of the building.","wheelChair":false},{"zoneID":6,"meetingID":"129","meetingName":"COLUMBUS AT FIVE","streetAddress":"3 West 95th Street","buildingName":"Second Presbyterian Church","roomFloor":"Lower Level Auditorium","city":"New York","state":"NY","zipCode":"10025","detailsBox":"Children are welcome at all meetings. All meetings are non-smoking.","wheelChair":false},{"zoneID":6,"meetingID":"1552","meetingName":"EIGHTIETH STREET BEGINNERS","streetAddress":"251 West 80th Street","buildingName":"All Angels Church","roomFloor":"","city":"New York","state":"NY","zipCode":"10024","detailsBox":"","wheelChair":true},{"zoneID":6,"meetingID":"148","meetingName":"FAST BREAK","streetAddress":"111 West 71st Street","buildingName":"Hargrave House","roomFloor":"","city":"New York","state":"NY","zipCode":"10023","detailsBox":"","wheelChair":false},{"zoneID":6,"meetingID":"149","meetingName":"FAST BREAK WEEKEND","streetAddress":"5 West 63rd Street","buildingName":"West Side YMCA","roomFloor":"1st Floor","city":"New York","state":"NY","zipCode":"10023","detailsBox":"","wheelChair":true},{"zoneID":6,"meetingID":"154","meetingName":"FIRESIDE  (:II)  WEEKEND MEETINGS ONLY","streetAddress":"5 West 63rd Street","buildingName":"West Side YMCA","roomFloor":"","city":"New York","state":"NY","zipCode":"10023","detailsBox":"T 1st Saturday @ 12:30pm","wheelChair":false},{"zoneID":6,"meetingID":"155","meetingName":"FIRST THINGS FIRST","streetAddress":"207 West 96th Street","buildingName":"Holy Name Church","roomFloor":"Basement Little Room","city":"New York","state":"NY","zipCode":"10025","detailsBox":"Last Sat. of month at 10:15 = anniversary meeting","wheelChair":false},{"zoneID":6,"meetingID":"1202","meetingName":"FRIDAY NIGHT STEP","streetAddress":"26 West 84th Street","buildingName":"Church of St. Matthew and St. Timothy","roomFloor":"","city":"New York","state":"NY","zipCode":"10024","detailsBox":"MEETING NOW TAKES PLACE YEAR ROUND! Up concrete steps, take stairs on left, 2nd Floor (Sandford Hall)","wheelChair":false},{"zoneID":6,"meetingID":"172","meetingName":"GRUPO CAMINO REAL","streetAddress":"200 West 97th Street","buildingName":"Holy Name School","roomFloor":"Basement","city":"New York","state":"NY","zipCode":"10025","detailsBox":"Spanish speaking meetings.","wheelChair":false},{"zoneID":6,"meetingID":"176","meetingName":"GRUPO DULCES 24","streetAddress":"218 West 108th Street","buildingName":"Grace House","roomFloor":"Main Floor","city":"New York","state":"NY","zipCode":"10025","detailsBox":"B Last Friday Bilingual (English-Spanish) Meetings.","wheelChair":true},{"zoneID":6,"meetingID":"1136","meetingName":"GRUPO LUZ DIVINA","streetAddress":"125 West 104th Street","buildingName":"Iglesia Metodista Grace","roomFloor":"1st Floor","city":"New York","state":"NY","zipCode":"10025","detailsBox":"Spanish speaking meeting.","wheelChair":true},{"zoneID":6,"meetingID":"218","meetingName":"HARGRAVE","streetAddress":"141 West 73rd Street","buildingName":"Hamilton House","roomFloor":"","city":"New York","state":"NY","zipCode":"10023","detailsBox":"","wheelChair":true},{"zoneID":6,"meetingID":"230","meetingName":"LAMBDA WEST","streetAddress":"236 West 73rd Street","buildingName":"Rutgers Church","roomFloor":"5th Floor","city":"New York","state":"NY","zipCode":"10023","detailsBox":"Wed.6pm=Interpreted for the deaf and hard of hearing. Gay Men & Women Focus.  All are welcome.","wheelChair":true},{"zoneID":6,"meetingID":"244","meetingName":"MANHATTAN VALLEY","streetAddress":"165 West 105th Street","buildingName":"West End Presbyterian Church","roomFloor":"Basement","city":"New York","state":"NY","zipCode":"10025","detailsBox":"","wheelChair":false},{"zoneID":6,"meetingID":"1436","meetingName":"METROPOLIS MEN'S MEETING","streetAddress":"207 West 96th Street","buildingName":"Holy Name Church","roomFloor":"","city":"New York","state":"NY","zipCode":"10025","detailsBox":"","wheelChair":false},{"zoneID":6,"meetingID":"249","meetingName":"MID-DAY CHEER","streetAddress":"207 West 96th Street","buildingName":"Holy Name Church Rectory","roomFloor":"Basement Little Room","city":"New York","state":"NY","zipCode":"10025","detailsBox":"Mon=11th Step Meditation, Fri= Alt.Step & Tradition Meeting","wheelChair":false},{"zoneID":6,"meetingID":"263","meetingName":"MORNINGSIDE","streetAddress":"2504 Broadway","buildingName":"Advent Lutheran Church","roomFloor":"Basement","city":"New York","state":"NY","zipCode":"10025","detailsBox":"All meetings are non-smoking.","wheelChair":true},{"zoneID":6,"meetingID":"1468","meetingName":"MORNINGSIDE HEIGHTS BEGINNERS","streetAddress":"405 West 114th Street","buildingName":"Church of Notre Dame","roomFloor":"Merton Room","city":"New York","state":"NY","zipCode":"10025","detailsBox":"","wheelChair":true},{"zoneID":6,"meetingID":"270","meetingName":"NEVER TOO LATE","streetAddress":"368 West End Ave","buildingName":"West End Collegiate Church","roomFloor":"1st Floor","city":"New York","state":"NY","zipCode":"10024","detailsBox":"All meetings are non-smoking.","wheelChair":false},{"zoneID":6,"meetingID":"281","meetingName":"NIGHT LIGHT","streetAddress":"225 West 99th Street","buildingName":"St. Michael's Parish House","roomFloor":"1st Floor","city":"New York","state":"NY","zipCode":"10025","detailsBox":"T 1st Monday Non-Smoking Meeting.","wheelChair":false},{"zoneID":6,"meetingID":"282","meetingName":"NIGHT LIGHT BEGINNERS","streetAddress":"251 West 100th Street","buildingName":"Anshe Chesed Synagogue","roomFloor":"","city":"New York","state":"NY","zipCode":"10025","detailsBox":"Non-Smoking Meeting.","wheelChair":true},{"zoneID":6,"meetingID":"283","meetingName":"NINETY-SIXTH STREET WORKSHOP","streetAddress":"207 West 96th Street","buildingName":"Holy Name Church","roomFloor":"Basement Little Room","city":"New York","state":"NY","zipCode":"10025","detailsBox":"Anniv. Last Thursday, Fri=Promises, Sat=As Bill Sees It","wheelChair":false},{"zoneID":6,"meetingID":"291","meetingName":"OXFORD  (:I)","streetAddress":"26 West 84th Street","buildingName":"Church of St. Matthew & St. Timothy","roomFloor":"","city":"New York","state":"NY","zipCode":"10024","detailsBox":"Interpreted for the Deaf and Hard of Hearing No meetings on holidays On Ground Floor Mon. & Wed.; Basement on Thurs.","wheelChair":true},{"zoneID":6,"meetingID":"305","meetingName":"PROMISES PROMISES","streetAddress":"5 West 63rd Street","buildingName":"West Side YMCA","roomFloor":"Basement Room D","city":"New York","state":"NY","zipCode":"10023","detailsBox":"","wheelChair":false},{"zoneID":6,"meetingID":"313","meetingName":"RENEWAL WEST","streetAddress":"552 West End Avenue","buildingName":"St. Ignatius Church","roomFloor":"Basement","city":"New York","state":"NY","zipCode":"10024","detailsBox":"Anniv.  Last Sunday","wheelChair":false},{"zoneID":6,"meetingID":"1511","meetingName":"ROUTES","streetAddress":"164 West 74 Street","buildingName":"Phoenix House","roomFloor":"1st Floor (ask at Front Desk)","city":"New York","state":"NY","zipCode":"10024","detailsBox":"","wheelChair":false},{"zoneID":6,"meetingID":"319","meetingName":"RUDE AWAKENING","streetAddress":"340 West 85th Street","buildingName":"Volunteers of America","roomFloor":"Basement","city":"New York","state":"NY","zipCode":"10024","detailsBox":"Living Sober","wheelChair":false},{"zoneID":6,"meetingID":"351","meetingName":"SMITHEREENS","streetAddress":"368 West End Avenue","buildingName":"West End Collegiate Church","roomFloor":"1st Floor","city":"New York","state":"NY","zipCode":"10024","detailsBox":"All Meetings Are Non-Smoking.","wheelChair":false},{"zoneID":6,"meetingID":"355","meetingName":"SOBER STEPPING","streetAddress":"152 West 71st Street","buildingName":"Blessed Sacrament Church Rectory","roomFloor":"","city":"New York","state":"NY","zipCode":"10023","detailsBox":"Alternates Betw.the Steps & Promises.","wheelChair":false},{"zoneID":6,"meetingID":"372","meetingName":"SUNDAY MEN'S TOPIC","streetAddress":"5 West 63rd Street","buildingName":"West Side YMCA","roomFloor":"","city":"New York","state":"NY","zipCode":"10023","detailsBox":"Men's Meeting","wheelChair":false},{"zoneID":6,"meetingID":"375","meetingName":"SUNDAY WEST","streetAddress":"131 West 72nd Street","buildingName":"","roomFloor":"3rd Floor Room #2F","city":"New York","state":"NY","zipCode":"10023","detailsBox":"Round Robin Topic Meeting.","wheelChair":false},{"zoneID":6,"meetingID":"391","meetingName":"TURN IT OVER","streetAddress":"207 West 96th Street","buildingName":"Holy Name Church","roomFloor":"Basement Little Room","city":"New York","state":"NY","zipCode":"10025","detailsBox":"T Last Friday","wheelChair":false},{"zoneID":6,"meetingID":"401","meetingName":"WAY OF LIFE","streetAddress":"152 West 71st Street","buildingName":"Blessed Sacrament Church Rectory","roomFloor":"Ring Bell","city":"New York","state":"NY","zipCode":"10023","detailsBox":"10am=As Bill Sees It, 11:15am=Topic Meeting","wheelChair":false},{"zoneID":6,"meetingID":"402","meetingName":"WE AGNOSTICS OF NYC","streetAddress":"30 West 68th Street","buildingName":"Stephen Wise Free Synagogue","roomFloor":"Check security desk for Room #","city":"New York","state":"NY","zipCode":"10023","detailsBox":"S Last Thursday,  No Prayers.","wheelChair":true},{"zoneID":6,"meetingID":"1204","meetingName":"WE ARE NOT DOCTORS (WESTSIDE)","streetAddress":"207 West 96th Street","buildingName":"Holy Name Church","roomFloor":"Basement Little Room","city":"New York","state":"NY","zipCode":"10025","detailsBox":"Issues of medication in recovery are discussed.  All are welcome.","wheelChair":false},{"zoneID":6,"meetingID":"409","meetingName":"WEST END","streetAddress":"263 West 86th Street","buildingName":"Church of St. Paul & St. Andrew","roomFloor":"1st Floor","city":"New York","state":"NY","zipCode":"10024","detailsBox":"","wheelChair":true},{"zoneID":6,"meetingID":"411","meetingName":"WESTSIDE 11th STEP MEDITATION WORKSHOP","streetAddress":"306 West 102nd Street","buildingName":"Addiction Institute","roomFloor":"2nd Floor","city":"New York","state":"NY","zipCode":"10025","detailsBox":"","wheelChair":false},{"zoneID":6,"meetingID":"412","meetingName":"WESTSIDE STEP","streetAddress":"152 West 71st Street","buildingName":"Blessed Sacrament Church Rectory","roomFloor":"","city":"New York","state":"NY","zipCode":"10023","detailsBox":"","wheelChair":false},{"zoneID":6,"meetingID":"413","meetingName":"WESTSIDE YOUNG PEOPLE","streetAddress":"26 West 84th Street","buildingName":"Church of St.Matthew & St. Timothy","roomFloor":"Stanford Room (blue door)","city":"New York","state":"NY","zipCode":"10024","detailsBox":"Anniv. Meeting Last Saturday.","wheelChair":false},{"zoneID":6,"meetingID":"1583","meetingName":"WITHOUT A PRAYER","streetAddress":"595 Columbus Avenue","buildingName":"Goddard Riverside Community Center","roomFloor":"","city":"New York","state":"NY","zipCode":"10024","detailsBox":"","wheelChair":true},{"zoneID":6,"meetingID":"417","meetingName":"WOMEN LIVING SOBER","streetAddress":"306 West 102nd Street","buildingName":"Trinity Halfway House","roomFloor":"2nd Floor","city":"New York","state":"NY","zipCode":"10025","detailsBox":"S 2nd Wednesday","wheelChair":false},{"zoneID":6,"meetingID":"423","meetingName":"WOMEN WEST AA","streetAddress":"213 West 82nd Street","buildingName":"Holy Trinity Church","roomFloor":"","city":"New York","state":"NY","zipCode":"10024","detailsBox":"Women's Meeting","wheelChair":true},{"zoneID":6,"meetingID":"1488","meetingName":"WOMEN'S BEGINNING LITERATURE","streetAddress":"152 West 71st Street","buildingName":"Blessed Sacrament (Rectory)","roomFloor":"","city":"New York","state":"NY","zipCode":"10023","detailsBox":"Wed= Alternate BB and Living Sober.","wheelChair":false},{"zoneID":6,"meetingID":"1487","meetingName":"WOMEN'S ELEVENTH STEP MEETING","streetAddress":"152 West 71st street","buildingName":"","roomFloor":"","city":"New York","state":"NY","zipCode":"null","detailsBox":"","wheelChair":true},{"zoneID":6,"meetingID":"428","meetingName":"WOMEN'S TELL IT LIKE IT IS","streetAddress":"152 West 71st Street","buildingName":"Blessed Sacrament (Rectory)","roomFloor":"","city":"New York","state":"NY","zipCode":"10023","detailsBox":"Women's Meeting","wheelChair":true},{"zoneID":6,"meetingID":"429","meetingName":"WOMEN'S WESTSIDE TOPIC","streetAddress":"160 Central Park West","buildingName":"Universalist Church","roomFloor":"Downstairs","city":"New York","state":"NY","zipCode":"10023","detailsBox":"Women's Meeting","wheelChair":false},{"zoneID":6,"meetingID":"430","meetingName":"WRITING SOBER","streetAddress":"207 West 96th Street","buildingName":"Holy Name Church","roomFloor":"Basement Little Room","city":"New York","state":"NY","zipCode":"10025","detailsBox":"","wheelChair":false}]