[{"zoneID":7,"meetingID":"742","meetingName":"A BAFFLED LOT","streetAddress":"351 East 74th Street","buildingName":"Jan Hus Church","roomFloor":"2nd Floor","city":"New York","state":"NY","zipCode":"10021","detailsBox":"Topic Meeting","wheelChair":false},{"zoneID":7,"meetingID":"437","meetingName":"A.A. TRADITIONS AND HISTORY","streetAddress":"48 East 80th Street","buildingName":"Manhattan Church of Christ","roomFloor":"2nd Floor Library Ring Bell Next to Sign.","city":"New York","state":"NY","zipCode":"10021","detailsBox":"Traditions Meeting","wheelChair":true},{"zoneID":7,"meetingID":"40","meetingName":"ACTIVE","streetAddress":"184 East 76th Street","buildingName":"St. Jean Baptiste Church","roomFloor":"Basement","city":"New York","state":"NY","zipCode":"10021","detailsBox":"","wheelChair":true},{"zoneID":7,"meetingID":"1357","meetingName":"AFTERNOON AWAKENING","streetAddress":"351 East 74th Street","buildingName":"Jan Hus Church","roomFloor":"2nd Floor","city":"New York","state":"NY","zipCode":"10021","detailsBox":"Mon=Living Sober, Thu=11 Step with meditation, Fri=3rd Step","wheelChair":false},{"zoneID":7,"meetingID":"54","meetingName":"ATLANTIC ELEVENTH STEP MEDITATION","streetAddress":"1393 York Avenue","buildingName":"Church of the Epiphany","roomFloor":"","city":"New York","state":"NY","zipCode":"10021","detailsBox":"","wheelChair":false},{"zoneID":7,"meetingID":"53","meetingName":"ATLANTIC GROUP (:I)","streetAddress":"520 Park Avenue","buildingName":"Christ United Methodist Church","roomFloor":"","city":"New York","state":"NY","zipCode":"10021","detailsBox":"Three speaker","wheelChair":true},{"zoneID":7,"meetingID":"1518","meetingName":"ATLANTIC GROUP (:II)","streetAddress":"337 East 74th Street","buildingName":"Archdiocian Cathedral of the Holy Trinity","roomFloor":"","city":"New York","state":"NY","zipCode":"10021","detailsBox":"","wheelChair":true},{"zoneID":7,"meetingID":"1517","meetingName":"ATLANTIC GROUP (:III)","streetAddress":"1157 Lexington Avenue","buildingName":"All Souls Church","roomFloor":"","city":"New York","state":"NY","zipCode":"10075","detailsBox":"Two speaker","wheelChair":true},{"zoneID":7,"meetingID":"64","meetingName":"BREAKING THROUGH","streetAddress":"420 East 76th Street","buildingName":"Gracie Square Hospital","roomFloor":"","city":"New York","state":"NY","zipCode":"10021","detailsBox":"*Open Last Friday Check with front desk security for meeting room location.","wheelChair":true},{"zoneID":7,"meetingID":"68","meetingName":"CAME TO BELIEVE","streetAddress":"230 East 90th Street","buildingName":"Our Lady of Good Counsel Church","roomFloor":"Downstairs","city":"New York","state":"NY","zipCode":"10128","detailsBox":"Anniv. Last Sunday; every other month.","wheelChair":false},{"zoneID":7,"meetingID":"71","meetingName":"CARNEGIE HILL","streetAddress":"65 East 89th Street","buildingName":"St. Thomas More Church","roomFloor":"Basement","city":"New York","state":"NY","zipCode":"10128","detailsBox":"","wheelChair":false},{"zoneID":7,"meetingID":"72","meetingName":"CENTRAL","streetAddress":"865 Madison Avenue","buildingName":"St. James Episcopal Church","roomFloor":"Basement","city":"New York","state":"NY","zipCode":"10021","detailsBox":"","wheelChair":false},{"zoneID":7,"meetingID":"75","meetingName":"CHAPTER FIVE","streetAddress":"1296 Lexington Avenue","buildingName":"Immanuel Lutheran Church","roomFloor":"Basement","city":"New York","state":"NY","zipCode":"10128","detailsBox":"Fri.6:15=Women's Meeting","wheelChair":false},{"zoneID":7,"meetingID":"144","meetingName":"ELEVENTH STEP AT JAN HUS","streetAddress":"351 East 74th Street","buildingName":"Jan Hus Church","roomFloor":"Mazaryk Room","city":"New York","state":"NY","zipCode":"10021","detailsBox":"11th Step Meditation Meeting.","wheelChair":false},{"zoneID":7,"meetingID":"150","meetingName":"FEARLESS","streetAddress":"1157 Lexington Avenue","buildingName":"All Souls Uniterian Church","roomFloor":"1st Floor","city":"New York","state":"NY","zipCode":"10028","detailsBox":"Topic Meeting","wheelChair":false},{"zoneID":7,"meetingID":"160","meetingName":"FRIDAY CENTRAL","streetAddress":"351 East 74th Street","buildingName":"Jan Hus Church","roomFloor":"Mazaryk Room","city":"New York","state":"NY","zipCode":"10021","detailsBox":"","wheelChair":false},{"zoneID":7,"meetingID":"162","meetingName":"FRIDAY NIGHT GAY MEN & WOMEN","streetAddress":"351 East 74th Street","buildingName":"Jan Hus Church","roomFloor":"2nd Floor","city":"New York","state":"NY","zipCode":"10021","detailsBox":"1st Step Gay & lesbian focus.  All are welcome.","wheelChair":false},{"zoneID":7,"meetingID":"163","meetingName":"FRIDAY NIGHT MEN'S STEP","streetAddress":"65 East 89th Street","buildingName":"St. Thomas More Church Rectory","roomFloor":"","city":"New York","state":"NY","zipCode":"10128","detailsBox":"Men's Meeting","wheelChair":false},{"zoneID":7,"meetingID":"1547","meetingName":"HUMANISTS TOO","streetAddress":"65 East 89th Street","buildingName":"Church of Saint Thomas Moore","roomFloor":"Rectory basement","city":"New York","state":"NY","zipCode":"10128","detailsBox":"Agnostic","wheelChair":false},{"zoneID":7,"meetingID":"224","meetingName":"I'M ALL IN","streetAddress":"351 East 74th Street","buildingName":"Jan Hus Church","roomFloor":"2nd Floor","city":"New York","state":"NY","zipCode":"10021","detailsBox":"","wheelChair":false},{"zoneID":7,"meetingID":"225","meetingName":"INTO ACTION MANHATTAN","streetAddress":"135 East 96th Street","buildingName":"St. Francis de Sales Church","roomFloor":"","city":"New York","state":"NY","zipCode":"10128","detailsBox":"lower level","wheelChair":false},{"zoneID":7,"meetingID":"1040","meetingName":"KITCHEN TABLE MEETING","streetAddress":"351 East 74th Street","buildingName":"Jan Hus Presbyterian Church","roomFloor":"2nd Floor Kitchen","city":"New York","state":"NY","zipCode":"10021","detailsBox":"","wheelChair":false},{"zoneID":7,"meetingID":"233","meetingName":"LENOX HILL","streetAddress":"2 East 90th Street","buildingName":"Church of the Heavenly Rest","roomFloor":"","city":"New York","state":"NY","zipCode":"10128","detailsBox":"","wheelChair":false},{"zoneID":7,"meetingID":"234","meetingName":"LEX 80 STEP","streetAddress":"1157 Lexington Avenue","buildingName":"All Souls Uniterian Church","roomFloor":"","city":"New York","state":"NY","zipCode":"10028","detailsBox":"Southside Chapel","wheelChair":true},{"zoneID":7,"meetingID":"236","meetingName":"LIVE AND LET LIVE","streetAddress":"420 East 76th Street","buildingName":"Gracie Square Hospital","roomFloor":"","city":"New York","state":"NY","zipCode":"10021","detailsBox":"Thurs=Topic Meeting, Check in with security at front desk. Gay & lesbian focus.  All are welcome.","wheelChair":true},{"zoneID":7,"meetingID":"241","meetingName":"MADISON 73","streetAddress":"351 East 74th Street","buildingName":"Jan Hus Presbyterian Church","roomFloor":"2nd Floor","city":"New York","state":"NY","zipCode":"10021","detailsBox":"All Meetings Are Non-Smoking.","wheelChair":false},{"zoneID":7,"meetingID":"245","meetingName":"MEDITATION (EXPECT MIRACLES)","streetAddress":"351 East 74th Street","buildingName":"Jan Hus Church","roomFloor":"2nd Floor Chapel Room","city":"New York","state":"NY","zipCode":"10021","detailsBox":"All meetings are 11th Step Meditation format.","wheelChair":false},{"zoneID":7,"meetingID":"1551","meetingName":"MEN'S NYC BIG BOOK STEP STUDY","streetAddress":"1285 Madison Avenue","buildingName":"Philomathist Center","roomFloor":"","city":"New York","state":"NY","zipCode":"10128","detailsBox":"Ring Bell for entry","wheelChair":false},{"zoneID":7,"meetingID":"248","meetingName":"METROPOLITAN","streetAddress":"48 East 84th Street","buildingName":"St. Ignatius Loyola School","roomFloor":"","city":"New York","state":"NY","zipCode":"10028","detailsBox":"Tue.6:30=Literature Topic,Sat=Meets in the Rectory. Wheel Chair Access on Tuesday & Sunday Only","wheelChair":true},{"zoneID":7,"meetingID":"257","meetingName":"MONDAY EAST TOPIC","streetAddress":"408 East 82nd Street","buildingName":"St. Stephen of Hungary Church","roomFloor":"Rectory","city":"New York","state":"NY","zipCode":"10028","detailsBox":"Round Robin format & No Meeting on Legal Holidays.","wheelChair":false},{"zoneID":7,"meetingID":"442","meetingName":"MONDAY WOMEN","streetAddress":"351 East 74th Street","buildingName":"Jan Hus Church","roomFloor":"2nd Floor Front Room","city":"New York","state":"NY","zipCode":"10021","detailsBox":"AA Literature Topic Meeting & Open last Monday. Women's Meeting","wheelChair":false},{"zoneID":7,"meetingID":"262","meetingName":"MORNING REFLECTIONS","streetAddress":"351 East 74th Street","buildingName":"Jan Hus Church","roomFloor":"2nd FloorFront Room","city":"New York","state":"NY","zipCode":"10021","detailsBox":"Daily Reflections readings & round robin format Discussion","wheelChair":false},{"zoneID":7,"meetingID":"274","meetingName":"NEW CHOICES","streetAddress":"125 East 85th Street","buildingName":"Congregational Kehilath Jeshurun","roomFloor":"Ramaz School Entrance","city":"New York","state":"NY","zipCode":"10028","detailsBox":"","wheelChair":true},{"zoneID":7,"meetingID":"289","meetingName":"OPEN BOOK","streetAddress":"351 East 74th Street","buildingName":"Jan Hus Church","roomFloor":"2nd Floor Library Room","city":"New York","state":"NY","zipCode":"10021","detailsBox":"Big Book Study","wheelChair":false},{"zoneID":7,"meetingID":"1371","meetingName":"OUR PRIMARY PURPOSE","streetAddress":"351 East 74th Street","buildingName":"Jan Hus Church","roomFloor":"2nd Floor Kitchen","city":"New York","state":"NY","zipCode":"10021","detailsBox":"Women's Meeting.","wheelChair":false},{"zoneID":7,"meetingID":"294","meetingName":"PARK BENCH   (:II)","streetAddress":"865 Madison Avenue","buildingName":"St. James Church","roomFloor":"3rd Floor","city":"New York","state":"NY","zipCode":"10021","detailsBox":"","wheelChair":true},{"zoneID":7,"meetingID":"295","meetingName":"PARK MADISON","streetAddress":"62 East 92nd Street","buildingName":"Brick Church Parish House","roomFloor":"Basement","city":"New York","state":"NY","zipCode":"10128","detailsBox":"Tue.8pm=Topic Round Robin, Anniv Last Fri.@ 6:45 Church Closed Friday; No Meetings In July & August All meetings are non-smoking.","wheelChair":true},{"zoneID":7,"meetingID":"299","meetingName":"PERSEVERANCE","streetAddress":"351 East 74th Street","buildingName":"Jan Hus Church","roomFloor":"2nd Floor Front Room","city":"New York","state":"NY","zipCode":"10021","detailsBox":"","wheelChair":false},{"zoneID":7,"meetingID":"309","meetingName":"RECOVERY ROOM","streetAddress":"420 East 87th Street","buildingName":"St. Joseph's School","roomFloor":"Basement","city":"New York","state":"NY","zipCode":"10128","detailsBox":"","wheelChair":false},{"zoneID":7,"meetingID":"446","meetingName":"RENEWAL EAST","streetAddress":"593 Park Avenue","buildingName":"Central Presbyterian Church","roomFloor":"5th Floor Library","city":"New York","state":"NY","zipCode":"10128","detailsBox":"","wheelChair":true},{"zoneID":7,"meetingID":"1372","meetingName":"RENEWAL NORTH","streetAddress":"65 East 89th Street","buildingName":"St. Thomas More Church","roomFloor":"Ring Red Buzzer Chelsea Room","city":"New York","state":"NY","zipCode":"10128","detailsBox":"","wheelChair":true},{"zoneID":7,"meetingID":"314","meetingName":"RHINELANDER","streetAddress":"865 Madison Avenue","buildingName":"St. James Episcopal Church","roomFloor":"Basement","city":"New York","state":"NY","zipCode":"10021","detailsBox":"Mon.6pm & Thu.6pm Meetings end @ 6:50pm.","wheelChair":false},{"zoneID":7,"meetingID":"1529","meetingName":"ROOSEVELT ISLAND SERENITY","streetAddress":"543 Main Street","buildingName":"Church of the Good Shepard","roomFloor":"Basement","city":"New York","state":"NY","zipCode":"10044","detailsBox":"","wheelChair":true},{"zoneID":7,"meetingID":"347","meetingName":"SEVENTY-NINTH STREET WORKSHOP","streetAddress":"413 East 79th Street","buildingName":"St. Monica's Church","roomFloor":"Basement","city":"New York","state":"NY","zipCode":"10021","detailsBox":"Sun.10am=11th S, Tue.6am=Came To Believe Thu.6am=Step & Trad.","wheelChair":false},{"zoneID":7,"meetingID":"356","meetingName":"SOBER WOMEN","streetAddress":"351 East 74th Street","buildingName":"Jan Hus Church","roomFloor":"Sanctuary","city":"New York","state":"NY","zipCode":"10021","detailsBox":"Women's Meeting","wheelChair":false},{"zoneID":7,"meetingID":"366","meetingName":"STEP BY STEP","streetAddress":"310 East 67th Street","buildingName":"New York Blood Center","roomFloor":"Auditorium","city":"New York","state":"NY","zipCode":"10065","detailsBox":"Non-Smoking Meeting.","wheelChair":true},{"zoneID":7,"meetingID":"374","meetingName":"SUNDAY ON 70TH","streetAddress":"331 East 70th Street","buildingName":"Lenox Hill Neighborhood House","roomFloor":"","city":"New York","state":"NY","zipCode":"10021","detailsBox":"","wheelChair":false},{"zoneID":7,"meetingID":"376","meetingName":"SUTTON","streetAddress":"411 East 68th Street","buildingName":"Church of St. Catherine of Siena","roomFloor":"","city":"New York","state":"NY","zipCode":"10021","detailsBox":"Enter through Parish House","wheelChair":true},{"zoneID":7,"meetingID":"383","meetingName":"THREE TWELVES","streetAddress":"2 East 90th Street","buildingName":"Church of the Heavenly Rest","roomFloor":"Basement","city":"New York","state":"NY","zipCode":"10128","detailsBox":"","wheelChair":false},{"zoneID":7,"meetingID":"388","meetingName":"TRINITY","streetAddress":"341 East 87th Street","buildingName":"Holy Trinity Church","roomFloor":"Choir Room (Ring Bell)","city":"New York","state":"NY","zipCode":"10128","detailsBox":"Anniv Last Tuesday @ 7:15pm All meetings are non-smoking. Last Fri. @ 7PM = T","wheelChair":false},{"zoneID":7,"meetingID":"403","meetingName":"WE HUMANISTS","streetAddress":"351 East 74th Street","buildingName":"Jan Hus Church","roomFloor":"2nd Floor Museum Room","city":"New York","state":"NY","zipCode":"10021","detailsBox":"No prayers & a Non-Smoking Meeting.","wheelChair":false},{"zoneID":7,"meetingID":"404","meetingName":"WEDNESDAY EAST ON THURSDAY","streetAddress":"351 East 74th Street","buildingName":"Jan Hus Church","roomFloor":"2nd Floor Kitchen","city":"New York","state":"NY","zipCode":"10021","detailsBox":"Round Robin format","wheelChair":false},{"zoneID":7,"meetingID":"431","meetingName":"YORKVILLE-BUTTERFIELD","streetAddress":"351 East 74th Street","buildingName":"Jan Hus Church","roomFloor":"2nd Floor  Masaryk Room","city":"New York","state":"NY","zipCode":"10021","detailsBox":"Non-Smoking Meeting.","wheelChair":false}]