[{"meetingID":"32","meetingName":"A CHANCE TO LIVE AGAIN","streetAddress":"109 West 129th Street","buildingName":"SRO Building","roomFloor":"Basement","city":"New York","state":"NY","zipCode":"10027","detailsBox":"","wheelChair":true},{"meetingID":"36","meetingName":"AA IT WORKS  II","streetAddress":"240 West 145th Street","buildingName":"Union Baptist Church","roomFloor":"","city":"New York","state":"NY","zipCode":"10039","detailsBox":"Thu=Altern.BB, Living Sober & Other A.A. Literature. Fri.=Alternates between Step & Tradition.","wheelChair":true},{"meetingID":"58","meetingName":"ATTITUDE ADJUSTMENT","streetAddress":"469 West 142nd Street","buildingName":"Our Lady of Lourdes Church","roomFloor":"Basement","city":"New York","state":"NY","zipCode":"10031","detailsBox":"Topic 1st Saturday.","wheelChair":false},{"meetingID":"1028","meetingName":"CONVENT","streetAddress":"204 West 134th Street","buildingName":"St. Phillip Church","roomFloor":"1st Floor","city":"New York","state":"NY","zipCode":"10030","detailsBox":"B-3rd Saturday","wheelChair":false},{"meetingID":"151","meetingName":"FELLOWSHIP AT NOON","streetAddress":"2044 Adam Clayton Powell Blvd","buildingName":"Spiritual Renewal Church","roomFloor":"","city":"New York","state":"NY","zipCode":"10027","detailsBox":"T If there is a fifth Wednesday.","wheelChair":false},{"meetingID":"1366","meetingName":"GRUPO TRASMITELO","streetAddress":"469 West 142nd Street","buildingName":"","roomFloor":"1st Floor","city":"New York","state":"NY","zipCode":"10031","detailsBox":"Spanish speaking meeting.","wheelChair":false},{"meetingID":"1490","meetingName":"HARLEM HUMANISTS","streetAddress":"521 West 126th Street","buildingName":"St. Mary's Episcopal","roomFloor":"","city":"New York","state":"NY","zipCode":"10027","detailsBox":"Contact in Advance for Wheelcahir Accessibility","wheelChair":true},{"meetingID":"229","meetingName":"K.I.S.S.","streetAddress":"109 West 129th Street","buildingName":"SRO Building Community Room","roomFloor":"Basement","city":"New York","state":"NY","zipCode":"10027","detailsBox":"All meetings are non-smoking.","wheelChair":true},{"meetingID":"232","meetingName":"LEARNING TO LIVE SOBER","streetAddress":"469 West 142nd Street","buildingName":"Our Lady of Lourdes","roomFloor":"Basement","city":"New York","state":"NY","zipCode":"10031","detailsBox":"","wheelChair":false},{"meetingID":"237","meetingName":"LIVING CLEAN AND SOBER ON 121st STREET","streetAddress":"2044 Seventh Avenue","buildingName":"","roomFloor":"","city":"New York","state":"NY","zipCode":"10027","detailsBox":"S 2nd, BB 3rd, OD 4th, Living Sober 5th wk.","wheelChair":true},{"meetingID":"246","meetingName":"MEDITATION COMES TO HARLEM","streetAddress":"127 West 127th Street","buildingName":"S.A.G.E.","roomFloor":"","city":"New York","state":"NY","zipCode":"10027","detailsBox":"Meeting is closed on holidays","wheelChair":true},{"meetingID":"250","meetingName":"MID-HARLEM","streetAddress":"310 West 139th Street","buildingName":"Grace Congregational Baptist Church","roomFloor":"Basement","city":"New York","state":"NY","zipCode":"10037","detailsBox":"T 1st Monday at 7PM Open 1st Friday 8:10pm, Pitch other Fridays 8:10pm","wheelChair":false},{"meetingID":"261","meetingName":"MONDAY NIGHT CHALLENGE","streetAddress":"409 West 141st Street","buildingName":"St. James Church","roomFloor":"Basement","city":"New York","state":"NY","zipCode":"10031","detailsBox":"","wheelChair":false},{"meetingID":"303","meetingName":"PRIMARY PURPOSE","streetAddress":"91 Claremont Avenue","buildingName":"Riverside Church","roomFloor":"4th Floor Room 414","city":"New York","state":"NY","zipCode":"10027","detailsBox":"","wheelChair":true},{"meetingID":"306","meetingName":"PROMISES TWO FOR ONE","streetAddress":"1727 Amsterdam Avenue","buildingName":"Upper Manhattan Mental Health Center","roomFloor":"1st Floor in the Rear","city":"New York","state":"NY","zipCode":"10031","detailsBox":"1st Sun-OD; 2nd Sun-S; 3rd Sun-Topic; 4th Sun-T; 5th Sun-OD","wheelChair":true},{"meetingID":"308","meetingName":"REALITY CHECK","streetAddress":"469 West 142nd Street","buildingName":"Our Lady of Lourdes Church","roomFloor":"Basement","city":"New York","state":"NY","zipCode":"10037","detailsBox":"S 4th Saturday Men's Meeting","wheelChair":false},{"meetingID":"315","meetingName":"RIVERSIDE","streetAddress":"91 Claremont Avenue","buildingName":"Riverside Church","roomFloor":"and The Cloisters Club Room","city":"New York","state":"NY","zipCode":"10027","detailsBox":"Non-Smoking Meeting.","wheelChair":true},{"meetingID":"316","meetingName":"RIVERTON","streetAddress":"219 West 132nd Street","buildingName":"St. Aloysius School","roomFloor":"Cafeteria","city":"New York","state":"NY","zipCode":"10027","detailsBox":"S 2nd & T 4th Tue All meetings are non-smoking.  No children allowed at meetings.","wheelChair":false},{"meetingID":"320","meetingName":"SALEM","streetAddress":"211 West 129th Street","buildingName":"Salem United Methodist Church Community Center","roomFloor":"Downstairs in the Gym","city":"New York","state":"NY","zipCode":"10027","detailsBox":"O 2nd Wednesday","wheelChair":true},{"meetingID":"352","meetingName":"SOBER ADULT MEN","streetAddress":"425 West 144th Street","buildingName":"Convent Baptist Church Education Building","roomFloor":"1st Floor","city":"New York","state":"NY","zipCode":"10031","detailsBox":"Men's Meeting","wheelChair":true},{"meetingID":"363","meetingName":"ST. NICHOLAS","streetAddress":"204 West 134th Street","buildingName":"St. Phillip's Church","roomFloor":"Basement","city":"New York","state":"NY","zipCode":"10030","detailsBox":"S 2nd, C 3rd, BB 4th, & Grapevine 5th Thu.","wheelChair":true},{"meetingID":"367","meetingName":"STEPS 3 and 11","streetAddress":"506 Lenox Avenue","buildingName":"Harlem Hospital King Pavilion","roomFloor":"Room #3101 3rd Floor","city":"New York","state":"NY","zipCode":"10037","detailsBox":"B 1st, OD 2nd, S3 3rd, C Literature 4th, & S11 5th Sun.","wheelChair":true},{"meetingID":"1575","meetingName":"SUGAR HILL","streetAddress":"1727 Amsterdam Avenue","buildingName":"Council Center for Problems of Living","roomFloor":"1st Floor in the Rear","city":"New York","state":"NY","zipCode":"10031","detailsBox":"","wheelChair":true},{"meetingID":"390","meetingName":"TUESDAY BIG BOOK STUDY","streetAddress":"1854 Amsterdam Avenue","buildingName":"","roomFloor":"Basement","city":"New York","state":"NY","zipCode":"10031","detailsBox":"","wheelChair":false},{"meetingID":"1428","meetingName":"UPTOWN BIG BOOK WORKSHOP","streetAddress":"469 West 142nd Street","buildingName":"Our Lady of Lourdes Church","roomFloor":"Basement","city":"New York","state":"NY","zipCode":"10031","detailsBox":"Meeting meets each Saturday from mid-August thru mid-December","wheelChair":false},{"meetingID":"432","meetingName":"YOU MAY CARE AFTER","streetAddress":"58-66 West 135th Street","buildingName":"Metropolitan AME Church","roomFloor":"","city":"New York","state":"NY","zipCode":"10037","detailsBox":"Non-Smoking Meeting.","wheelChair":true}]