[{"meetingID":"445","streetAddress":"7 East 10th Street","buildingName":"N.Y.U Bronfman Center","roomFloor":"2nd Floor","city":"New York","state":"NY","zipCode":"10003","detailsBox":"Only meets on the 1st Wednesday of the month. A.A.'s 12 Concepts Meeting.","wheelChair":false},{"meetingID":"394","streetAddress":"155 East 22nd Street","buildingName":"Gustavus Adolphus Church","roomFloor":"Basement","city":"New York","state":"NY","zipCode":"10010","detailsBox":"Trad.1st Wed., Fri.=Topic, Sat.=Round Robin Sharing All meetings are non-smoking.","wheelChair":false},{"meetingID":"1463","streetAddress":"61 Fourth Avenue","buildingName":"Three Jewels Community Center","roomFloor":"3rd Floor","city":"New York","state":"NY","zipCode":"10003","detailsBox":"Topic meeting, focus is on meditation Thursday meeting ends at 7:10","wheelChair":false},{"meetingID":"43","streetAddress":"208 West 13th Street","buildingName":"Lesbian, Gay, Bi-Sexual & Transgender Community Center","roomFloor":"3rd Floor Room #312","city":"New York","state":"NY","zipCode":"10011","detailsBox":"GLBT Focus. All are welcome.","wheelChair":false},{"meetingID":"45","streetAddress":"123 East 15th Street","buildingName":"Seafarers & Intl House","roomFloor":"2nd Floor Conference Room","city":"New York","state":"NY","zipCode":"10003","detailsBox":"","wheelChair":true},{"meetingID":"52","streetAddress":"61 Gramercy Park North","buildingName":"Calvary Church Parish House","roomFloor":"","city":"New York","state":"NY","zipCode":"10010","detailsBox":"","wheelChair":false},{"meetingID":"55","streetAddress":"155 East 22nd Street","buildingName":"Gustavus Adolphus Lutheran Church","roomFloor":"Ground Floor","city":"New York","state":"NY","zipCode":"10010","detailsBox":"","wheelChair":true},{"meetingID":"56","streetAddress":"127 East 22nd Street","buildingName":"Mabel Bacon High School of the Future","roomFloor":"2nd Floor Auditorium","city":"New York","state":"NY","zipCode":"10010","detailsBox":"no entry before 5:30","wheelChair":true},{"meetingID":"1431","streetAddress":"602 East 9th Street","buildingName":"Trinity Lower East Side Lutheran Parish","roomFloor":"","city":"New York","state":"NY","zipCode":"10009","detailsBox":"Ground Floor Anniversaries last Thursday of month","wheelChair":true},{"meetingID":"1427","streetAddress":"125 West 14th Street","buildingName":"McBurney YMCA","roomFloor":"Kuttner Room","city":"New York","state":"NY","zipCode":"10011","detailsBox":"","wheelChair":true},{"meetingID":"1577","streetAddress":"346 West 20th Street","buildingName":"St. Peters Episcopal Church- Rectory","roomFloor":"","city":"New York","state":"NY","zipCode":"10011","detailsBox":"Wed. alternates between Step and Tradition","wheelChair":false},{"meetingID":"76","streetAddress":"125 West 14th Street","buildingName":"McBurney YMCA","roomFloor":"Ground Floor","city":"New York","state":"NY","zipCode":"10011","detailsBox":"Anniv. Last Thursday All Meetings Are Non-Smoking","wheelChair":true},{"meetingID":"132","streetAddress":"414 East 14th Street","buildingName":"Our Lady of Immaculate Conception","roomFloor":"Auditorium","city":"New York","state":"NY","zipCode":"10009","detailsBox":"","wheelChair":true},{"meetingID":"133","streetAddress":"119 Ninth Avenue","buildingName":"Fulton Senior Center","roomFloor":"","city":"New York","state":"NY","zipCode":"10011","detailsBox":"Non-Smoking Meeting.","wheelChair":true},{"meetingID":"1493","streetAddress":"202 West 24 Street","buildingName":"Christopher House","roomFloor":"Mezzanine","city":"New York","state":"NY","zipCode":"10011","detailsBox":"Check in at front desk all meetings are non-smoking","wheelChair":true},{"meetingID":"140","streetAddress":"28 Gramercy Park South","buildingName":"Brotherhood Synagogue","roomFloor":"1st Floor","city":"New York","state":"NY","zipCode":"10003","detailsBox":"*Open Anniv Last Wednesday Non-Smoking Meeting.","wheelChair":true},{"meetingID":"141","streetAddress":"50 East 7th Street","buildingName":"Middle Collegiate Church","roomFloor":"3rd and 4th floors","city":"New York","state":"NY","zipCode":"10003","detailsBox":"LGBT; all welcome. Tues 7pm=Artists in Recovery, all welcome. 8:30 1st Tues of Month Bus mtg. at 8:05","wheelChair":false},{"meetingID":"147","streetAddress":"273 Bowery","buildingName":"University Settlement House","roomFloor":"2nd Floor Classroom","city":"New York","state":"NY","zipCode":"10003","detailsBox":"","wheelChair":true},{"meetingID":"166","streetAddress":"802 Broadway","buildingName":"Grace Church Office Building","roomFloor":"3rd Floor Conference Room","city":"New York","state":"NY","zipCode":"10003","detailsBox":"","wheelChair":true},{"meetingID":"167","streetAddress":"28 Grammercy Park South","buildingName":"Brothhood Synagogue","roomFloor":"2nd Floor","city":"New York","state":"NY","zipCode":"10010","detailsBox":"Last Mon.6:30pm=Anniv Last Thursday Tradition","wheelChair":true},{"meetingID":"438","streetAddress":"209 East 16th Street","buildingName":"Saint George Episcopal Church","roomFloor":"Basement","city":"New York","state":"NY","zipCode":"10003","detailsBox":"Tue.Topic=Gratitude, Thu=11th Step Meditation Meeting,","wheelChair":false},{"meetingID":"177","streetAddress":"44 2nd Avenue","buildingName":"Church of the Nativity","roomFloor":"Main Floor","city":"New York","state":"NY","zipCode":"10003","detailsBox":"Spanish speaking meeting.","wheelChair":false},{"meetingID":"178","streetAddress":"229 West 14th Street","buildingName":"Our Lady of Guadalupe Church","roomFloor":"","city":"New York","state":"NY","zipCode":"10011","detailsBox":"Mon=Step 1st Mon. Spanish speaking meetings.","wheelChair":false},{"meetingID":"201","streetAddress":"229 West 14th Street","buildingName":"Our Lady of Guadalupe Church","roomFloor":"","city":"New York","state":"NY","zipCode":"10011","detailsBox":"Spanish speaking meeting.","wheelChair":false},{"meetingID":"222","streetAddress":"208 West 13th Street","buildingName":"Lesbian, Gay, Bi-Sexual & Transgender Community Center","roomFloor":"","city":"New York","state":"NY","zipCode":"10011","detailsBox":"Interpreted for the deaf and hard of hearing Check listing at the center for the room number.","wheelChair":true},{"meetingID":"228","streetAddress":"28 Gramercy Park South","buildingName":"Brotherhood Synagogue","roomFloor":"","city":"New York","state":"NY","zipCode":"10003","detailsBox":"Please Do Not Call the Synagogue for Meeting Info.","wheelChair":true},{"meetingID":"1462","streetAddress":"208 West 13th Street","buildingName":"Lesbian, Gay, Bisexual, & Transgender Community Center","roomFloor":"Room 212","city":"New York","state":"NY","zipCode":"10001","detailsBox":"LA Transplants/Vistors    All Welcome","wheelChair":true},{"meetingID":"1495","streetAddress":"307 West 26th Street","buildingName":"The Upright Citizens Brigade Theatre","roomFloor":"","city":"New York","state":"NY","zipCode":"10011","detailsBox":"","wheelChair":true},{"meetingID":"1526","streetAddress":"343 West 25th Street","buildingName":"St. Columba Church","roomFloor":"","city":"New York","state":"NY","zipCode":"10001","detailsBox":"","wheelChair":false},{"meetingID":"238","streetAddress":"80 Street Mark's Place","buildingName":"Theatre 80","roomFloor":"2nd Floor","city":"New York","state":"NY","zipCode":"10003","detailsBox":"Tue.7pm=4th & 5th Step Workshop, **Beginners 3 speaker panel Sat.& Sun.10am Meeting is in the main theatre.","wheelChair":false},{"meetingID":"239","streetAddress":"208 West 13th Street","buildingName":"Lesbian, Gay, Bi-Sexual & Transgender Community Center","roomFloor":"","city":"New York","state":"NY","zipCode":"10011","detailsBox":"Gay & lesbian focus.  All are welcome.","wheelChair":true},{"meetingID":"242","streetAddress":"51 East 25th Street","buildingName":"Intercare","roomFloor":"Lower Level","city":"New York","state":"NY","zipCode":"10010","detailsBox":"","wheelChair":true},{"meetingID":"243","streetAddress":"155 East 22nd Street","buildingName":"Gustavus Adolphus Church","roomFloor":"Basement","city":"New York","state":"NY","zipCode":"10010","detailsBox":"Open Anniv Last Tuesday. All meetings are non-smoking.","wheelChair":false},{"meetingID":"268","streetAddress":"7 East 10th Street","buildingName":"Bronfman Center","roomFloor":"2nd Floor (Note: A photo ID is required to enter the building.)","city":"New York","state":"NY","zipCode":"10003","detailsBox":"Tue.2pm=11th Step Meditation, Thu.12:30pm=Topic, Fri.12:30pm Note: There Is No 2:00 Meeting On The Last Day Of The Month Anniv. Last Weekday of the Month","wheelChair":false},{"meetingID":"269","streetAddress":"315 West 22nd Street","buildingName":"German Evangelist Lutheran Church of St. Paul","roomFloor":"1st Floor","city":"New York","state":"NY","zipCode":"10011","detailsBox":"Anniv. Last Thursday","wheelChair":false},{"meetingID":"279","streetAddress":"15 Rutherford Place","buildingName":"Friends Meeting House","roomFloor":"Basement","city":"New York","state":"NY","zipCode":"10003","detailsBox":"T 1st Monday, Anniv Last Friday. All meetings are non-smoking.","wheelChair":false},{"meetingID":"1406","streetAddress":"25 East 15th","buildingName":"The Realization Center","roomFloor":"","city":"New York","state":"NY","zipCode":"10003","detailsBox":"","wheelChair":false},{"meetingID":"286","streetAddress":"175 9th Avenue","buildingName":"General Theological Seminary","roomFloor":"1st and 2nd Floor","city":"New York","state":"NY","zipCode":"10011","detailsBox":"Fri.6pm OD=11th Step Meditation, Fri.7:15pm O=Anniv Last Friday, +HIV Topic LGBTQ Friendly.  All are welcome. Fri 7:15 CD=Relationships in Sobriety Business meeting at Holy Apostoles on 1st Monday a","wheelChair":false},{"meetingID":"1416","streetAddress":"19 Union Square West","buildingName":"The Realization Center","roomFloor":"7th Floor Conference Room B","city":"New York","state":"NY","zipCode":"10003","detailsBox":"Women's Meeting except for last Tuesday of the month.","wheelChair":true},{"meetingID":"293","streetAddress":"155 East 22nd Street","buildingName":"Gustavus Adolphus Church","roomFloor":"1st Floor","city":"New York","state":"NY","zipCode":"10010","detailsBox":"Mon.BB Meeting is in the basement, Tue.6:45pm=T Last Tue. Basement is not Wheel Chair Accessible.","wheelChair":false},{"meetingID":"300","streetAddress":"423 East 23rd Street","buildingName":"Veterans Administration Hospital","roomFloor":"3rd fl Conference Room 3076 south","city":"New York","state":"NY","zipCode":"10010","detailsBox":"","wheelChair":true},{"meetingID":"301","streetAddress":"209 East 16th Street","buildingName":"St. George's Church","roomFloor":"Olmstead Hall","city":"New York","state":"NY","zipCode":"10003","detailsBox":"T Last Tuesday, Thu.=Topic","wheelChair":false},{"meetingID":"1587","streetAddress":"411 East 12th Street","buildingName":"","roomFloor":"","city":"New York","state":"NY","zipCode":"10009","detailsBox":"","wheelChair":false},{"meetingID":"322","streetAddress":"209 East 16th Street","buildingName":"St. George's Church","roomFloor":"","city":"New York","state":"NY","zipCode":"10003","detailsBox":"Beginners meeting meets in Olmsted Hall Big Book topic meeting meets in the Music Room","wheelChair":false},{"meetingID":"744","streetAddress":"239 East 21st Street","buildingName":"Epiphany Roman Catholic Church","roomFloor":"Church Rectory","city":"New York","state":"NY","zipCode":"10009","detailsBox":"","wheelChair":false},{"meetingID":"342","streetAddress":"12 West 12th Street","buildingName":"First Presbyterian Church","roomFloor":"6th Floor-Roof Level","city":"New York","state":"NY","zipCode":"10011","detailsBox":"Tue=S Last Tue. & focus is on women with 5 years of sobriety or more.  All are welcome Fri=O Last Fri. & focus is on women with 5 years of sobriety or less.  All are welcome. Friday beginners = Trans Welcome","wheelChair":true},{"meetingID":"344","streetAddress":"44 2nd Avenue","buildingName":"Church of the Nativity","roomFloor":"","city":"New York","state":"NY","zipCode":"10003","detailsBox":"","wheelChair":false},{"meetingID":"354","streetAddress":"208 West 13th Street","buildingName":"Lesbian, Gay, Bi-Sexual & Transgender Community Center","roomFloor":"","city":"New York","state":"NY","zipCode":"10011","detailsBox":"S&M Lifestyles","wheelChair":false},{"meetingID":"357","streetAddress":"12 West 11th Street","buildingName":"Church of the Ascension Parish House","roomFloor":"Ground Floor","city":"New York","state":"NY","zipCode":"10011","detailsBox":"T Last Tue., Fri=Topic, Sat=11th Step Meditation","wheelChair":false},{"meetingID":"1566","streetAddress":"116 West 11th Street","buildingName":"PS 41 Elementary School","roomFloor":"","city":"New York","state":"NY","zipCode":"10011","detailsBox":"","wheelChair":false},{"meetingID":"1042","streetAddress":"80 5th Avenue","buildingName":"","roomFloor":"14th Floor Room #1408C","city":"New York","state":"NY","zipCode":"10011","detailsBox":"","wheelChair":true},{"meetingID":"371","streetAddress":"116 West 11th Street","buildingName":"P.S. 41 (see footnote re: temp location)","roomFloor":"Cafeteria","city":"New York","state":"NY","zipCode":"10011","detailsBox":"TEMPORARILY MEETING AT THE LGBT CENTER 208 W 13TH UNTIL FURTHER NOTICE","wheelChair":true},{"meetingID":"443","streetAddress":"155 East 22nd Street","buildingName":"Gustavus Adolphus Church","roomFloor":"","city":"New York","state":"NY","zipCode":"10010","detailsBox":"Meeting In Basement 11th Step Meditation Meeting","wheelChair":false},{"meetingID":"373","streetAddress":"319 Eastr 24th Street","buildingName":"East Midtown Plaza (Community Room H)","roomFloor":"","city":"New York","state":"NY","zipCode":"10010","detailsBox":"","wheelChair":true},{"meetingID":"745","streetAddress":"10 East Union Square","buildingName":"Beth Israel Hospital @ Karpas Cancer Center Library","roomFloor":"4th Floor Conf.Rm.#4A18","city":"New York","state":"NY","zipCode":"10003","detailsBox":"Focus is on dealing with cancer in recovery.  All are welcome","wheelChair":true},{"meetingID":"377","streetAddress":"206-208 East 11th Street","buildingName":"All Saints Ukrainian Orthodox Church","roomFloor":"","city":"New York","state":"NY","zipCode":"10003","detailsBox":"Sunday=As Bill Sees It Ukrainian language translation is available if needed.","wheelChair":false},{"meetingID":"378","streetAddress":"123 East 15th Street","buildingName":"Seafarers & International House","roomFloor":"2nd Floor","city":"New York","state":"NY","zipCode":"10003","detailsBox":"Fri B = 1st Time in AA Only","wheelChair":true},{"meetingID":"381","streetAddress":"411 East 12th Street","buildingName":"","roomFloor":"Basement","city":"New York","state":"NY","zipCode":"10009","detailsBox":"Sun.4:30=Business Mtg Only 1st & Anniv Last Sunday Sun.7:30pm,Tue.5:30,Wed.8:30pm & Sat.10:30am=11th Step Meditation Mon.5:30=Gratitude & Sat.7:30am=AA Grapevine","wheelChair":false},{"meetingID":"152","streetAddress":"125 West 14th Street","buildingName":"McBurney YMCA","roomFloor":"1st Floor Meeting Room","city":"New York","state":"NY","zipCode":"10011","detailsBox":"","wheelChair":true},{"meetingID":"1522","streetAddress":"208 West 13th Street","buildingName":"LGBT Community Center","roomFloor":"","city":"New York","state":"NY","zipCode":"10011","detailsBox":"Trans-female focus","wheelChair":true},{"meetingID":"392","streetAddress":"10 Union Square East","buildingName":"Beth Israel Phillips Ambulatory Center","roomFloor":"2nd Floor Conference Room #3","city":"New York","state":"NY","zipCode":"10003","detailsBox":"","wheelChair":true},{"meetingID":"1037","streetAddress":"155 West 22nd Street","buildingName":"St. Francis Residence","roomFloor":"1st Floor","city":"New York","state":"NY","zipCode":"10011","detailsBox":"","wheelChair":true},{"meetingID":"397","streetAddress":"208 West 13th Street","buildingName":"Lesbian, Gay, Bi-Sexual & Transgender Community Center","roomFloor":"","city":"New York","state":"NY","zipCode":"10011","detailsBox":"Sun.5:30pm meets only on the last Sunday of the month No Prayers - All Welcome - Check listing for Rm #","wheelChair":false},{"meetingID":"398","streetAddress":"12 West 12th Street","buildingName":"First Presbyterian Church","roomFloor":"Third Floor","city":"New York","state":"NY","zipCode":"10011","detailsBox":"1st & 3rd Wk=Step/Big Book , 2nd & 4th Wk=Promises","wheelChair":true},{"meetingID":"1466","streetAddress":"20 Washington Square North","buildingName":"The Caring Community","roomFloor":"2nd Floor","city":"New York","state":"NY","zipCode":"10011","detailsBox":"","wheelChair":true},{"meetingID":"837","streetAddress":"344 East 14th Street","buildingName":"14th Street Y","roomFloor":"","city":"New York","state":"NY","zipCode":"10003","detailsBox":"Please Do Not Call the Y for Meeting Info.","wheelChair":true},{"meetingID":"407","streetAddress":"155 West 22nd Street","buildingName":"St. Francis Residence","roomFloor":"1st Floor","city":"New York","state":"NY","zipCode":"10011","detailsBox":"","wheelChair":false},{"meetingID":"416","streetAddress":"208 West 13th Street","buildingName":"Lesbian, Gay, Bi-Sexual & Transgender Community Center","roomFloor":"","city":"New York","state":"NY","zipCode":"10011","detailsBox":"Lesbian and gay focus.  All are welcome Meeting format is \"Round Robin.\"","wheelChair":true},{"meetingID":"415","streetAddress":"602 East 9th Street","buildingName":"Trinity Lutheran Church","roomFloor":"Ground Floor","city":"New York","state":"NY","zipCode":"10009","detailsBox":"","wheelChair":true},{"meetingID":"418","streetAddress":"208 West 13th Street","buildingName":"Gay, Lesbian, Bi-Sexual & Transgender Community Center","roomFloor":"","city":"New York","state":"NY","zipCode":"10011","detailsBox":"Topic Meeting & Anniv. Last Tuesday.","wheelChair":false},{"meetingID":"421","streetAddress":"208 West 13th Street","buildingName":"Lesbian, Gay, Bi-Sexual & Transgender Community Center","roomFloor":"","city":"New York","state":"NY","zipCode":"10011","detailsBox":"Women's Meeting Lesbian Focus.  All are welcome","wheelChair":true},{"meetingID":"427","streetAddress":"19 Union Square West","buildingName":"Realization Center","roomFloor":"7th Floor Ask for room #.","city":"New York","state":"NY","zipCode":"10003","detailsBox":"11th Step Meditation Meeting.","wheelChair":true},{"meetingID":"1535","streetAddress":"173 East 3rd Street","buildingName":"Most Holy Redeemer Church","roomFloor":"","city":"New York","state":"NY","zipCode":"10009","detailsBox":"Rotating Literature","wheelChair":false},{"meetingID":"433","streetAddress":"50 East 7th Street","buildingName":"Middle Collegiate Church ","roomFloor":"","city":"New York","state":"NY","zipCode":"10003","detailsBox":"Basement","wheelChair":false}]