[{"meetingID":"37","streetAddress":"122 East 37th Street","buildingName":"","roomFloor":"Basement","city":"New York","state":"NY","zipCode":"10016","detailsBox":"FRONT BASEMENT ONLY","wheelChair":false},{"meetingID":"63","streetAddress":"30 East 35th Street","buildingName":"","roomFloor":"","city":"New York","state":"NY","zipCode":"10016","detailsBox":"All meetings are Round Robin format except Thursday. Tue=Alternating Step/Trad.","wheelChair":false},{"meetingID":"70","streetAddress":"350 East 56th Street","buildingName":"Cathedral High School","roomFloor":"","city":"New York","state":"NY","zipCode":"10022","detailsBox":"3rd Floor library","wheelChair":false},{"meetingID":"98","streetAddress":"619 Lexington Avenue","buildingName":"St. Peter's Lutheran Church @ Citicorp Center","roomFloor":"Lower Level Music Rooms","city":"New York","state":"NY","zipCode":"10022","detailsBox":"T -7:30am last Mon., Anniv -12:30 Last Thursday","wheelChair":false},{"meetingID":"134","streetAddress":"122 East 37th Street","buildingName":"","roomFloor":"Basement","city":"New York","state":"NY","zipCode":"10016","detailsBox":"Wed.6:15 BB=OD Big Book Study Fri.7:30pm=Anniv. Meeting every Fri.","wheelChair":false},{"meetingID":"145","streetAddress":"28 East 35th Street","buildingName":"J.H. Holmes Community House","roomFloor":"","city":"New York","state":"NY","zipCode":"10016","detailsBox":"T Last Wednesday","wheelChair":false},{"meetingID":"165","streetAddress":"350 East 56th Street","buildingName":"Cathedral High School ","roomFloor":"","city":"New York","state":"NY","zipCode":"10022","detailsBox":"Beginners Meeting 2nd & 4th Sunday Step Meeting 1st &3rd Sunday","wheelChair":false},{"meetingID":"168","streetAddress":"283 Lexington Avenue","buildingName":"Soldiers, Sailors, Marines & Airmen's Club","roomFloor":"2nd Floor","city":"New York","state":"NY","zipCode":"10016","detailsBox":"T=Last Tuesday, Fri=Anniv. 2nd to Last Friday. All meetings are non-smoking.","wheelChair":false},{"meetingID":"441","streetAddress":"122 East 37th Street","buildingName":"","roomFloor":"Basement","city":"New York","state":"NY","zipCode":"10016","detailsBox":"Portugese speaking meeting.","wheelChair":false},{"meetingID":"235","streetAddress":"619 Lexington Avenue","buildingName":"St. Peter's Lutheran Church @ CitiCorp Center","roomFloor":"Lower Level 2 in The Studio","city":"New York","state":"NY","zipCode":"10022","detailsBox":"All meetings are non-smoking.","wheelChair":true},{"meetingID":"240","streetAddress":"141 East 43rd Street","buildingName":"Saint Agnes Church","roomFloor":"Basement Hall elevator is available.","city":"New York","state":"NY","zipCode":"10017","detailsBox":"Enter main Church entrance, turn left, meeting is downstairs. T 3rd Wed. Open Anniv. or Open Disc. Meeting last Fri.","wheelChair":true},{"meetingID":"1441","streetAddress":"122 East 37th Street","buildingName":"MUSTARD SEED","roomFloor":"","city":"New York","state":"NY","zipCode":"10016","detailsBox":"","wheelChair":false},{"meetingID":"247","streetAddress":"122 East 37th Street","buildingName":"Mustard Seed","roomFloor":"","city":"New York","state":"NY","zipCode":"10016","detailsBox":"11th S Meditation ENT BASEMENT ONLY","wheelChair":false},{"meetingID":"258","streetAddress":"141 East 43rd Street","buildingName":"St. Agnes Church","roomFloor":"","city":"New York","state":"NY","zipCode":"10017","detailsBox":"","wheelChair":false},{"meetingID":"264","streetAddress":"209 Madison Avenue","buildingName":"Church of the Incarnation","roomFloor":"2nd Floor","city":"New York","state":"NY","zipCode":"10016","detailsBox":"No Meetings on Legal Holidays.","wheelChair":false},{"meetingID":"265","streetAddress":"122 East 37th Street","buildingName":"","roomFloor":"Basement","city":"New York","state":"NY","zipCode":"10016","detailsBox":"Sun.7:30am,Tue.6:15pm B & Wed.6:15pm C =Meditation Wkshp., Sun.9:30am Step=Back to Basics, Fri.7:30pm=Anniv.every Fri. Thurs. 8am back room, Gratitude","wheelChair":false},{"meetingID":"1141","streetAddress":"619 Lexington Avenue","buildingName":"St. Peter's Lutheran Church @ CitiCorp Center","roomFloor":"Lower Level","city":"New York","state":"NY","zipCode":"10022","detailsBox":"Living Sober","wheelChair":true},{"meetingID":"323","streetAddress":"240 East 31st Street","buildingName":"Church of the Good Shepherd","roomFloor":"","city":"New York","state":"NY","zipCode":"10016","detailsBox":"Focus is on members under 60 days.  All are welcome. Anniversaries last week of month","wheelChair":true},{"meetingID":"341","streetAddress":"114 East 35th Street","buildingName":"The New York New Church","roomFloor":"2nd Floor","city":"New York","state":"NY","zipCode":"10016","detailsBox":"","wheelChair":true},{"meetingID":"346","streetAddress":"230 East 60th Street","buildingName":"ALL SAINTS CHURCH","roomFloor":"","city":"New York","state":"NY","zipCode":"10022","detailsBox":"Fri.6:30=Steps 3 & 11","wheelChair":false},{"meetingID":"1581","streetAddress":"244 East 58th Street","buildingName":"Caron Foundation","roomFloor":"","city":"New York","state":"NY","zipCode":"10022","detailsBox":"","wheelChair":true},{"meetingID":"350","streetAddress":"619 Lexington Avenue","buildingName":"St. Peter's Lutheran Church @ CitiCorp Center","roomFloor":"Lower Level","city":"New York","state":"NY","zipCode":"10022","detailsBox":"Women's Meeting.","wheelChair":true},{"meetingID":"362","streetAddress":"325 Park Avenue","buildingName":"St. Bartholomew's Church","roomFloor":"","city":"New York","state":"NY","zipCode":"10022","detailsBox":"Anniv. Last Mon., T-Last Wed., Topic-Last Fri. All meetings are OPEN to Public NOTE: Monday & Wednesday in Choir Room. Friday in Vestry Room. Also check the Board at Church entrance.","wheelChair":false},{"meetingID":"1516","streetAddress":"236 East 31st Street","buildingName":"CHURCH OF THE GOOD SHEPARD","roomFloor":"basement","city":"New York","state":"NY","zipCode":"10016","detailsBox":"","wheelChair":false},{"meetingID":"379","streetAddress":"308 East 55th Street","buildingName":"Conservative Synagogue","roomFloor":"","city":"New York","state":"NY","zipCode":"10022","detailsBox":"","wheelChair":false},{"meetingID":"386","streetAddress":"244 East 58th Street","buildingName":"The Caron Foundation","roomFloor":"","city":"New York","state":"NY","zipCode":"10022","detailsBox":"","wheelChair":true},{"meetingID":"389","streetAddress":"244 East 58th Street","buildingName":"Caron Foundation","roomFloor":"Lower Level","city":"New York","state":"NY","zipCode":"10022","detailsBox":"","wheelChair":true},{"meetingID":"424","streetAddress":"109 East 50th Street","buildingName":"","roomFloor":"","city":"New York","state":"NY","zipCode":"10022","detailsBox":"11th Step, Anniv. 3rd Wednesday No Smoking","wheelChair":true}]