[{"meetingID":"742","streetAddress":"351 East 74th Street","buildingName":"Jan Hus Church","roomFloor":"2nd Floor","city":"New York","state":"NY","zipCode":"10021","detailsBox":"Topic Meeting","wheelChair":false},{"meetingID":"437","streetAddress":"48 East 80th Street","buildingName":"Manhattan Church of Christ","roomFloor":"2nd Floor Library Ring Bell Next to Sign.","city":"New York","state":"NY","zipCode":"10021","detailsBox":"Traditions Meeting","wheelChair":true},{"meetingID":"40","streetAddress":"184 East 76th Street","buildingName":"St. Jean Baptiste Church","roomFloor":"Basement","city":"New York","state":"NY","zipCode":"10021","detailsBox":"","wheelChair":true},{"meetingID":"1357","streetAddress":"351 East 74th Street","buildingName":"Jan Hus Church","roomFloor":"2nd Floor","city":"New York","state":"NY","zipCode":"10021","detailsBox":"Mon=Living Sober, Thu=11 Step with meditation, Fri=3rd Step","wheelChair":false},{"meetingID":"54","streetAddress":"1393 York Avenue","buildingName":"Church of the Epiphany","roomFloor":"","city":"New York","state":"NY","zipCode":"10021","detailsBox":"","wheelChair":false},{"meetingID":"53","streetAddress":"520 Park Avenue","buildingName":"Christ United Methodist Church","roomFloor":"","city":"New York","state":"NY","zipCode":"10021","detailsBox":"Three speaker","wheelChair":true},{"meetingID":"1518","streetAddress":"337 East 74th Street","buildingName":"Archdiocian Cathedral of the Holy Trinity","roomFloor":"","city":"New York","state":"NY","zipCode":"10021","detailsBox":"","wheelChair":true},{"meetingID":"1517","streetAddress":"1157 Lexington Avenue","buildingName":"All Souls Church","roomFloor":"","city":"New York","state":"NY","zipCode":"10075","detailsBox":"Two speaker","wheelChair":true},{"meetingID":"64","streetAddress":"420 East 76th Street","buildingName":"Gracie Square Hospital","roomFloor":"","city":"New York","state":"NY","zipCode":"10021","detailsBox":"*Open Last Friday Check with front desk security for meeting room location.","wheelChair":true},{"meetingID":"68","streetAddress":"230 East 90th Street","buildingName":"Our Lady of Good Counsel Church","roomFloor":"Downstairs","city":"New York","state":"NY","zipCode":"10128","detailsBox":"Anniv. Last Sunday; every other month.","wheelChair":false},{"meetingID":"71","streetAddress":"65 East 89th Street","buildingName":"St. Thomas More Church","roomFloor":"Basement","city":"New York","state":"NY","zipCode":"10128","detailsBox":"","wheelChair":false},{"meetingID":"72","streetAddress":"865 Madison Avenue","buildingName":"St. James Episcopal Church","roomFloor":"Basement","city":"New York","state":"NY","zipCode":"10021","detailsBox":"","wheelChair":false},{"meetingID":"75","streetAddress":"1296 Lexington Avenue","buildingName":"Immanuel Lutheran Church","roomFloor":"Basement","city":"New York","state":"NY","zipCode":"10128","detailsBox":"Fri.6:15=Women's Meeting","wheelChair":false},{"meetingID":"144","streetAddress":"351 East 74th Street","buildingName":"Jan Hus Church","roomFloor":"Mazaryk Room","city":"New York","state":"NY","zipCode":"10021","detailsBox":"11th Step Meditation Meeting.","wheelChair":false},{"meetingID":"150","streetAddress":"1157 Lexington Avenue","buildingName":"All Souls Uniterian Church","roomFloor":"1st Floor","city":"New York","state":"NY","zipCode":"10028","detailsBox":"Topic Meeting","wheelChair":false},{"meetingID":"160","streetAddress":"351 East 74th Street","buildingName":"Jan Hus Church","roomFloor":"Mazaryk Room","city":"New York","state":"NY","zipCode":"10021","detailsBox":"","wheelChair":false},{"meetingID":"162","streetAddress":"351 East 74th Street","buildingName":"Jan Hus Church","roomFloor":"2nd Floor","city":"New York","state":"NY","zipCode":"10021","detailsBox":"1st Step Gay & lesbian focus.  All are welcome.","wheelChair":false},{"meetingID":"163","streetAddress":"65 East 89th Street","buildingName":"St. Thomas More Church Rectory","roomFloor":"","city":"New York","state":"NY","zipCode":"10128","detailsBox":"Men's Meeting","wheelChair":false},{"meetingID":"1547","streetAddress":"65 East 89th Street","buildingName":"Church of Saint Thomas Moore","roomFloor":"Rectory basement","city":"New York","state":"NY","zipCode":"10128","detailsBox":"Agnostic","wheelChair":false},{"meetingID":"224","streetAddress":"351 East 74th Street","buildingName":"Jan Hus Church","roomFloor":"2nd Floor","city":"New York","state":"NY","zipCode":"10021","detailsBox":"","wheelChair":false},{"meetingID":"225","streetAddress":"135 East 96th Street","buildingName":"St. Francis de Sales Church","roomFloor":"","city":"New York","state":"NY","zipCode":"10128","detailsBox":"lower level","wheelChair":false},{"meetingID":"1040","streetAddress":"351 East 74th Street","buildingName":"Jan Hus Presbyterian Church","roomFloor":"2nd Floor Kitchen","city":"New York","state":"NY","zipCode":"10021","detailsBox":"","wheelChair":false},{"meetingID":"233","streetAddress":"2 East 90th Street","buildingName":"Church of the Heavenly Rest","roomFloor":"","city":"New York","state":"NY","zipCode":"10128","detailsBox":"","wheelChair":false},{"meetingID":"234","streetAddress":"1157 Lexington Avenue","buildingName":"All Souls Uniterian Church","roomFloor":"","city":"New York","state":"NY","zipCode":"10028","detailsBox":"Southside Chapel","wheelChair":true},{"meetingID":"236","streetAddress":"420 East 76th Street","buildingName":"Gracie Square Hospital","roomFloor":"","city":"New York","state":"NY","zipCode":"10021","detailsBox":"Thurs=Topic Meeting, Check in with security at front desk. Gay & lesbian focus.  All are welcome.","wheelChair":true},{"meetingID":"241","streetAddress":"351 East 74th Street","buildingName":"Jan Hus Presbyterian Church","roomFloor":"2nd Floor","city":"New York","state":"NY","zipCode":"10021","detailsBox":"All Meetings Are Non-Smoking.","wheelChair":false},{"meetingID":"245","streetAddress":"351 East 74th Street","buildingName":"Jan Hus Church","roomFloor":"2nd Floor Chapel Room","city":"New York","state":"NY","zipCode":"10021","detailsBox":"All meetings are 11th Step Meditation format.","wheelChair":false},{"meetingID":"1551","streetAddress":"1285 Madison Avenue","buildingName":"Philomathist Center","roomFloor":"","city":"New York","state":"NY","zipCode":"10128","detailsBox":"Ring Bell for entry","wheelChair":false},{"meetingID":"248","streetAddress":"48 East 84th Street","buildingName":"St. Ignatius Loyola School","roomFloor":"","city":"New York","state":"NY","zipCode":"10028","detailsBox":"Tue.6:30=Literature Topic,Sat=Meets in the Rectory. Wheel Chair Access on Tuesday & Sunday Only","wheelChair":true},{"meetingID":"257","streetAddress":"408 East 82nd Street","buildingName":"St. Stephen of Hungary Church","roomFloor":"Rectory","city":"New York","state":"NY","zipCode":"10028","detailsBox":"Round Robin format & No Meeting on Legal Holidays.","wheelChair":false},{"meetingID":"442","streetAddress":"351 East 74th Street","buildingName":"Jan Hus Church","roomFloor":"2nd Floor Front Room","city":"New York","state":"NY","zipCode":"10021","detailsBox":"AA Literature Topic Meeting & Open last Monday. Women's Meeting","wheelChair":false},{"meetingID":"262","streetAddress":"351 East 74th Street","buildingName":"Jan Hus Church","roomFloor":"2nd FloorFront Room","city":"New York","state":"NY","zipCode":"10021","detailsBox":"Daily Reflections readings & round robin format Discussion","wheelChair":false},{"meetingID":"274","streetAddress":"125 East 85th Street","buildingName":"Congregational Kehilath Jeshurun","roomFloor":"Ramaz School Entrance","city":"New York","state":"NY","zipCode":"10028","detailsBox":"","wheelChair":true},{"meetingID":"289","streetAddress":"351 East 74th Street","buildingName":"Jan Hus Church","roomFloor":"2nd Floor Library Room","city":"New York","state":"NY","zipCode":"10021","detailsBox":"Big Book Study","wheelChair":false},{"meetingID":"1371","streetAddress":"351 East 74th Street","buildingName":"Jan Hus Church","roomFloor":"2nd Floor Kitchen","city":"New York","state":"NY","zipCode":"10021","detailsBox":"Women's Meeting.","wheelChair":false},{"meetingID":"294","streetAddress":"865 Madison Avenue","buildingName":"St. James Church","roomFloor":"3rd Floor","city":"New York","state":"NY","zipCode":"10021","detailsBox":"","wheelChair":true},{"meetingID":"295","streetAddress":"62 East 92nd Street","buildingName":"Brick Church Parish House","roomFloor":"Basement","city":"New York","state":"NY","zipCode":"10128","detailsBox":"Tue.8pm=Topic Round Robin, Anniv Last Fri.@ 6:45 Church Closed Friday; No Meetings In July & August All meetings are non-smoking.","wheelChair":true},{"meetingID":"299","streetAddress":"351 East 74th Street","buildingName":"Jan Hus Church","roomFloor":"2nd Floor Front Room","city":"New York","state":"NY","zipCode":"10021","detailsBox":"","wheelChair":false},{"meetingID":"309","streetAddress":"420 East 87th Street","buildingName":"St. Joseph's School","roomFloor":"Basement","city":"New York","state":"NY","zipCode":"10128","detailsBox":"","wheelChair":false},{"meetingID":"446","streetAddress":"593 Park Avenue","buildingName":"Central Presbyterian Church","roomFloor":"5th Floor Library","city":"New York","state":"NY","zipCode":"10128","detailsBox":"","wheelChair":true},{"meetingID":"1372","streetAddress":"65 East 89th Street","buildingName":"St. Thomas More Church","roomFloor":"Ring Red Buzzer Chelsea Room","city":"New York","state":"NY","zipCode":"10128","detailsBox":"","wheelChair":true},{"meetingID":"314","streetAddress":"865 Madison Avenue","buildingName":"St. James Episcopal Church","roomFloor":"Basement","city":"New York","state":"NY","zipCode":"10021","detailsBox":"Mon.6pm & Thu.6pm Meetings end @ 6:50pm.","wheelChair":false},{"meetingID":"1529","streetAddress":"Church of the Good Shepard","buildingName":"","roomFloor":"543 Main Street Basement","city":"New York","state":"NY","zipCode":"10044","detailsBox":"","wheelChair":true},{"meetingID":"347","streetAddress":"413 East 79th Street","buildingName":"St. Monica's Church","roomFloor":"Basement","city":"New York","state":"NY","zipCode":"10021","detailsBox":"Sun.10am=11th S, Tue.6am=Came To Believe Thu.6am=Step & Trad.","wheelChair":false},{"meetingID":"356","streetAddress":"351 East 74th Street","buildingName":"Jan Hus Church","roomFloor":"Sanctuary","city":"New York","state":"NY","zipCode":"10021","detailsBox":"Women's Meeting","wheelChair":false},{"meetingID":"366","streetAddress":"310 East 67th Street","buildingName":"New York Blood Center","roomFloor":"Auditorium","city":"New York","state":"NY","zipCode":"10065","detailsBox":"Non-Smoking Meeting.","wheelChair":true},{"meetingID":"374","streetAddress":"331 East 70th Street","buildingName":"Lenox Hill Neighborhood House","roomFloor":"","city":"New York","state":"NY","zipCode":"10021","detailsBox":"","wheelChair":false},{"meetingID":"376","streetAddress":"411 East 68th Street","buildingName":"Church of St. Catherine of Siena","roomFloor":"","city":"New York","state":"NY","zipCode":"10021","detailsBox":"Enter through Parish House","wheelChair":true},{"meetingID":"383","streetAddress":"2 East 90th Street","buildingName":"Church of the Heavenly Rest","roomFloor":"Basement","city":"New York","state":"NY","zipCode":"10128","detailsBox":"","wheelChair":false},{"meetingID":"388","streetAddress":"341 East 87th Street","buildingName":"Holy Trinity Church","roomFloor":"Choir Room (Ring Bell)","city":"New York","state":"NY","zipCode":"10128","detailsBox":"Anniv Last Tuesday @ 7:15pm All meetings are non-smoking. Last Fri. @ 7PM = T","wheelChair":false},{"meetingID":"403","streetAddress":"351 East 74th Street","buildingName":"Jan Hus Church","roomFloor":"2nd Floor Museum Room","city":"New York","state":"NY","zipCode":"10021","detailsBox":"No prayers & a Non-Smoking Meeting.","wheelChair":false},{"meetingID":"404","streetAddress":"351 East 74th Street","buildingName":"Jan Hus Church","roomFloor":"2nd Floor Kitchen","city":"New York","state":"NY","zipCode":"10021","detailsBox":"Round Robin format","wheelChair":false},{"meetingID":"431","streetAddress":"351 East 74th Street","buildingName":"Jan Hus Church","roomFloor":"2nd Floor  Masaryk Room","city":"New York","state":"NY","zipCode":"10021","detailsBox":"Non-Smoking Meeting.","wheelChair":false}]