[
  {
    "meetingID": "1505",
    "streetAddress": "20 Cardinal Hayes Place",
    "buildingName": "St Andrews Church",
    "roomFloor": "Rectory Basement",
    "city": "New York",
    "state": "NY",
    "zipCode": "10007",
    "detailsBox": "@Duane and Centre behind Federal courthouse enter thru driveway behind Church No meetings on Holidays",
    "wheelChair": false
  },
  {
    "meetingID": "74",
    "streetAddress": "20 Cardinal Hayes Place",
    "buildingName": "St. Andrew's Church",
    "roomFloor": "Enter through driveway behind Church",
    "city": "New York",
    "state": "NY",
    "zipCode": "10007",
    "detailsBox": "No meetings on Holidays. **LOCATION SUBJECT TO CHANGE- Call Inter-Group",
    "wheelChair": false
  },
  {
    "meetingID": "78",
    "streetAddress": "29 Mott Street",
    "buildingName": "Church of the Transfiguration",
    "roomFloor": "Basement",
    "city": "New York",
    "state": "NY",
    "zipCode": "10013",
    "detailsBox": "",
    "wheelChair": false
  },
  {
    "meetingID": "137",
    "streetAddress": "49 Fulton Street",
    "buildingName": "St. Margaret's Residence",
    "roomFloor": "1st Floor Library",
    "city": "New York",
    "state": "NY",
    "zipCode": "10038",
    "detailsBox": "",
    "wheelChair": true
  },
  {
    "meetingID": "1556",
    "streetAddress": "44 John Street",
    "buildingName": "",
    "roomFloor": "",
    "city": "New York",
    "state": "NY",
    "zipCode": "10038",
    "detailsBox": "Thursday 1:30 = Alt. Step/Tradition Email exchangeviews1215@yahoo.com for questions",
    "wheelChair": false
  },
  {
    "meetingID": "1557",
    "streetAddress": "49 Fulton Street",
    "buildingName": "",
    "roomFloor": "",
    "city": "New York",
    "state": "NY",
    "zipCode": "10038",
    "detailsBox": "This is new location as of 9-12-14 M 7:30 am= Trad 1st Monday.",
    "wheelChair": true
  },
  {
    "meetingID": "161",
    "streetAddress": "20 Cardinal Hayes Place",
    "buildingName": "St. Andrew's Church",
    "roomFloor": "Enter through driveway behind Church",
    "city": "New York",
    "state": "NY",
    "zipCode": "10007",
    "detailsBox": "Note: Location Subject to change",
    "wheelChair": true
  },
  {
    "meetingID": "164",
    "streetAddress": "22 Barclay Street",
    "buildingName": "St. Peter's Church",
    "roomFloor": "",
    "city": "New York",
    "state": "NY",
    "zipCode": "null",
    "detailsBox": "",
    "wheelChair": false
  },
  {
    "meetingID": "296",
    "streetAddress": "20 Cardinal Hayes Place",
    "buildingName": "St. Andrew's Church",
    "roomFloor": "Enter through driveway behind Church",
    "city": "New York",
    "state": "NY",
    "zipCode": "10007",
    "detailsBox": "*Business meeting last Tuesday @ Mar,Jun,Sep & Dec.only. **Promises 1st Wednesday, ***T Last Thursday ** LOCATION IS SUBJECT TO CHANGE",
    "wheelChair": true
  },
  {
    "meetingID": "1402",
    "streetAddress": "22 Barclay Street",
    "buildingName": "Saint Peter's Church",
    "roomFloor": "",
    "city": "New York",
    "state": "NY",
    "zipCode": "10007",
    "detailsBox": "Enter on Church Street Lower floor, Parish Office Room",
    "wheelChair": false
  },
  {
    "meetingID": "89",
    "streetAddress": "283 West Broadway",
    "buildingName": "Hazelden Tribeca",
    "roomFloor": "",
    "city": "New York",
    "state": "NY",
    "zipCode": "10013",
    "detailsBox": "Mental Health Challenges in Sobriety. *Alternating Closed & rotating 1, 2, 3 Step every other week. Open â€“ Last Wednesday.",
    "wheelChair": true
  },
  {
    "meetingID": "321",
    "streetAddress": "125 Barclay Street",
    "buildingName": "Municipal Union Bldg DC 37",
    "roomFloor": "",
    "city": "New York",
    "state": "NY",
    "zipCode": "10007",
    "detailsBox": "Ask security guard for room #",
    "wheelChair": false
  },
  {
    "meetingID": "1195",
    "streetAddress": "49 Fulton Street",
    "buildingName": "St. Margaret's House",
    "roomFloor": "Conference Room #1",
    "city": "New York",
    "state": "NY",
    "zipCode": "10038",
    "detailsBox": "*Co-ed meeting, all are welcome.",
    "wheelChair": true
  },
  {
    "meetingID": "343",
    "streetAddress": "49 Fulton Street",
    "buildingName": "St. Margaret's House",
    "roomFloor": "",
    "city": "New York",
    "state": "NY",
    "zipCode": "10038",
    "detailsBox": "11th Step Meditation (Mon), Topic (Thu)",
    "wheelChair": true
  },
  {
    "meetingID": "385",
    "streetAddress": "20 Cardinal Hayes Place",
    "buildingName": "Church of Saint Andrew",
    "roomFloor": "",
    "city": "New York",
    "state": "NY",
    "zipCode": "10007",
    "detailsBox": "Step 1st Wednesday",
    "wheelChair": false
  },
  {
    "meetingID": "1446",
    "streetAddress": "283 West Broadway",
    "buildingName": "Tribeca 12 Building",
    "roomFloor": "",
    "city": "New York",
    "state": "NY",
    "zipCode": "10013",
    "detailsBox": "Walk thru green doors; first floor, rear. Addtl meditation meeting on Sunday at 11:15 if room full",
    "wheelChair": true
  },
  {
    "meetingID": "1555",
    "streetAddress": "49 Fulton Street",
    "buildingName": "",
    "roomFloor": "",
    "city": "New York",
    "state": "NY",
    "zipCode": "10038",
    "detailsBox": "this is the new location as of 9/8/14 tribecagroup2014@gmail.com",
    "wheelChair": true
  },
  {
    "meetingID": "387",
    "streetAddress": "22 Barclay Street",
    "buildingName": "St. Peter's Church",
    "roomFloor": "",
    "city": "New York",
    "state": "NY",
    "zipCode": "10006",
    "detailsBox": "Monday step - 3rd and 11th step workshop tribecagroup2014@gmail.com",
    "wheelChair": false
  },
  {
    "meetingID": "1549",
    "streetAddress": "20 Cardinal Hayes Place",
    "buildingName": "St. Andrew's Church",
    "roomFloor": "",
    "city": "New York",
    "state": "NY",
    "zipCode": "10007",
    "detailsBox": "",
    "wheelChair": false
  },
  {
    "meetingID": "434",
    "streetAddress": "283 West Broadway",
    "buildingName": "Hazelden Center",
    "roomFloor": "",
    "city": "New York",
    "state": "NY",
    "zipCode": "10013",
    "detailsBox": "Lesbian, Gay, Bi-sexual & Transgendered Focus All are welcome.",
    "wheelChair": false
  },
  {
    "meetingID": "130",
    "streetAddress": "283 West Broadway",
    "buildingName": "Hazelden Center",
    "roomFloor": "",
    "city": "New York",
    "state": "NY",
    "zipCode": "10013",
    "detailsBox": "",
    "wheelChair": true
  },
  {
    "meetingID": "435",
    "streetAddress": "283 West Broadway",
    "buildingName": "Hazelden Center",
    "roomFloor": "",
    "city": "New York",
    "state": "NY",
    "zipCode": "10013",
    "detailsBox": "Open Anniv. Last Saturday.",
    "wheelChair": true
  },
  {
    "meetingID": "38",
    "streetAddress": "273 Bowery",
    "buildingName": "University Settlement",
    "roomFloor": "Downstairs",
    "city": "New York",
    "state": "NY",
    "zipCode": "10002",
    "detailsBox": "",
    "wheelChair": true
  },
  {
    "meetingID": "42",
    "streetAddress": "232 West 11th Street",
    "buildingName": "Manhattan Seventh-Day Adventist Church",
    "roomFloor": "",
    "city": "New York",
    "state": "NY",
    "zipCode": "10014",
    "detailsBox": "",
    "wheelChair": false
  },
  {
    "meetingID": "1539",
    "streetAddress": "283 West Broadway",
    "buildingName": "Hazelden Center",
    "roomFloor": "",
    "city": "New York",
    "state": "NY",
    "zipCode": "10013",
    "detailsBox": "Sex inventory 4th step literature meeting Meets 1st and 3rd Saturday of the month from noon-1",
    "wheelChair": true
  },
  {
    "meetingID": "1515",
    "streetAddress": "232 West 11th Street",
    "buildingName": "Seventh Day Adventist Church",
    "roomFloor": "",
    "city": "New York",
    "state": "NY",
    "zipCode": "10014",
    "detailsBox": "",
    "wheelChair": false
  },
  {
    "meetingID": "59",
    "streetAddress": "220 West Houston Street",
    "buildingName": "",
    "roomFloor": "2nd Floor",
    "city": "New York",
    "state": "NY",
    "zipCode": "10014",
    "detailsBox": "NOTE: Meeting only meets on the 1st & 3rd Sunday of each month *Big Book Workshop, Meeting ends at Noon.",
    "wheelChair": false
  },
  {
    "meetingID": "1415",
    "streetAddress": "253 Center Street",
    "buildingName": "Golden Bridge Yoga Center",
    "roomFloor": "3rd Floor",
    "city": "New York",
    "state": "NY",
    "zipCode": "10013",
    "detailsBox": "No shoes worn in meeting location. A short meditation opens the meeting.",
    "wheelChair": false
  },
  {
    "meetingID": "353",
    "streetAddress": "273 Bowery",
    "buildingName": "University Settlement (The Chinatown YMCA)",
    "roomFloor": "",
    "city": "New York",
    "state": "NY",
    "zipCode": "10002",
    "detailsBox": "Ask front desk for meeting location",
    "wheelChair": true
  },
  {
    "meetingID": "170",
    "streetAddress": "487 Hudson Street",
    "buildingName": "St. Luke's Episcopal School",
    "roomFloor": "Basement",
    "city": "New York",
    "state": "NY",
    "zipCode": "10014",
    "detailsBox": "Mon.Step=Rotates Steps 1,2&3, Fri.= T. Last Friday. Parents with children are welcome.",
    "wheelChair": false
  },
  {
    "meetingID": "173",
    "streetAddress": "292 Henry Street",
    "buildingName": "St. Augustine's Church",
    "roomFloor": "Basement",
    "city": "New York",
    "state": "NY",
    "zipCode": "10002",
    "detailsBox": "Spanish speaking meetings.",
    "wheelChair": true
  },
  {
    "meetingID": "217",
    "streetAddress": "232 West 11th Street",
    "buildingName": "Manhattan Church of The Seventh-day Adventist",
    "roomFloor": "",
    "city": "New York",
    "state": "NY",
    "zipCode": "10014",
    "detailsBox": "Topic Meeting for gay men approaching and over 40. All are welcome.",
    "wheelChair": true
  },
  {
    "meetingID": "737",
    "streetAddress": "141 Henry Street",
    "buildingName": "Church of Saint Theresa Rectory",
    "roomFloor": "1st Floor",
    "city": "New York",
    "state": "NY",
    "zipCode": "10002",
    "detailsBox": "",
    "wheelChair": false
  },
  {
    "meetingID": "251",
    "streetAddress": "220 West Houston Street",
    "buildingName": "",
    "roomFloor": "2nd Floor",
    "city": "New York",
    "state": "NY",
    "zipCode": "10014",
    "detailsBox": "Sun.12:30=Meditation, 2am Meetings=Pitch meeting with candlelight. Mon.8pm=Topic, Tues.10pm=T last Tues., Thu.10pm=Problems in Sobriety Sun.8pm=Bus.Meeting last Sun.,Sat.10pm=Anniv.Last",
    "wheelChair": false
  },
  {
    "meetingID": "277",
    "streetAddress": "83 Christopher Street",
    "buildingName": "St. John's Lutheran Church",
    "roomFloor": "Left of Church",
    "city": "New York",
    "state": "NY",
    "zipCode": "10014",
    "detailsBox": "Gay & Lesbian focus.  All are welcome.",
    "wheelChair": false
  },
  {
    "meetingID": "297",
    "streetAddress": "50 Perry Street",
    "buildingName": "",
    "roomFloor": "Ground Floor",
    "city": "New York",
    "state": "NY",
    "zipCode": "10014",
    "detailsBox": "No 8:30 or 10:15 1st Wed of month due to Bus. meeting Wed.10:15pm=No BB 1st Wed.",
    "wheelChair": false
  },
  {
    "meetingID": "583",
    "streetAddress": "232 West 11th Street",
    "buildingName": "Seventh Day Adventist Church",
    "roomFloor": "",
    "city": "New York",
    "state": "NY",
    "zipCode": "10014",
    "detailsBox": "",
    "wheelChair": false
  },
  {
    "meetingID": "311",
    "streetAddress": "224 Waverly Place",
    "buildingName": "St. John's Episcopal Church",
    "roomFloor": "1st Floor Event Room",
    "city": "New York",
    "state": "NY",
    "zipCode": "10014",
    "detailsBox": "Fri.7:00pm=Promises Meeting All meetings are Gay & Lesbian focused.  All are welcome.",
    "wheelChair": false
  },
  {
    "meetingID": "317",
    "streetAddress": "154 Sullivan Street",
    "buildingName": "St. Anthony's of Padua",
    "roomFloor": "",
    "city": "New York",
    "state": "NY",
    "zipCode": "10012",
    "detailsBox": "Wed.=Topic, Thu.=Promises & Fri.=T Last Fri.",
    "wheelChair": false
  },
  {
    "meetingID": "835",
    "streetAddress": "273 Bowery Street",
    "buildingName": "Chinatown YMCA",
    "roomFloor": "",
    "city": "New York",
    "state": "NY",
    "zipCode": "10012",
    "detailsBox": "",
    "wheelChair": true
  },
  {
    "meetingID": "349",
    "streetAddress": "371 6th Avenue",
    "buildingName": "St. Joseph's Church",
    "roomFloor": "Basement",
    "city": "New York",
    "state": "NY",
    "zipCode": "10014",
    "detailsBox": "Gay & Lesbian Focus.  All are welcome.",
    "wheelChair": true
  },
  {
    "meetingID": "359",
    "streetAddress": "155 Sullivan Street",
    "buildingName": "St. Anthony of Padua Church",
    "roomFloor": "Basement",
    "city": "New York",
    "state": "NY",
    "zipCode": "10012",
    "detailsBox": "Mon.7pm=Anniv Last Mon., Fri.6:30pm=Interpreted for Deaf and Hard of Hearing. Friday Meeting occasionally changes the location;  please call New York Inter-Group to confirm meeting location.",
    "wheelChair": false
  },
  {
    "meetingID": "361",
    "streetAddress": "7 East 10th Strert",
    "buildingName": "The Bronfman Cernter @ NYU",
    "roomFloor": "",
    "city": "New York",
    "state": "NY",
    "zipCode": "10003",
    "detailsBox": "Lower level",
    "wheelChair": false
  },
  {
    "meetingID": "1456",
    "streetAddress": "232 West 11th Street",
    "buildingName": "Seventh Adventist Church",
    "roomFloor": "Basement",
    "city": "New York",
    "state": "NY",
    "zipCode": "null",
    "detailsBox": "Literature",
    "wheelChair": false
  },
  {
    "meetingID": "1542",
    "streetAddress": "81 Christopher Street",
    "buildingName": "St. John's Lutheran Church",
    "roomFloor": "",
    "city": "New York",
    "state": "NY",
    "zipCode": "10014",
    "detailsBox": "The speaker will have 10+ years of sobriety. All welcome. Please ring Meeting Bell only",
    "wheelChair": false
  },
  {
    "meetingID": "1405",
    "streetAddress": "273 Bowery",
    "buildingName": "University Settlement (The Chinatown YMCA)",
    "roomFloor": "Downstairs",
    "city": "New York",
    "state": "NY",
    "zipCode": "10002",
    "detailsBox": "Men's Meeting",
    "wheelChair": true
  },
  {
    "meetingID": "1046",
    "streetAddress": "232 West 11th Street",
    "buildingName": "Manhattan Seventh-Day Adventist Church",
    "roomFloor": "",
    "city": "New York",
    "state": "NY",
    "zipCode": "10014",
    "detailsBox": "",
    "wheelChair": false
  },
  {
    "meetingID": "405",
    "streetAddress": "232 West 11th Street",
    "buildingName": "Manhattan Church of The Seventh-day Adventist",
    "roomFloor": "",
    "city": "New York",
    "state": "NY",
    "zipCode": "10014",
    "detailsBox": "",
    "wheelChair": true
  },
  {
    "meetingID": "410",
    "streetAddress": "83 Christopher Street",
    "buildingName": "St. John's Lutheran Church",
    "roomFloor": "Basement",
    "city": "New York",
    "state": "NY",
    "zipCode": "10014",
    "detailsBox": "Focus women 5+ years of sobriety. All are welcome. Enter through Red Door left of church, Buzzer-Meeting Room",
    "wheelChair": true
  },
  {
    "meetingID": "420",
    "streetAddress": "220 West Houston Street",
    "buildingName": "",
    "roomFloor": "2nd Floor",
    "city": "New York",
    "state": "NY",
    "zipCode": "10014",
    "detailsBox": "Women's Meeting",
    "wheelChair": false
  },
  {
    "meetingID": "422",
    "streetAddress": "273 Bowery",
    "buildingName": "University Settlement @ Houston Street Center",
    "roomFloor": "Classroom Floor",
    "city": "New York",
    "state": "NY",
    "zipCode": "10002",
    "detailsBox": "*Women's Meeting Lesbian focus.  All are welcome.",
    "wheelChair": true
  },
  {
    "meetingID": "445",
    "streetAddress": "7 East 10th Street",
    "buildingName": "N.Y.U Bronfman Center",
    "roomFloor": "2nd Floor",
    "city": "New York",
    "state": "NY",
    "zipCode": "10003",
    "detailsBox": "Only meets on the 1st Wednesday of the month. A.A.'s 12 Concepts Meeting.",
    "wheelChair": false
  },
  {
    "meetingID": "394",
    "streetAddress": "155 East 22nd Street",
    "buildingName": "Gustavus Adolphus Church",
    "roomFloor": "Basement",
    "city": "New York",
    "state": "NY",
    "zipCode": "10010",
    "detailsBox": "Trad.1st Wed., Fri.=Topic, Sat.=Round Robin Sharing All meetings are non-smoking.",
    "wheelChair": false
  },
  {
    "meetingID": "1463",
    "streetAddress": "61 Fourth Avenue",
    "buildingName": "Three Jewels Community Center",
    "roomFloor": "3rd Floor",
    "city": "New York",
    "state": "NY",
    "zipCode": "10003",
    "detailsBox": "Topic meeting, focus is on meditation Thursday meeting ends at 7:10",
    "wheelChair": false
  },
  {
    "meetingID": "43",
    "streetAddress": "208 West 13th Street",
    "buildingName": "Lesbian, Gay, Bi-Sexual & Transgender Community Center",
    "roomFloor": "3rd Floor Room #312",
    "city": "New York",
    "state": "NY",
    "zipCode": "10011",
    "detailsBox": "GLBT Focus. All are welcome.",
    "wheelChair": false
  },
  {
    "meetingID": "45",
    "streetAddress": "123 East 15th Street",
    "buildingName": "Seafarers & Intl House",
    "roomFloor": "2nd Floor Conference Room",
    "city": "New York",
    "state": "NY",
    "zipCode": "10003",
    "detailsBox": "",
    "wheelChair": true
  },
  {
    "meetingID": "52",
    "streetAddress": "61 Gramercy Park North",
    "buildingName": "Calvary Church Parish House",
    "roomFloor": "",
    "city": "New York",
    "state": "NY",
    "zipCode": "10010",
    "detailsBox": "",
    "wheelChair": false
  },
  {
    "meetingID": "55",
    "streetAddress": "155 East 22nd Street",
    "buildingName": "Gustavus Adolphus Lutheran Church",
    "roomFloor": "Ground Floor",
    "city": "New York",
    "state": "NY",
    "zipCode": "10010",
    "detailsBox": "",
    "wheelChair": true
  },
  {
    "meetingID": "56",
    "streetAddress": "127 East 22nd Street",
    "buildingName": "Mabel Bacon High School of the Future",
    "roomFloor": "2nd Floor Auditorium",
    "city": "New York",
    "state": "NY",
    "zipCode": "10010",
    "detailsBox": "no entry before 5:30",
    "wheelChair": true
  },
  {
    "meetingID": "1431",
    "streetAddress": "602 East 9th Street",
    "buildingName": "Trinity Lower East Side Lutheran Parish",
    "roomFloor": "",
    "city": "New York",
    "state": "NY",
    "zipCode": "10009",
    "detailsBox": "Ground Floor Anniversaries last Thursday of month",
    "wheelChair": true
  },
  {
    "meetingID": "1427",
    "streetAddress": "125 West 14th Street",
    "buildingName": "McBurney YMCA",
    "roomFloor": "Kuttner Room",
    "city": "New York",
    "state": "NY",
    "zipCode": "10011",
    "detailsBox": "",
    "wheelChair": true
  },
  {
    "meetingID": "1577",
    "streetAddress": "346 West 20th Street",
    "buildingName": "St. Peters Episcopal Church- Rectory",
    "roomFloor": "",
    "city": "New York",
    "state": "NY",
    "zipCode": "10011",
    "detailsBox": "Wed. alternates between Step and Tradition",
    "wheelChair": false
  },
  {
    "meetingID": "76",
    "streetAddress": "125 West 14th Street",
    "buildingName": "McBurney YMCA",
    "roomFloor": "Ground Floor",
    "city": "New York",
    "state": "NY",
    "zipCode": "10011",
    "detailsBox": "Anniv. Last Thursday All Meetings Are Non-Smoking",
    "wheelChair": true
  },
  {
    "meetingID": "132",
    "streetAddress": "414 East 14th Street",
    "buildingName": "Our Lady of Immaculate Conception",
    "roomFloor": "Auditorium",
    "city": "New York",
    "state": "NY",
    "zipCode": "10009",
    "detailsBox": "",
    "wheelChair": true
  },
  {
    "meetingID": "133",
    "streetAddress": "119 Ninth Avenue",
    "buildingName": "Fulton Senior Center",
    "roomFloor": "",
    "city": "New York",
    "state": "NY",
    "zipCode": "10011",
    "detailsBox": "Non-Smoking Meeting.",
    "wheelChair": true
  },
  {
    "meetingID": "1493",
    "streetAddress": "202 West 24 Street",
    "buildingName": "Christopher House",
    "roomFloor": "Mezzanine",
    "city": "New York",
    "state": "NY",
    "zipCode": "10011",
    "detailsBox": "Check in at front desk all meetings are non-smoking",
    "wheelChair": true
  },
  {
    "meetingID": "140",
    "streetAddress": "28 Gramercy Park South",
    "buildingName": "Brotherhood Synagogue",
    "roomFloor": "1st Floor",
    "city": "New York",
    "state": "NY",
    "zipCode": "10003",
    "detailsBox": "*Open Anniv Last Wednesday Non-Smoking Meeting.",
    "wheelChair": true
  },
  {
    "meetingID": "141",
    "streetAddress": "50 East 7th Street",
    "buildingName": "Middle Collegiate Church",
    "roomFloor": "3rd and 4th floors",
    "city": "New York",
    "state": "NY",
    "zipCode": "10003",
    "detailsBox": "LGBT; all welcome. Tues 7pm=Artists in Recovery, all welcome. 8:30 1st Tues of Month Bus mtg. at 8:05",
    "wheelChair": false
  },
  {
    "meetingID": "147",
    "streetAddress": "273 Bowery",
    "buildingName": "University Settlement House",
    "roomFloor": "2nd Floor Classroom",
    "city": "New York",
    "state": "NY",
    "zipCode": "10003",
    "detailsBox": "",
    "wheelChair": true
  },
  {
    "meetingID": "166",
    "streetAddress": "802 Broadway",
    "buildingName": "Grace Church Office Building",
    "roomFloor": "3rd Floor Conference Room",
    "city": "New York",
    "state": "NY",
    "zipCode": "10003",
    "detailsBox": "",
    "wheelChair": true
  },
  {
    "meetingID": "167",
    "streetAddress": "28 Grammercy Park South",
    "buildingName": "Brothhood Synagogue",
    "roomFloor": "2nd Floor",
    "city": "New York",
    "state": "NY",
    "zipCode": "10010",
    "detailsBox": "Last Mon.6:30pm=Anniv Last Thursday Tradition",
    "wheelChair": true
  },
  {
    "meetingID": "438",
    "streetAddress": "209 East 16th Street",
    "buildingName": "Saint George Episcopal Church",
    "roomFloor": "Basement",
    "city": "New York",
    "state": "NY",
    "zipCode": "10003",
    "detailsBox": "Tue.Topic=Gratitude, Thu=11th Step Meditation Meeting,",
    "wheelChair": false
  },
  {
    "meetingID": "177",
    "streetAddress": "44 2nd Avenue",
    "buildingName": "Church of the Nativity",
    "roomFloor": "Main Floor",
    "city": "New York",
    "state": "NY",
    "zipCode": "10003",
    "detailsBox": "Spanish speaking meeting.",
    "wheelChair": false
  },
  {
    "meetingID": "178",
    "streetAddress": "229 West 14th Street",
    "buildingName": "Our Lady of Guadalupe Church",
    "roomFloor": "",
    "city": "New York",
    "state": "NY",
    "zipCode": "10011",
    "detailsBox": "Mon=Step 1st Mon. Spanish speaking meetings.",
    "wheelChair": false
  },
  {
    "meetingID": "201",
    "streetAddress": "229 West 14th Street",
    "buildingName": "Our Lady of Guadalupe Church",
    "roomFloor": "",
    "city": "New York",
    "state": "NY",
    "zipCode": "10011",
    "detailsBox": "Spanish speaking meeting.",
    "wheelChair": false
  },
  {
    "meetingID": "222",
    "streetAddress": "208 West 13th Street",
    "buildingName": "Lesbian, Gay, Bi-Sexual & Transgender Community Center",
    "roomFloor": "",
    "city": "New York",
    "state": "NY",
    "zipCode": "10011",
    "detailsBox": "Interpreted for the deaf and hard of hearing Check listing at the center for the room number.",
    "wheelChair": true
  },
  {
    "meetingID": "228",
    "streetAddress": "28 Gramercy Park South",
    "buildingName": "Brotherhood Synagogue",
    "roomFloor": "",
    "city": "New York",
    "state": "NY",
    "zipCode": "10003",
    "detailsBox": "Please Do Not Call the Synagogue for Meeting Info.",
    "wheelChair": true
  },
  {
    "meetingID": "1462",
    "streetAddress": "208 West 13th Street",
    "buildingName": "Lesbian, Gay, Bisexual, & Transgender Community Center",
    "roomFloor": "Room 212",
    "city": "New York",
    "state": "NY",
    "zipCode": "10001",
    "detailsBox": "LA Transplants/Vistors    All Welcome",
    "wheelChair": true
  },
  {
    "meetingID": "1495",
    "streetAddress": "307 West 26th Street",
    "buildingName": "The Upright Citizens Brigade Theatre",
    "roomFloor": "",
    "city": "New York",
    "state": "NY",
    "zipCode": "10011",
    "detailsBox": "",
    "wheelChair": true
  },
  {
    "meetingID": "1526",
    "streetAddress": "343 West 25th Street",
    "buildingName": "St. Columba Church",
    "roomFloor": "",
    "city": "New York",
    "state": "NY",
    "zipCode": "10001",
    "detailsBox": "",
    "wheelChair": false
  },
  {
    "meetingID": "238",
    "streetAddress": "80 Street Mark's Place",
    "buildingName": "Theatre 80",
    "roomFloor": "2nd Floor",
    "city": "New York",
    "state": "NY",
    "zipCode": "10003",
    "detailsBox": "Tue.7pm=4th & 5th Step Workshop, **Beginners 3 speaker panel Sat.& Sun.10am Meeting is in the main theatre.",
    "wheelChair": false
  },
  {
    "meetingID": "239",
    "streetAddress": "208 West 13th Street",
    "buildingName": "Lesbian, Gay, Bi-Sexual & Transgender Community Center",
    "roomFloor": "",
    "city": "New York",
    "state": "NY",
    "zipCode": "10011",
    "detailsBox": "Gay & lesbian focus.  All are welcome.",
    "wheelChair": true
  },
  {
    "meetingID": "242",
    "streetAddress": "51 East 25th Street",
    "buildingName": "Intercare",
    "roomFloor": "Lower Level",
    "city": "New York",
    "state": "NY",
    "zipCode": "10010",
    "detailsBox": "",
    "wheelChair": true
  },
  {
    "meetingID": "243",
    "streetAddress": "155 East 22nd Street",
    "buildingName": "Gustavus Adolphus Church",
    "roomFloor": "Basement",
    "city": "New York",
    "state": "NY",
    "zipCode": "10010",
    "detailsBox": "Open Anniv Last Tuesday. All meetings are non-smoking.",
    "wheelChair": false
  },
  {
    "meetingID": "268",
    "streetAddress": "7 East 10th Street",
    "buildingName": "Bronfman Center",
    "roomFloor": "2nd Floor (Note: A photo ID is required to enter the building.)",
    "city": "New York",
    "state": "NY",
    "zipCode": "10003",
    "detailsBox": "Tue.2pm=11th Step Meditation, Thu.12:30pm=Topic, Fri.12:30pm Note: There Is No 2:00 Meeting On The Last Day Of The Month Anniv. Last Weekday of the Month",
    "wheelChair": false
  },
  {
    "meetingID": "269",
    "streetAddress": "315 West 22nd Street",
    "buildingName": "German Evangelist Lutheran Church of St. Paul",
    "roomFloor": "1st Floor",
    "city": "New York",
    "state": "NY",
    "zipCode": "10011",
    "detailsBox": "Anniv. Last Thursday",
    "wheelChair": false
  },
  {
    "meetingID": "279",
    "streetAddress": "15 Rutherford Place",
    "buildingName": "Friends Meeting House",
    "roomFloor": "Basement",
    "city": "New York",
    "state": "NY",
    "zipCode": "10003",
    "detailsBox": "T 1st Monday, Anniv Last Friday. All meetings are non-smoking.",
    "wheelChair": false
  },
  {
    "meetingID": "1406",
    "streetAddress": "25 East 15th",
    "buildingName": "The Realization Center",
    "roomFloor": "",
    "city": "New York",
    "state": "NY",
    "zipCode": "10003",
    "detailsBox": "",
    "wheelChair": false
  },
  {
    "meetingID": "286",
    "streetAddress": "175 9th Avenue",
    "buildingName": "General Theological Seminary",
    "roomFloor": "1st and 2nd Floor",
    "city": "New York",
    "state": "NY",
    "zipCode": "10011",
    "detailsBox": "Fri.6pm OD=11th Step Meditation, Fri.7:15pm O=Anniv Last Friday, +HIV Topic LGBTQ Friendly.  All are welcome. Fri 7:15 CD=Relationships in Sobriety Business meeting at Holy Apostoles on 1st Monday a",
    "wheelChair": false
  },
  {
    "meetingID": "1416",
    "streetAddress": "19 Union Square West",
    "buildingName": "The Realization Center",
    "roomFloor": "7th Floor Conference Room B",
    "city": "New York",
    "state": "NY",
    "zipCode": "10003",
    "detailsBox": "Women's Meeting except for last Tuesday of the month.",
    "wheelChair": true
  },
  {
    "meetingID": "293",
    "streetAddress": "155 East 22nd Street",
    "buildingName": "Gustavus Adolphus Church",
    "roomFloor": "1st Floor",
    "city": "New York",
    "state": "NY",
    "zipCode": "10010",
    "detailsBox": "Mon.BB Meeting is in the basement, Tue.6:45pm=T Last Tue. Basement is not Wheel Chair Accessible.",
    "wheelChair": false
  },
  {
    "meetingID": "300",
    "streetAddress": "423 East 23rd Street",
    "buildingName": "Veterans Administration Hospital",
    "roomFloor": "3rd fl Conference Room 3076 south",
    "city": "New York",
    "state": "NY",
    "zipCode": "10010",
    "detailsBox": "",
    "wheelChair": true
  },
  {
    "meetingID": "301",
    "streetAddress": "209 East 16th Street",
    "buildingName": "St. George's Church",
    "roomFloor": "Olmstead Hall",
    "city": "New York",
    "state": "NY",
    "zipCode": "10003",
    "detailsBox": "T Last Tuesday, Thu.=Topic",
    "wheelChair": false
  },
  {
    "meetingID": "1587",
    "streetAddress": "411 East 12th Street",
    "buildingName": "",
    "roomFloor": "",
    "city": "New York",
    "state": "NY",
    "zipCode": "10009",
    "detailsBox": "",
    "wheelChair": false
  },
  {
    "meetingID": "322",
    "streetAddress": "209 East 16th Street",
    "buildingName": "St. George's Church",
    "roomFloor": "",
    "city": "New York",
    "state": "NY",
    "zipCode": "10003",
    "detailsBox": "Beginners meeting meets in Olmsted Hall Big Book topic meeting meets in the Music Room",
    "wheelChair": false
  },
  {
    "meetingID": "744",
    "streetAddress": "239 East 21st Street",
    "buildingName": "Epiphany Roman Catholic Church",
    "roomFloor": "Church Rectory",
    "city": "New York",
    "state": "NY",
    "zipCode": "10009",
    "detailsBox": "",
    "wheelChair": false
  },
  {
    "meetingID": "342",
    "streetAddress": "12 West 12th Street",
    "buildingName": "First Presbyterian Church",
    "roomFloor": "6th Floor-Roof Level",
    "city": "New York",
    "state": "NY",
    "zipCode": "10011",
    "detailsBox": "Tue=S Last Tue. & focus is on women with 5 years of sobriety or more.  All are welcome Fri=O Last Fri. & focus is on women with 5 years of sobriety or less.  All are welcome. Friday beginners = Trans Welcome",
    "wheelChair": true
  },
  {
    "meetingID": "344",
    "streetAddress": "44 2nd Avenue",
    "buildingName": "Church of the Nativity",
    "roomFloor": "",
    "city": "New York",
    "state": "NY",
    "zipCode": "10003",
    "detailsBox": "",
    "wheelChair": false
  },
  {
    "meetingID": "354",
    "streetAddress": "208 West 13th Street",
    "buildingName": "Lesbian, Gay, Bi-Sexual & Transgender Community Center",
    "roomFloor": "",
    "city": "New York",
    "state": "NY",
    "zipCode": "10011",
    "detailsBox": "S&M Lifestyles",
    "wheelChair": false
  },
  {
    "meetingID": "357",
    "streetAddress": "12 West 11th Street",
    "buildingName": "Church of the Ascension Parish House",
    "roomFloor": "Ground Floor",
    "city": "New York",
    "state": "NY",
    "zipCode": "10011",
    "detailsBox": "T Last Tue., Fri=Topic, Sat=11th Step Meditation",
    "wheelChair": false
  },
  {
    "meetingID": "1566",
    "streetAddress": "116 West 11th Street",
    "buildingName": "PS 41 Elementary School",
    "roomFloor": "",
    "city": "New York",
    "state": "NY",
    "zipCode": "10011",
    "detailsBox": "",
    "wheelChair": false
  },
  {
    "meetingID": "1042",
    "streetAddress": "80 5th Avenue",
    "buildingName": "",
    "roomFloor": "14th Floor Room #1408C",
    "city": "New York",
    "state": "NY",
    "zipCode": "10011",
    "detailsBox": "",
    "wheelChair": true
  },
  {
    "meetingID": "371",
    "streetAddress": "116 West 11th Street",
    "buildingName": "P.S. 41 (see footnote re: temp location)",
    "roomFloor": "Cafeteria",
    "city": "New York",
    "state": "NY",
    "zipCode": "10011",
    "detailsBox": "TEMPORARILY MEETING AT THE LGBT CENTER 208 W 13TH UNTIL FURTHER NOTICE",
    "wheelChair": true
  },
  {
    "meetingID": "443",
    "streetAddress": "155 East 22nd Street",
    "buildingName": "Gustavus Adolphus Church",
    "roomFloor": "",
    "city": "New York",
    "state": "NY",
    "zipCode": "10010",
    "detailsBox": "Meeting In Basement 11th Step Meditation Meeting",
    "wheelChair": false
  },
  {
    "meetingID": "373",
    "streetAddress": "319 Eastr 24th Street",
    "buildingName": "East Midtown Plaza (Community Room H)",
    "roomFloor": "",
    "city": "New York",
    "state": "NY",
    "zipCode": "10010",
    "detailsBox": "",
    "wheelChair": true
  },
  {
    "meetingID": "745",
    "streetAddress": "10 East Union Square",
    "buildingName": "Beth Israel Hospital @ Karpas Cancer Center Library",
    "roomFloor": "4th Floor Conf.Rm.#4A18",
    "city": "New York",
    "state": "NY",
    "zipCode": "10003",
    "detailsBox": "Focus is on dealing with cancer in recovery.  All are welcome",
    "wheelChair": true
  },
  {
    "meetingID": "377",
    "streetAddress": "206-208 East 11th Street",
    "buildingName": "All Saints Ukrainian Orthodox Church",
    "roomFloor": "",
    "city": "New York",
    "state": "NY",
    "zipCode": "10003",
    "detailsBox": "Sunday=As Bill Sees It Ukrainian language translation is available if needed.",
    "wheelChair": false
  },
  {
    "meetingID": "378",
    "streetAddress": "123 East 15th Street",
    "buildingName": "Seafarers & International House",
    "roomFloor": "2nd Floor",
    "city": "New York",
    "state": "NY",
    "zipCode": "10003",
    "detailsBox": "Fri B = 1st Time in AA Only",
    "wheelChair": true
  },
  {
    "meetingID": "381",
    "streetAddress": "411 East 12th Street",
    "buildingName": "",
    "roomFloor": "Basement",
    "city": "New York",
    "state": "NY",
    "zipCode": "10009",
    "detailsBox": "Sun.4:30=Business Mtg Only 1st & Anniv Last Sunday Sun.7:30pm,Tue.5:30,Wed.8:30pm & Sat.10:30am=11th Step Meditation Mon.5:30=Gratitude & Sat.7:30am=AA Grapevine",
    "wheelChair": false
  },
  {
    "meetingID": "152",
    "streetAddress": "125 West 14th Street",
    "buildingName": "McBurney YMCA",
    "roomFloor": "1st Floor Meeting Room",
    "city": "New York",
    "state": "NY",
    "zipCode": "10011",
    "detailsBox": "",
    "wheelChair": true
  },
  {
    "meetingID": "1522",
    "streetAddress": "208 West 13th Street",
    "buildingName": "LGBT Community Center",
    "roomFloor": "",
    "city": "New York",
    "state": "NY",
    "zipCode": "10011",
    "detailsBox": "Trans-female focus",
    "wheelChair": true
  },
  {
    "meetingID": "392",
    "streetAddress": "10 Union Square East",
    "buildingName": "Beth Israel Phillips Ambulatory Center",
    "roomFloor": "2nd Floor Conference Room #3",
    "city": "New York",
    "state": "NY",
    "zipCode": "10003",
    "detailsBox": "",
    "wheelChair": true
  },
  {
    "meetingID": "1037",
    "streetAddress": "155 West 22nd Street",
    "buildingName": "St. Francis Residence",
    "roomFloor": "1st Floor",
    "city": "New York",
    "state": "NY",
    "zipCode": "10011",
    "detailsBox": "",
    "wheelChair": true
  },
  {
    "meetingID": "397",
    "streetAddress": "208 West 13th Street",
    "buildingName": "Lesbian, Gay, Bi-Sexual & Transgender Community Center",
    "roomFloor": "",
    "city": "New York",
    "state": "NY",
    "zipCode": "10011",
    "detailsBox": "Sun.5:30pm meets only on the last Sunday of the month No Prayers - All Welcome - Check listing for Rm #",
    "wheelChair": false
  },
  {
    "meetingID": "398",
    "streetAddress": "12 West 12th Street",
    "buildingName": "First Presbyterian Church",
    "roomFloor": "Third Floor",
    "city": "New York",
    "state": "NY",
    "zipCode": "10011",
    "detailsBox": "1st & 3rd Wk=Step/Big Book , 2nd & 4th Wk=Promises",
    "wheelChair": true
  },
  {
    "meetingID": "1466",
    "streetAddress": "20 Washington Square North",
    "buildingName": "The Caring Community",
    "roomFloor": "2nd Floor",
    "city": "New York",
    "state": "NY",
    "zipCode": "10011",
    "detailsBox": "",
    "wheelChair": true
  },
  {
    "meetingID": "837",
    "streetAddress": "344 East 14th Street",
    "buildingName": "14th Street Y",
    "roomFloor": "",
    "city": "New York",
    "state": "NY",
    "zipCode": "10003",
    "detailsBox": "Please Do Not Call the Y for Meeting Info.",
    "wheelChair": true
  },
  {
    "meetingID": "407",
    "streetAddress": "155 West 22nd Street",
    "buildingName": "St. Francis Residence",
    "roomFloor": "1st Floor",
    "city": "New York",
    "state": "NY",
    "zipCode": "10011",
    "detailsBox": "",
    "wheelChair": false
  },
  {
    "meetingID": "416",
    "streetAddress": "208 West 13th Street",
    "buildingName": "Lesbian, Gay, Bi-Sexual & Transgender Community Center",
    "roomFloor": "",
    "city": "New York",
    "state": "NY",
    "zipCode": "10011",
    "detailsBox": "Lesbian and gay focus.  All are welcome Meeting format is \"Round Robin.\"",
    "wheelChair": true
  },
  {
    "meetingID": "415",
    "streetAddress": "602 East 9th Street",
    "buildingName": "Trinity Lutheran Church",
    "roomFloor": "Ground Floor",
    "city": "New York",
    "state": "NY",
    "zipCode": "10009",
    "detailsBox": "",
    "wheelChair": true
  },
  {
    "meetingID": "418",
    "streetAddress": "208 West 13th Street",
    "buildingName": "Gay, Lesbian, Bi-Sexual & Transgender Community Center",
    "roomFloor": "",
    "city": "New York",
    "state": "NY",
    "zipCode": "10011",
    "detailsBox": "Topic Meeting & Anniv. Last Tuesday.",
    "wheelChair": false
  },
  {
    "meetingID": "421",
    "streetAddress": "208 West 13th Street",
    "buildingName": "Lesbian, Gay, Bi-Sexual & Transgender Community Center",
    "roomFloor": "",
    "city": "New York",
    "state": "NY",
    "zipCode": "10011",
    "detailsBox": "Women's Meeting Lesbian Focus.  All are welcome",
    "wheelChair": true
  },
  {
    "meetingID": "427",
    "streetAddress": "19 Union Square West",
    "buildingName": "Realization Center",
    "roomFloor": "7th Floor Ask for room #.",
    "city": "New York",
    "state": "NY",
    "zipCode": "10003",
    "detailsBox": "11th Step Meditation Meeting.",
    "wheelChair": true
  },
  {
    "meetingID": "1535",
    "streetAddress": "173 East 3rd Street",
    "buildingName": "Most Holy Redeemer Church",
    "roomFloor": "",
    "city": "New York",
    "state": "NY",
    "zipCode": "10009",
    "detailsBox": "Rotating Literature",
    "wheelChair": false
  },
  {
    "meetingID": "433",
    "streetAddress": "50 East 7th Street",
    "buildingName": "Middle Collegiate Church ",
    "roomFloor": "",
    "city": "New York",
    "state": "NY",
    "zipCode": "10003",
    "detailsBox": "Basement",
    "wheelChair": false
  },
  {
    "meetingID": "159",
    "streetAddress": "252 West 46th Street",
    "buildingName": "46th Street Club House",
    "roomFloor": "3rd Floor",
    "city": "New York",
    "state": "NY",
    "zipCode": "10036",
    "detailsBox": "",
    "wheelChair": false
  },
  {
    "meetingID": "29",
    "streetAddress": "303 West 42nd Street",
    "buildingName": "",
    "roomFloor": "Room #404",
    "city": "New York",
    "state": "NY",
    "zipCode": "10036",
    "detailsBox": "Sat=A.A. Literature",
    "wheelChair": false
  },
  {
    "meetingID": "1146",
    "streetAddress": "303 West 42nd Street",
    "buildingName": "",
    "roomFloor": "3rd Floor Room #306",
    "city": "New York",
    "state": "NY",
    "zipCode": "10036",
    "detailsBox": "Sun=11th Step, Wed=Gratitude, Thu=Daily Reflections",
    "wheelChair": false
  },
  {
    "meetingID": "39",
    "streetAddress": "305 7th Avenue",
    "buildingName": "S.A.G.E.",
    "roomFloor": "6th Floor",
    "city": "New York",
    "state": "NY",
    "zipCode": "10001",
    "detailsBox": "",
    "wheelChair": true
  },
  {
    "meetingID": "582",
    "streetAddress": "1 West 53rd Street",
    "buildingName": "Saint Thomas Church",
    "roomFloor": "3rd Floor Andrew Hall",
    "city": "New York",
    "state": "NY",
    "zipCode": "10019",
    "detailsBox": "Gay & Lesbian Focus.  All are welcome.",
    "wheelChair": true
  },
  {
    "meetingID": "44",
    "streetAddress": "303 West 42nd Street",
    "buildingName": "",
    "roomFloor": "3rd Floor Room #306",
    "city": "New York",
    "state": "NY",
    "zipCode": "10036",
    "detailsBox": "Sun.2pm=Women's Meeting",
    "wheelChair": false
  },
  {
    "meetingID": "47",
    "streetAddress": "133 West 46th Street",
    "buildingName": "St. Mary the Virgin Church",
    "roomFloor": "3rd Floor",
    "city": "New York",
    "state": "NY",
    "zipCode": "10036",
    "detailsBox": "T Last Thursday All meetings are non-smoking.",
    "wheelChair": false
  },
  {
    "meetingID": "49",
    "streetAddress": "441 West 26th Street",
    "buildingName": "Hudson Guild",
    "roomFloor": "2nd Floor Activity Room A",
    "city": "New York",
    "state": "NY",
    "zipCode": "10001",
    "detailsBox": "",
    "wheelChair": true
  },
  {
    "meetingID": "50",
    "streetAddress": "446 West 33rd Street",
    "buildingName": "GMHC",
    "roomFloor": "6th Floor Room #6046",
    "city": "New York",
    "state": "NY",
    "zipCode": "10001",
    "detailsBox": "Gay & Lesbian focus.  All are welcome.",
    "wheelChair": true
  },
  {
    "meetingID": "1208",
    "streetAddress": "252 West 46th Street",
    "buildingName": "46th Street Clubhouse",
    "roomFloor": "3rd Floor",
    "city": "New York",
    "state": "NY",
    "zipCode": "10036",
    "detailsBox": "All are welcome.",
    "wheelChair": false
  },
  {
    "meetingID": "569",
    "streetAddress": "252 West 46th Street",
    "buildingName": "46th Street Club House",
    "roomFloor": "3rd Floor",
    "city": "New York",
    "state": "NY",
    "zipCode": "10036",
    "detailsBox": "Readings from Living Sober",
    "wheelChair": false
  },
  {
    "meetingID": "571",
    "streetAddress": "252 West 46th Street",
    "buildingName": "46th Street Club House",
    "roomFloor": "3rd Floor",
    "city": "New York",
    "state": "NY",
    "zipCode": "10036",
    "detailsBox": "",
    "wheelChair": false
  },
  {
    "meetingID": "60",
    "streetAddress": "339 West 47th Street",
    "buildingName": "The Actor's Temple",
    "roomFloor": "",
    "city": "New York",
    "state": "NY",
    "zipCode": "10036",
    "detailsBox": "Non-Smoking Meeting.",
    "wheelChair": false
  },
  {
    "meetingID": "1449",
    "streetAddress": "303 West 42nd Street",
    "buildingName": "",
    "roomFloor": "",
    "city": "New York",
    "state": "NY",
    "zipCode": "10036",
    "detailsBox": "",
    "wheelChair": false
  },
  {
    "meetingID": "62",
    "streetAddress": "139 West 31st Street",
    "buildingName": "St. Francis of Assisi Education Center",
    "roomFloor": "3rd Floor",
    "city": "New York",
    "state": "NY",
    "zipCode": "10001",
    "detailsBox": "No Meeting on Legal Holidays All meetings are non-smoking.",
    "wheelChair": false
  },
  {
    "meetingID": "113",
    "streetAddress": "422 West 57th Street",
    "buildingName": "Trinity Presbyterian Church",
    "roomFloor": "Upstairs",
    "city": "New York",
    "state": "NY",
    "zipCode": "10019",
    "detailsBox": "",
    "wheelChair": false
  },
  {
    "meetingID": "131",
    "streetAddress": "211 West 30th Street",
    "buildingName": "St. John's Hall",
    "roomFloor": "",
    "city": "New York",
    "state": "NY",
    "zipCode": "10001",
    "detailsBox": "",
    "wheelChair": false
  },
  {
    "meetingID": "135",
    "streetAddress": "252 West 46th Street",
    "buildingName": "46th Street Club House",
    "roomFloor": "3rd Floor",
    "city": "New York",
    "state": "NY",
    "zipCode": "10036",
    "detailsBox": "Women's Meeting",
    "wheelChair": false
  },
  {
    "meetingID": "1048",
    "streetAddress": "1 West 53rd Street",
    "buildingName": "St. Thomas Church",
    "roomFloor": "3rd Floor",
    "city": "New York",
    "state": "NY",
    "zipCode": "10019",
    "detailsBox": "",
    "wheelChair": true
  },
  {
    "meetingID": "153",
    "streetAddress": "422 West 57th Street",
    "buildingName": "Trinity Presbyterian Church",
    "roomFloor": "",
    "city": "New York",
    "state": "NY",
    "zipCode": "10019",
    "detailsBox": "Tue.12:30 = T 1st Tuesday Beginners upstairs; other meetings in the chapel",
    "wheelChair": false
  },
  {
    "meetingID": "156",
    "streetAddress": "7 West 55th Street",
    "buildingName": "Fifth Av Presbyterian Church",
    "roomFloor": "5th Floor",
    "city": "New York",
    "state": "NY",
    "zipCode": "10019",
    "detailsBox": "Monday thru Thursday Beginners Meeting 5th floor Monday thru Thursday Open Discussion 3rd floor Wednesday Step Meeting",
    "wheelChair": true
  },
  {
    "meetingID": "157",
    "streetAddress": "252 West 46th Street",
    "buildingName": "46th Street Club House",
    "roomFloor": "",
    "city": "New York",
    "state": "NY",
    "zipCode": "10036",
    "detailsBox": "",
    "wheelChair": false
  },
  {
    "meetingID": "169",
    "streetAddress": "729 7th Avenue",
    "buildingName": "The Actors Fund of America",
    "roomFloor": "10th Floor small conference room",
    "city": "New York",
    "state": "NY",
    "zipCode": "10019",
    "detailsBox": "Focus is on those in the entertainment industry.  All are welcome. As Bill Sees It",
    "wheelChair": true
  },
  {
    "meetingID": "171",
    "streetAddress": "538 West 47th Street",
    "buildingName": "Apartment Building",
    "roomFloor": "",
    "city": "New York",
    "state": "NY",
    "zipCode": "10036",
    "detailsBox": "All meetings are Open Discussion format.",
    "wheelChair": false
  },
  {
    "meetingID": "220",
    "streetAddress": "1000 Tenth Avenue",
    "buildingName": "Mount Sinai - Roosevelt Hospital",
    "roomFloor": "8th Floor Room #8G49",
    "city": "New York",
    "state": "NY",
    "zipCode": "10019",
    "detailsBox": "Anniv. 1st Monday, T 2nd & S Last Thursday, NOTE: On legal holidays, the meeting meets on the 1st Floor (Ask for the room at the reception desk)",
    "wheelChair": true
  },
  {
    "meetingID": "221",
    "streetAddress": "303 West 42nd Street",
    "buildingName": "",
    "roomFloor": "3rd Floor Room #306",
    "city": "New York",
    "state": "NY",
    "zipCode": "10036",
    "detailsBox": "",
    "wheelChair": false
  },
  {
    "meetingID": "572",
    "streetAddress": "252 West 46th Street",
    "buildingName": "46th Street Club House",
    "roomFloor": "3rd Floor",
    "city": "New York",
    "state": "NY",
    "zipCode": "10036",
    "detailsBox": "Big Book Workshop",
    "wheelChair": false
  },
  {
    "meetingID": "231",
    "streetAddress": "307 West 26th Street",
    "buildingName": "Upright Citizens Brigade Theatre",
    "roomFloor": "",
    "city": "New York",
    "state": "NY",
    "zipCode": "10001",
    "detailsBox": "All meetings are non-smoking.",
    "wheelChair": false
  },
  {
    "meetingID": "1450",
    "streetAddress": "405 West 59th Street",
    "buildingName": "St. Paul's Episcopal Parish House",
    "roomFloor": "",
    "city": "New York",
    "state": "NY",
    "zipCode": "10019",
    "detailsBox": "Room LL2",
    "wheelChair": true
  },
  {
    "meetingID": "253",
    "streetAddress": "303 West 42nd Street",
    "buildingName": "",
    "roomFloor": "",
    "city": "New York",
    "state": "NY",
    "zipCode": "10036",
    "detailsBox": "T Last Sunday, Mon=Came To Believe, Last Sat. Open Anniversary Last Sat. meets at 252 West 46th Street",
    "wheelChair": false
  },
  {
    "meetingID": "254",
    "streetAddress": "422 West 57th Street",
    "buildingName": "Trinity Presbyterian Church ",
    "roomFloor": "",
    "city": "New York",
    "state": "NY",
    "zipCode": "10019",
    "detailsBox": "Open on Holidays.",
    "wheelChair": true
  },
  {
    "meetingID": "1200",
    "streetAddress": "133 West 46th Street",
    "buildingName": "St. Mary the Virgin Church",
    "roomFloor": "3rd Floor",
    "city": "New York",
    "state": "NY",
    "zipCode": "10036",
    "detailsBox": "",
    "wheelChair": false
  },
  {
    "meetingID": "273",
    "streetAddress": "133 West 46th Street",
    "buildingName": "St. Mary the Virgin Church",
    "roomFloor": "2nd & 3rd Floor",
    "city": "New York",
    "state": "NY",
    "zipCode": "10036",
    "detailsBox": "Tue.Step=#'s 4-7, Wed.5:30=Grapevine Topic, Thu.12:30 Step=#'s 4-7 Thu.5:30=T last Thu.,Fri.BB=T last Fri. Fri.Step=#'s 8-12",
    "wheelChair": false
  },
  {
    "meetingID": "561",
    "streetAddress": "303 West 42nd Street",
    "buildingName": "",
    "roomFloor": "Room #306",
    "city": "New York",
    "state": "NY",
    "zipCode": "10036",
    "detailsBox": "",
    "wheelChair": false
  },
  {
    "meetingID": "285",
    "streetAddress": "296 9th Avenue",
    "buildingName": "Holy Apostles Church Rectory",
    "roomFloor": "2nd Floor",
    "city": "New York",
    "state": "NY",
    "zipCode": "10001",
    "detailsBox": "Business meeting held on 1st Monday at 7:45pm LGBTQ Friendly.  All are welcome.",
    "wheelChair": false
  },
  {
    "meetingID": "287",
    "streetAddress": "139 West 31st Street",
    "buildingName": "St. Francis of Assisi Center",
    "roomFloor": "3rd Floor",
    "city": "New York",
    "state": "NY",
    "zipCode": "10001",
    "detailsBox": "All meetings are non-smoking.",
    "wheelChair": false
  },
  {
    "meetingID": "1400",
    "streetAddress": "1 West 53rd Street",
    "buildingName": "St. Thomas Church",
    "roomFloor": "3rd Floor",
    "city": "New York",
    "state": "NY",
    "zipCode": "10019",
    "detailsBox": "",
    "wheelChair": true
  },
  {
    "meetingID": "302",
    "streetAddress": "484 West 43rd Street",
    "buildingName": "Manhattan Plaza Health Club",
    "roomFloor": "1st Floor",
    "city": "New York",
    "state": "NY",
    "zipCode": "10036",
    "detailsBox": "Fri=Living Sober, Sat=Promises",
    "wheelChair": true
  },
  {
    "meetingID": "304",
    "streetAddress": "7 West 55th Street",
    "buildingName": "Fifth Av Presbyterian Church",
    "roomFloor": "",
    "city": "New York",
    "state": "NY",
    "zipCode": "10019",
    "detailsBox": "",
    "wheelChair": true
  },
  {
    "meetingID": "568",
    "streetAddress": "252 West 46th Street",
    "buildingName": "46th Street Club House",
    "roomFloor": "3rd Floor",
    "city": "New York",
    "state": "NY",
    "zipCode": "10036",
    "detailsBox": "",
    "wheelChair": false
  },
  {
    "meetingID": "307",
    "streetAddress": "252 West 46th Street",
    "buildingName": "46th Street Club House",
    "roomFloor": "3rd Floor",
    "city": "New York",
    "state": "NY",
    "zipCode": "10036",
    "detailsBox": "Gay, Lesbian, Bisexual & Transgender Focus.  All are welcome. *Last Saturday of month=\"Open Anniversary\"",
    "wheelChair": false
  },
  {
    "meetingID": "312",
    "streetAddress": "4 West 43rd Street",
    "buildingName": "The Learning Center",
    "roomFloor": "",
    "city": "New York",
    "state": "NY",
    "zipCode": "10017",
    "detailsBox": "",
    "wheelChair": true
  },
  {
    "meetingID": "573",
    "streetAddress": "252 West 46th Street",
    "buildingName": "46th Street Club House",
    "roomFloor": "3rd Floor",
    "city": "New York",
    "state": "NY",
    "zipCode": "10036",
    "detailsBox": "Rotating Step meeting.",
    "wheelChair": false
  },
  {
    "meetingID": "1356",
    "streetAddress": "296 Ninth Avenue",
    "buildingName": "Church of The Holy Apostles",
    "roomFloor": "Rectory 1st Floor",
    "city": "New York",
    "state": "NY",
    "zipCode": "10001",
    "detailsBox": "Topic meeting, focus is on Spirituality",
    "wheelChair": false
  },
  {
    "meetingID": "364",
    "streetAddress": "1 West 53rd Street",
    "buildingName": "St. Thomas Church Parish House",
    "roomFloor": "3rd Floor",
    "city": "New York",
    "state": "NY",
    "zipCode": "10019",
    "detailsBox": "Round Robin Meeting.",
    "wheelChair": false
  },
  {
    "meetingID": "365",
    "streetAddress": "210 West 31st Street",
    "buildingName": "St. John the Baptist Church",
    "roomFloor": "Basement (On Left)",
    "city": "New York",
    "state": "NY",
    "zipCode": "10001",
    "detailsBox": "T Last Thursday; S other Thursdays All meetings are non-smoking.",
    "wheelChair": false
  },
  {
    "meetingID": "142",
    "streetAddress": "422 West 57th Street",
    "buildingName": "Trinity Presbyterian Church",
    "roomFloor": "",
    "city": "New York",
    "state": "NY",
    "zipCode": "10019",
    "detailsBox": "T-1st Wednesday",
    "wheelChair": false
  },
  {
    "meetingID": "574",
    "streetAddress": "252 West 46th Street",
    "buildingName": "46th Street Club House",
    "roomFloor": "3rd Floor",
    "city": "New York",
    "state": "NY",
    "zipCode": "10036",
    "detailsBox": "",
    "wheelChair": false
  },
  {
    "meetingID": "1481",
    "streetAddress": "134 West 29th Street",
    "buildingName": "",
    "roomFloor": "2nd Floor Studio 203",
    "city": "New York",
    "state": "NY",
    "zipCode": "10001",
    "detailsBox": "Agnostic- no prayer",
    "wheelChair": true
  },
  {
    "meetingID": "408",
    "streetAddress": "1000 Tenth Avenue",
    "buildingName": "Mount Sinai - Roosevelt Hospital",
    "roomFloor": "8th Fl Room #8G-49",
    "city": "New York",
    "state": "NY",
    "zipCode": "10019",
    "detailsBox": "",
    "wheelChair": true
  },
  {
    "meetingID": "419",
    "streetAddress": "446 West 33rd Street",
    "buildingName": "GMHC",
    "roomFloor": "",
    "city": "New York",
    "state": "NY",
    "zipCode": "10001",
    "detailsBox": "S 1st, C 2nd, BB 3rd, O Anniversary Meeting 4th Friday Women's Meeting.",
    "wheelChair": true
  },
  {
    "meetingID": "436",
    "streetAddress": "423 West 46th Street",
    "buildingName": "St. Clements Church",
    "roomFloor": "",
    "city": "New York",
    "state": "NY",
    "zipCode": "10036",
    "detailsBox": "",
    "wheelChair": true
  },
  {
    "meetingID": "1438",
    "streetAddress": "252 West 46th Street",
    "buildingName": "46th Street Club House",
    "roomFloor": "3rd Floor",
    "city": "New York",
    "state": "NY",
    "zipCode": "10036",
    "detailsBox": "Young People BB Meeting",
    "wheelChair": false
  },
  {
    "meetingID": "37",
    "streetAddress": "122 East 37th Street",
    "buildingName": "",
    "roomFloor": "Basement",
    "city": "New York",
    "state": "NY",
    "zipCode": "10016",
    "detailsBox": "FRONT BASEMENT ONLY",
    "wheelChair": false
  },
  {
    "meetingID": "63",
    "streetAddress": "30 East 35th Street",
    "buildingName": "",
    "roomFloor": "",
    "city": "New York",
    "state": "NY",
    "zipCode": "10016",
    "detailsBox": "All meetings are Round Robin format except Thursday. Tue=Alternating Step/Trad.",
    "wheelChair": false
  },
  {
    "meetingID": "70",
    "streetAddress": "350 East 56th Street",
    "buildingName": "Cathedral High School",
    "roomFloor": "",
    "city": "New York",
    "state": "NY",
    "zipCode": "10022",
    "detailsBox": "3rd Floor library",
    "wheelChair": false
  },
  {
    "meetingID": "98",
    "streetAddress": "619 Lexington Avenue",
    "buildingName": "St. Peter's Lutheran Church @ Citicorp Center",
    "roomFloor": "Lower Level Music Rooms",
    "city": "New York",
    "state": "NY",
    "zipCode": "10022",
    "detailsBox": "T -7:30am last Mon., Anniv -12:30 Last Thursday",
    "wheelChair": false
  },
  {
    "meetingID": "134",
    "streetAddress": "122 East 37th Street",
    "buildingName": "",
    "roomFloor": "Basement",
    "city": "New York",
    "state": "NY",
    "zipCode": "10016",
    "detailsBox": "Wed.6:15 BB=OD Big Book Study Fri.7:30pm=Anniv. Meeting every Fri.",
    "wheelChair": false
  },
  {
    "meetingID": "145",
    "streetAddress": "28 East 35th Street",
    "buildingName": "J.H. Holmes Community House",
    "roomFloor": "",
    "city": "New York",
    "state": "NY",
    "zipCode": "10016",
    "detailsBox": "T Last Wednesday",
    "wheelChair": false
  },
  {
    "meetingID": "165",
    "streetAddress": "350 East 56th Street",
    "buildingName": "Cathedral High School ",
    "roomFloor": "",
    "city": "New York",
    "state": "NY",
    "zipCode": "10022",
    "detailsBox": "Beginners Meeting 2nd & 4th Sunday Step Meeting 1st &3rd Sunday",
    "wheelChair": false
  },
  {
    "meetingID": "168",
    "streetAddress": "283 Lexington Avenue",
    "buildingName": "Soldiers, Sailors, Marines & Airmen's Club",
    "roomFloor": "2nd Floor",
    "city": "New York",
    "state": "NY",
    "zipCode": "10016",
    "detailsBox": "T=Last Tuesday, Fri=Anniv. 2nd to Last Friday. All meetings are non-smoking.",
    "wheelChair": false
  },
  {
    "meetingID": "441",
    "streetAddress": "122 East 37th Street",
    "buildingName": "",
    "roomFloor": "Basement",
    "city": "New York",
    "state": "NY",
    "zipCode": "10016",
    "detailsBox": "Portugese speaking meeting.",
    "wheelChair": false
  },
  {
    "meetingID": "235",
    "streetAddress": "619 Lexington Avenue",
    "buildingName": "St. Peter's Lutheran Church @ CitiCorp Center",
    "roomFloor": "Lower Level 2 in The Studio",
    "city": "New York",
    "state": "NY",
    "zipCode": "10022",
    "detailsBox": "All meetings are non-smoking.",
    "wheelChair": true
  },
  {
    "meetingID": "240",
    "streetAddress": "141 East 43rd Street",
    "buildingName": "Saint Agnes Church",
    "roomFloor": "Basement Hall elevator is available.",
    "city": "New York",
    "state": "NY",
    "zipCode": "10017",
    "detailsBox": "Enter main Church entrance, turn left, meeting is downstairs. T 3rd Wed. Open Anniv. or Open Disc. Meeting last Fri.",
    "wheelChair": true
  },
  {
    "meetingID": "1441",
    "streetAddress": "122 East 37th Street",
    "buildingName": "MUSTARD SEED",
    "roomFloor": "",
    "city": "New York",
    "state": "NY",
    "zipCode": "10016",
    "detailsBox": "",
    "wheelChair": false
  },
  {
    "meetingID": "247",
    "streetAddress": "122 East 37th Street",
    "buildingName": "Mustard Seed",
    "roomFloor": "",
    "city": "New York",
    "state": "NY",
    "zipCode": "10016",
    "detailsBox": "11th S Meditation ENT BASEMENT ONLY",
    "wheelChair": false
  },
  {
    "meetingID": "258",
    "streetAddress": "141 East 43rd Street",
    "buildingName": "St. Agnes Church",
    "roomFloor": "",
    "city": "New York",
    "state": "NY",
    "zipCode": "10017",
    "detailsBox": "",
    "wheelChair": false
  },
  {
    "meetingID": "264",
    "streetAddress": "209 Madison Avenue",
    "buildingName": "Church of the Incarnation",
    "roomFloor": "2nd Floor",
    "city": "New York",
    "state": "NY",
    "zipCode": "10016",
    "detailsBox": "No Meetings on Legal Holidays.",
    "wheelChair": false
  },
  {
    "meetingID": "265",
    "streetAddress": "122 East 37th Street",
    "buildingName": "",
    "roomFloor": "Basement",
    "city": "New York",
    "state": "NY",
    "zipCode": "10016",
    "detailsBox": "Sun.7:30am,Tue.6:15pm B & Wed.6:15pm C =Meditation Wkshp., Sun.9:30am Step=Back to Basics, Fri.7:30pm=Anniv.every Fri. Thurs. 8am back room, Gratitude",
    "wheelChair": false
  },
  {
    "meetingID": "1141",
    "streetAddress": "619 Lexington Avenue",
    "buildingName": "St. Peter's Lutheran Church @ CitiCorp Center",
    "roomFloor": "Lower Level",
    "city": "New York",
    "state": "NY",
    "zipCode": "10022",
    "detailsBox": "Living Sober",
    "wheelChair": true
  },
  {
    "meetingID": "323",
    "streetAddress": "240 East 31st Street",
    "buildingName": "Church of the Good Shepherd",
    "roomFloor": "",
    "city": "New York",
    "state": "NY",
    "zipCode": "10016",
    "detailsBox": "Focus is on members under 60 days.  All are welcome. Anniversaries last week of month",
    "wheelChair": true
  },
  {
    "meetingID": "341",
    "streetAddress": "114 East 35th Street",
    "buildingName": "The New York New Church",
    "roomFloor": "2nd Floor",
    "city": "New York",
    "state": "NY",
    "zipCode": "10016",
    "detailsBox": "",
    "wheelChair": true
  },
  {
    "meetingID": "346",
    "streetAddress": "230 East 60th Street",
    "buildingName": "ALL SAINTS CHURCH",
    "roomFloor": "",
    "city": "New York",
    "state": "NY",
    "zipCode": "10022",
    "detailsBox": "Fri.6:30=Steps 3 & 11",
    "wheelChair": false
  },
  {
    "meetingID": "1581",
    "streetAddress": "244 East 58th Street",
    "buildingName": "Caron Foundation",
    "roomFloor": "",
    "city": "New York",
    "state": "NY",
    "zipCode": "10022",
    "detailsBox": "",
    "wheelChair": true
  },
  {
    "meetingID": "350",
    "streetAddress": "619 Lexington Avenue",
    "buildingName": "St. Peter's Lutheran Church @ CitiCorp Center",
    "roomFloor": "Lower Level",
    "city": "New York",
    "state": "NY",
    "zipCode": "10022",
    "detailsBox": "Women's Meeting.",
    "wheelChair": true
  },
  {
    "meetingID": "362",
    "streetAddress": "325 Park Avenue",
    "buildingName": "St. Bartholomew's Church",
    "roomFloor": "",
    "city": "New York",
    "state": "NY",
    "zipCode": "10022",
    "detailsBox": "Anniv. Last Mon., T-Last Wed., Topic-Last Fri. All meetings are OPEN to Public NOTE: Monday & Wednesday in Choir Room. Friday in Vestry Room. Also check the Board at Church entrance.",
    "wheelChair": false
  },
  {
    "meetingID": "1516",
    "streetAddress": "236 East 31st Street",
    "buildingName": "CHURCH OF THE GOOD SHEPARD",
    "roomFloor": "basement",
    "city": "New York",
    "state": "NY",
    "zipCode": "10016",
    "detailsBox": "",
    "wheelChair": false
  },
  {
    "meetingID": "379",
    "streetAddress": "308 East 55th Street",
    "buildingName": "Conservative Synagogue",
    "roomFloor": "",
    "city": "New York",
    "state": "NY",
    "zipCode": "10022",
    "detailsBox": "",
    "wheelChair": false
  },
  {
    "meetingID": "386",
    "streetAddress": "244 East 58th Street",
    "buildingName": "The Caron Foundation",
    "roomFloor": "",
    "city": "New York",
    "state": "NY",
    "zipCode": "10022",
    "detailsBox": "",
    "wheelChair": true
  },
  {
    "meetingID": "389",
    "streetAddress": "244 East 58th Street",
    "buildingName": "Caron Foundation",
    "roomFloor": "Lower Level",
    "city": "New York",
    "state": "NY",
    "zipCode": "10022",
    "detailsBox": "",
    "wheelChair": true
  },
  {
    "meetingID": "424",
    "streetAddress": "109 East 50th Street",
    "buildingName": "",
    "roomFloor": "",
    "city": "New York",
    "state": "NY",
    "zipCode": "10022",
    "detailsBox": "11th Step, Anniv. 3rd Wednesday No Smoking",
    "wheelChair": true
  },
  {
    "meetingID": "34",
    "streetAddress": "207 West 96th Street",
    "buildingName": "Holy Name Church",
    "roomFloor": "Basement",
    "city": "New York",
    "state": "NY",
    "zipCode": "10025",
    "detailsBox": "Mon=As Bill Sees It, Wed=Living Sober",
    "wheelChair": false
  },
  {
    "meetingID": "35",
    "streetAddress": "120 West 69th Street",
    "buildingName": "Christ & St. Stephen's Church",
    "roomFloor": "Basement",
    "city": "New York",
    "state": "NY",
    "zipCode": "10023",
    "detailsBox": "",
    "wheelChair": false
  },
  {
    "meetingID": "41",
    "streetAddress": "422 West 57th Street",
    "buildingName": "Trinity Presbyterian Church",
    "roomFloor": "",
    "city": "New York",
    "state": "NY",
    "zipCode": "10023",
    "detailsBox": "Tues= AA Literature/Topic meeting The group's focus is on long-term sobriety; but all A.A. members are welcome.",
    "wheelChair": false
  },
  {
    "meetingID": "1562",
    "streetAddress": "164 West 74th Street",
    "buildingName": "Phoenix House",
    "roomFloor": "1st Floor",
    "city": "New York",
    "state": "NY",
    "zipCode": "10023",
    "detailsBox": "",
    "wheelChair": true
  },
  {
    "meetingID": "46",
    "streetAddress": "207 West 96th Street",
    "buildingName": "Holy Name Church",
    "roomFloor": "Little Room Basement",
    "city": "New York",
    "state": "NY",
    "zipCode": "10025",
    "detailsBox": "",
    "wheelChair": false
  },
  {
    "meetingID": "48",
    "streetAddress": "144 West 90th Street",
    "buildingName": "St. Gregory's Church",
    "roomFloor": "Basement",
    "city": "New York",
    "state": "NY",
    "zipCode": "10024",
    "detailsBox": "T - Last Friday, Anniversary-Last Saturday.",
    "wheelChair": false
  },
  {
    "meetingID": "51",
    "streetAddress": "141 West 73rd Street",
    "buildingName": "Hamilton House",
    "roomFloor": "",
    "city": "New York",
    "state": "NY",
    "zipCode": "10023",
    "detailsBox": "Anniv. Meeting last Monday.",
    "wheelChair": true
  },
  {
    "meetingID": "57",
    "streetAddress": "4 West 76th Street",
    "buildingName": "Fourth Universalist Church",
    "roomFloor": "",
    "city": "New York",
    "state": "NY",
    "zipCode": "10023",
    "detailsBox": "Alternating Step and Tradition meeting.",
    "wheelChair": false
  },
  {
    "meetingID": "61",
    "streetAddress": "221 West 107th Street",
    "buildingName": "Church of the Ascension",
    "roomFloor": "Basement",
    "city": "New York",
    "state": "NY",
    "zipCode": "10025",
    "detailsBox": "All Meetings Are Non-Smoking. Anniversary meeting last Tues at 6:15",
    "wheelChair": false
  },
  {
    "meetingID": "66",
    "streetAddress": "207 West 96th Street",
    "buildingName": "Holy Name Church",
    "roomFloor": "Basement Little Room",
    "city": "New York",
    "state": "NY",
    "zipCode": "10025",
    "detailsBox": "",
    "wheelChair": false
  },
  {
    "meetingID": "67",
    "streetAddress": "215 West 82nd Street",
    "buildingName": "Holy Trinity Rectory",
    "roomFloor": "",
    "city": "New York",
    "state": "NY",
    "zipCode": "10024",
    "detailsBox": "Men's Meeting",
    "wheelChair": true
  },
  {
    "meetingID": "69",
    "streetAddress": "601 West 114th Street",
    "buildingName": "Broadway Presbyterian Church",
    "roomFloor": "2nd Red Door",
    "city": "New York",
    "state": "NY",
    "zipCode": "10025",
    "detailsBox": "",
    "wheelChair": false
  },
  {
    "meetingID": "73",
    "streetAddress": "Central Park West and 76th Street",
    "buildingName": "Universalist Church",
    "roomFloor": "basement gymnasium",
    "city": "New York",
    "state": "NY",
    "zipCode": "10023",
    "detailsBox": "T Last Thursday",
    "wheelChair": false
  },
  {
    "meetingID": "1423",
    "streetAddress": "5 West 63rd Street",
    "buildingName": "West Side YMCA at 63rd Street",
    "roomFloor": "Downstairs in large meeting Room",
    "city": "New York",
    "state": "NY",
    "zipCode": "10023",
    "detailsBox": "10:15pm = Topic Meeting",
    "wheelChair": true
  },
  {
    "meetingID": "79",
    "streetAddress": "4 West 76th Street",
    "buildingName": "Universalist Church",
    "roomFloor": "In the Gym",
    "city": "New York",
    "state": "NY",
    "zipCode": "10023",
    "detailsBox": "S 1st & T Last Friday",
    "wheelChair": false
  },
  {
    "meetingID": "110",
    "streetAddress": "160 Central Park West",
    "buildingName": "Fourth Universalist Society",
    "roomFloor": "Gym Basement",
    "city": "New York",
    "state": "NY",
    "zipCode": "10023",
    "detailsBox": "",
    "wheelChair": false
  },
  {
    "meetingID": "108",
    "streetAddress": "152 West 66th Street",
    "buildingName": "Good Shepherd Faith Church",
    "roomFloor": "Basement Level Chapel",
    "city": "New York",
    "state": "NY",
    "zipCode": "10023",
    "detailsBox": "Enter basement level @ red door on left side of the building.",
    "wheelChair": false
  },
  {
    "meetingID": "129",
    "streetAddress": "3 West 95th Street",
    "buildingName": "Second Presbyterian Church",
    "roomFloor": "Lower Level Auditorium",
    "city": "New York",
    "state": "NY",
    "zipCode": "10025",
    "detailsBox": "Children are welcome at all meetings. All meetings are non-smoking.",
    "wheelChair": false
  },
  {
    "meetingID": "1552",
    "streetAddress": "251 West 80th Street",
    "buildingName": "All Angels Church",
    "roomFloor": "",
    "city": "New York",
    "state": "NY",
    "zipCode": "10024",
    "detailsBox": "",
    "wheelChair": true
  },
  {
    "meetingID": "148",
    "streetAddress": "111 West 71st Street",
    "buildingName": "Hargrave House",
    "roomFloor": "",
    "city": "New York",
    "state": "NY",
    "zipCode": "10023",
    "detailsBox": "",
    "wheelChair": false
  },
  {
    "meetingID": "149",
    "streetAddress": "5 West 63rd Street",
    "buildingName": "West Side YMCA",
    "roomFloor": "1st Floor",
    "city": "New York",
    "state": "NY",
    "zipCode": "10023",
    "detailsBox": "",
    "wheelChair": true
  },
  {
    "meetingID": "154",
    "streetAddress": "5 West 63rd Street",
    "buildingName": "West Side YMCA",
    "roomFloor": "",
    "city": "New York",
    "state": "NY",
    "zipCode": "10023",
    "detailsBox": "T 1st Saturday @ 12:30pm",
    "wheelChair": false
  },
  {
    "meetingID": "155",
    "streetAddress": "207 West 96th Street",
    "buildingName": "Holy Name Church",
    "roomFloor": "Basement Little Room",
    "city": "New York",
    "state": "NY",
    "zipCode": "10025",
    "detailsBox": "Last Sat. of month at 10:15 = anniversary meeting",
    "wheelChair": false
  },
  {
    "meetingID": "1202",
    "streetAddress": "26 West 84th Street",
    "buildingName": "Church of St. Matthew and St. Timothy",
    "roomFloor": "",
    "city": "New York",
    "state": "NY",
    "zipCode": "10024",
    "detailsBox": "MEETING NOW TAKES PLACE YEAR ROUND! Up concrete steps, take stairs on left, 2nd Floor (Sandford Hall)",
    "wheelChair": false
  },
  {
    "meetingID": "172",
    "streetAddress": "200 West 97th Street",
    "buildingName": "Holy Name School",
    "roomFloor": "Basement",
    "city": "New York",
    "state": "NY",
    "zipCode": "10025",
    "detailsBox": "Spanish speaking meetings.",
    "wheelChair": false
  },
  {
    "meetingID": "176",
    "streetAddress": "218 West 108th Street",
    "buildingName": "Grace House",
    "roomFloor": "Main Floor",
    "city": "New York",
    "state": "NY",
    "zipCode": "10025",
    "detailsBox": "B Last Friday Bilingual (English-Spanish) Meetings.",
    "wheelChair": true
  },
  {
    "meetingID": "1136",
    "streetAddress": "125 West 104th Street",
    "buildingName": "Iglesia Metodista Grace",
    "roomFloor": "1st Floor",
    "city": "New York",
    "state": "NY",
    "zipCode": "10025",
    "detailsBox": "Spanish speaking meeting.",
    "wheelChair": true
  },
  {
    "meetingID": "218",
    "streetAddress": "141 West 73rd Street",
    "buildingName": "Hamilton House",
    "roomFloor": "",
    "city": "New York",
    "state": "NY",
    "zipCode": "10023",
    "detailsBox": "",
    "wheelChair": true
  },
  {
    "meetingID": "230",
    "streetAddress": "236 West 73rd Street",
    "buildingName": "Rutgers Church",
    "roomFloor": "5th Floor",
    "city": "New York",
    "state": "NY",
    "zipCode": "10023",
    "detailsBox": "Wed.6pm=Interpreted for the deaf and hard of hearing. Gay Men & Women Focus.  All are welcome.",
    "wheelChair": true
  },
  {
    "meetingID": "244",
    "streetAddress": "165 West 105th Street",
    "buildingName": "West End Presbyterian Church",
    "roomFloor": "Basement",
    "city": "New York",
    "state": "NY",
    "zipCode": "10025",
    "detailsBox": "",
    "wheelChair": false
  },
  {
    "meetingID": "1436",
    "streetAddress": "207 West 96th Street",
    "buildingName": "Holy Name Church",
    "roomFloor": "",
    "city": "New York",
    "state": "NY",
    "zipCode": "10025",
    "detailsBox": "",
    "wheelChair": false
  },
  {
    "meetingID": "249",
    "streetAddress": "207 West 96th Street",
    "buildingName": "Holy Name Church Rectory",
    "roomFloor": "Basement Little Room",
    "city": "New York",
    "state": "NY",
    "zipCode": "10025",
    "detailsBox": "Mon=11th Step Meditation, Fri= Alt.Step & Tradition Meeting",
    "wheelChair": false
  },
  {
    "meetingID": "263",
    "streetAddress": "2504 Broadway",
    "buildingName": "Advent Lutheran Church",
    "roomFloor": "Basement",
    "city": "New York",
    "state": "NY",
    "zipCode": "10025",
    "detailsBox": "All meetings are non-smoking.",
    "wheelChair": true
  },
  {
    "meetingID": "1468",
    "streetAddress": "405 West 114th Street",
    "buildingName": "Church of Notre Dame",
    "roomFloor": "Merton Room",
    "city": "New York",
    "state": "NY",
    "zipCode": "10025",
    "detailsBox": "",
    "wheelChair": true
  },
  {
    "meetingID": "270",
    "streetAddress": "368 West End Ave",
    "buildingName": "West End Collegiate Church",
    "roomFloor": "1st Floor",
    "city": "New York",
    "state": "NY",
    "zipCode": "10024",
    "detailsBox": "All meetings are non-smoking.",
    "wheelChair": false
  },
  {
    "meetingID": "281",
    "streetAddress": "225 West 99th Street",
    "buildingName": "St. Michael's Parish House",
    "roomFloor": "1st Floor",
    "city": "New York",
    "state": "NY",
    "zipCode": "10025",
    "detailsBox": "T 1st Monday Non-Smoking Meeting.",
    "wheelChair": false
  },
  {
    "meetingID": "282",
    "streetAddress": "251 West 100th Street",
    "buildingName": "Anshe Chesed Synagogue",
    "roomFloor": "",
    "city": "New York",
    "state": "NY",
    "zipCode": "10025",
    "detailsBox": "Non-Smoking Meeting.",
    "wheelChair": true
  },
  {
    "meetingID": "283",
    "streetAddress": "207 West 96th Street",
    "buildingName": "Holy Name Church",
    "roomFloor": "Basement Little Room",
    "city": "New York",
    "state": "NY",
    "zipCode": "10025",
    "detailsBox": "Anniv. Last Thursday, Fri=Promises, Sat=As Bill Sees It",
    "wheelChair": false
  },
  {
    "meetingID": "291",
    "streetAddress": "26 West 84th Street",
    "buildingName": "Church of St. Matthew & St. Timothy",
    "roomFloor": "",
    "city": "New York",
    "state": "NY",
    "zipCode": "10024",
    "detailsBox": "Interpreted for the Deaf and Hard of Hearing No meetings on holidays On Ground Floor Mon. & Wed.; Basement on Thurs.",
    "wheelChair": true
  },
  {
    "meetingID": "305",
    "streetAddress": "5 West 63rd Street",
    "buildingName": "West Side YMCA",
    "roomFloor": "Basement Room D",
    "city": "New York",
    "state": "NY",
    "zipCode": "10023",
    "detailsBox": "",
    "wheelChair": false
  },
  {
    "meetingID": "313",
    "streetAddress": "552 West End Avenue",
    "buildingName": "St. Ignatius Church",
    "roomFloor": "Basement",
    "city": "New York",
    "state": "NY",
    "zipCode": "10024",
    "detailsBox": "Anniv.  Last Sunday",
    "wheelChair": false
  },
  {
    "meetingID": "1511",
    "streetAddress": "164 West 74 Street",
    "buildingName": "Phoenix House",
    "roomFloor": "1st Floor (ask at Front Desk)",
    "city": "New York",
    "state": "NY",
    "zipCode": "10024",
    "detailsBox": "",
    "wheelChair": false
  },
  {
    "meetingID": "319",
    "streetAddress": "340 West 85th Street",
    "buildingName": "Volunteers of America",
    "roomFloor": "Basement",
    "city": "New York",
    "state": "NY",
    "zipCode": "10024",
    "detailsBox": "Living Sober",
    "wheelChair": false
  },
  {
    "meetingID": "351",
    "streetAddress": "368 West End Avenue",
    "buildingName": "West End Collegiate Church",
    "roomFloor": "1st Floor",
    "city": "New York",
    "state": "NY",
    "zipCode": "10024",
    "detailsBox": "All Meetings Are Non-Smoking.",
    "wheelChair": false
  },
  {
    "meetingID": "355",
    "streetAddress": "152 West 71st Street",
    "buildingName": "Blessed Sacrament Church Rectory",
    "roomFloor": "",
    "city": "New York",
    "state": "NY",
    "zipCode": "10023",
    "detailsBox": "Alternates Betw.the Steps & Promises.",
    "wheelChair": false
  },
  {
    "meetingID": "372",
    "streetAddress": "5 West 63rd Street",
    "buildingName": "West Side YMCA",
    "roomFloor": "",
    "city": "New York",
    "state": "NY",
    "zipCode": "10023",
    "detailsBox": "Men's Meeting",
    "wheelChair": false
  },
  {
    "meetingID": "375",
    "streetAddress": "131 West 72nd Street",
    "buildingName": "",
    "roomFloor": "3rd Floor Room #2F",
    "city": "New York",
    "state": "NY",
    "zipCode": "10023",
    "detailsBox": "Round Robin Topic Meeting.",
    "wheelChair": false
  },
  {
    "meetingID": "391",
    "streetAddress": "207 West 96th Street",
    "buildingName": "Holy Name Church",
    "roomFloor": "Basement Little Room",
    "city": "New York",
    "state": "NY",
    "zipCode": "10025",
    "detailsBox": "T Last Friday",
    "wheelChair": false
  },
  {
    "meetingID": "401",
    "streetAddress": "152 West 71st Street",
    "buildingName": "Blessed Sacrament Church Rectory",
    "roomFloor": "Ring Bell",
    "city": "New York",
    "state": "NY",
    "zipCode": "10023",
    "detailsBox": "10am=As Bill Sees It, 11:15am=Topic Meeting",
    "wheelChair": false
  },
  {
    "meetingID": "402",
    "streetAddress": "30 West 68th Street",
    "buildingName": "Stephen Wise Free Synagogue",
    "roomFloor": "Check security desk for Room #",
    "city": "New York",
    "state": "NY",
    "zipCode": "10023",
    "detailsBox": "S Last Thursday,  No Prayers.",
    "wheelChair": true
  },
  {
    "meetingID": "1204",
    "streetAddress": "207 West 96th Street",
    "buildingName": "Holy Name Church",
    "roomFloor": "Basement Little Room",
    "city": "New York",
    "state": "NY",
    "zipCode": "10025",
    "detailsBox": "Issues of medication in recovery are discussed.  All are welcome.",
    "wheelChair": false
  },
  {
    "meetingID": "409",
    "streetAddress": "263 West 86th Street",
    "buildingName": "Church of St. Paul & St. Andrew",
    "roomFloor": "1st Floor",
    "city": "New York",
    "state": "NY",
    "zipCode": "10024",
    "detailsBox": "",
    "wheelChair": true
  },
  {
    "meetingID": "411",
    "streetAddress": "306 West 102nd Street",
    "buildingName": "Addiction Institute",
    "roomFloor": "2nd Floor",
    "city": "New York",
    "state": "NY",
    "zipCode": "10025",
    "detailsBox": "",
    "wheelChair": false
  },
  {
    "meetingID": "412",
    "streetAddress": "152 West 71st Street",
    "buildingName": "Blessed Sacrament Church Rectory",
    "roomFloor": "",
    "city": "New York",
    "state": "NY",
    "zipCode": "10023",
    "detailsBox": "",
    "wheelChair": false
  },
  {
    "meetingID": "413",
    "streetAddress": "26 West 84th Street",
    "buildingName": "Church of St.Matthew & St. Timothy",
    "roomFloor": "Stanford Room (blue door)",
    "city": "New York",
    "state": "NY",
    "zipCode": "10024",
    "detailsBox": "Anniv. Meeting Last Saturday.",
    "wheelChair": false
  },
  {
    "meetingID": "1583",
    "streetAddress": "595 Columbus Avenue",
    "buildingName": "Goddard Riverside Community Center",
    "roomFloor": "",
    "city": "New York",
    "state": "NY",
    "zipCode": "10024",
    "detailsBox": "",
    "wheelChair": true
  },
  {
    "meetingID": "417",
    "streetAddress": "306 West 102nd Street",
    "buildingName": "Trinity Halfway House",
    "roomFloor": "2nd Floor",
    "city": "New York",
    "state": "NY",
    "zipCode": "10025",
    "detailsBox": "S 2nd Wednesday",
    "wheelChair": false
  },
  {
    "meetingID": "423",
    "streetAddress": "213 West 82nd Street",
    "buildingName": "Holy Trinity Church",
    "roomFloor": "",
    "city": "New York",
    "state": "NY",
    "zipCode": "10024",
    "detailsBox": "Women's Meeting",
    "wheelChair": true
  },
  {
    "meetingID": "1488",
    "streetAddress": "152 West 71st Street",
    "buildingName": "Blessed Sacrament (Rectory)",
    "roomFloor": "",
    "city": "New York",
    "state": "NY",
    "zipCode": "10023",
    "detailsBox": "Wed= Alternate BB and Living Sober.",
    "wheelChair": false
  },
  {
    "meetingID": "1487",
    "streetAddress": "152 West 71st street",
    "buildingName": "",
    "roomFloor": "",
    "city": "New York",
    "state": "NY",
    "zipCode": "null",
    "detailsBox": "",
    "wheelChair": true
  },
  {
    "meetingID": "428",
    "streetAddress": "152 West 71st Street",
    "buildingName": "Blessed Sacrament (Rectory)",
    "roomFloor": "",
    "city": "New York",
    "state": "NY",
    "zipCode": "10023",
    "detailsBox": "Women's Meeting",
    "wheelChair": true
  },
  {
    "meetingID": "429",
    "streetAddress": "160 Central Park West",
    "buildingName": "Universalist Church",
    "roomFloor": "Downstairs",
    "city": "New York",
    "state": "NY",
    "zipCode": "10023",
    "detailsBox": "Women's Meeting",
    "wheelChair": false
  },
  {
    "meetingID": "430",
    "streetAddress": "207 West 96th Street",
    "buildingName": "Holy Name Church",
    "roomFloor": "Basement Little Room",
    "city": "New York",
    "state": "NY",
    "zipCode": "10025",
    "detailsBox": "",
    "wheelChair": false
  },
  {
    "meetingID": "742",
    "streetAddress": "351 East 74th Street",
    "buildingName": "Jan Hus Church",
    "roomFloor": "2nd Floor",
    "city": "New York",
    "state": "NY",
    "zipCode": "10021",
    "detailsBox": "Topic Meeting",
    "wheelChair": false
  },
  {
    "meetingID": "437",
    "streetAddress": "48 East 80th Street",
    "buildingName": "Manhattan Church of Christ",
    "roomFloor": "2nd Floor Library Ring Bell Next to Sign.",
    "city": "New York",
    "state": "NY",
    "zipCode": "10021",
    "detailsBox": "Traditions Meeting",
    "wheelChair": true
  },
  {
    "meetingID": "40",
    "streetAddress": "184 East 76th Street",
    "buildingName": "St. Jean Baptiste Church",
    "roomFloor": "Basement",
    "city": "New York",
    "state": "NY",
    "zipCode": "10021",
    "detailsBox": "",
    "wheelChair": true
  },
  {
    "meetingID": "1357",
    "streetAddress": "351 East 74th Street",
    "buildingName": "Jan Hus Church",
    "roomFloor": "2nd Floor",
    "city": "New York",
    "state": "NY",
    "zipCode": "10021",
    "detailsBox": "Mon=Living Sober, Thu=11 Step with meditation, Fri=3rd Step",
    "wheelChair": false
  },
  {
    "meetingID": "54",
    "streetAddress": "1393 York Avenue",
    "buildingName": "Church of the Epiphany",
    "roomFloor": "",
    "city": "New York",
    "state": "NY",
    "zipCode": "10021",
    "detailsBox": "",
    "wheelChair": false
  },
  {
    "meetingID": "53",
    "streetAddress": "520 Park Avenue",
    "buildingName": "Christ United Methodist Church",
    "roomFloor": "",
    "city": "New York",
    "state": "NY",
    "zipCode": "10021",
    "detailsBox": "Three speaker",
    "wheelChair": true
  },
  {
    "meetingID": "1518",
    "streetAddress": "337 East 74th Street",
    "buildingName": "Archdiocian Cathedral of the Holy Trinity",
    "roomFloor": "",
    "city": "New York",
    "state": "NY",
    "zipCode": "10021",
    "detailsBox": "",
    "wheelChair": true
  },
  {
    "meetingID": "1517",
    "streetAddress": "1157 Lexington Avenue",
    "buildingName": "All Souls Church",
    "roomFloor": "",
    "city": "New York",
    "state": "NY",
    "zipCode": "10075",
    "detailsBox": "Two speaker",
    "wheelChair": true
  },
  {
    "meetingID": "64",
    "streetAddress": "420 East 76th Street",
    "buildingName": "Gracie Square Hospital",
    "roomFloor": "",
    "city": "New York",
    "state": "NY",
    "zipCode": "10021",
    "detailsBox": "*Open Last Friday Check with front desk security for meeting room location.",
    "wheelChair": true
  },
  {
    "meetingID": "68",
    "streetAddress": "230 East 90th Street",
    "buildingName": "Our Lady of Good Counsel Church",
    "roomFloor": "Downstairs",
    "city": "New York",
    "state": "NY",
    "zipCode": "10128",
    "detailsBox": "Anniv. Last Sunday; every other month.",
    "wheelChair": false
  },
  {
    "meetingID": "71",
    "streetAddress": "65 East 89th Street",
    "buildingName": "St. Thomas More Church",
    "roomFloor": "Basement",
    "city": "New York",
    "state": "NY",
    "zipCode": "10128",
    "detailsBox": "",
    "wheelChair": false
  },
  {
    "meetingID": "72",
    "streetAddress": "865 Madison Avenue",
    "buildingName": "St. James Episcopal Church",
    "roomFloor": "Basement",
    "city": "New York",
    "state": "NY",
    "zipCode": "10021",
    "detailsBox": "",
    "wheelChair": false
  },
  {
    "meetingID": "75",
    "streetAddress": "1296 Lexington Avenue",
    "buildingName": "Immanuel Lutheran Church",
    "roomFloor": "Basement",
    "city": "New York",
    "state": "NY",
    "zipCode": "10128",
    "detailsBox": "Fri.6:15=Women's Meeting",
    "wheelChair": false
  },
  {
    "meetingID": "144",
    "streetAddress": "351 East 74th Street",
    "buildingName": "Jan Hus Church",
    "roomFloor": "Mazaryk Room",
    "city": "New York",
    "state": "NY",
    "zipCode": "10021",
    "detailsBox": "11th Step Meditation Meeting.",
    "wheelChair": false
  },
  {
    "meetingID": "150",
    "streetAddress": "1157 Lexington Avenue",
    "buildingName": "All Souls Uniterian Church",
    "roomFloor": "1st Floor",
    "city": "New York",
    "state": "NY",
    "zipCode": "10028",
    "detailsBox": "Topic Meeting",
    "wheelChair": false
  },
  {
    "meetingID": "160",
    "streetAddress": "351 East 74th Street",
    "buildingName": "Jan Hus Church",
    "roomFloor": "Mazaryk Room",
    "city": "New York",
    "state": "NY",
    "zipCode": "10021",
    "detailsBox": "",
    "wheelChair": false
  },
  {
    "meetingID": "162",
    "streetAddress": "351 East 74th Street",
    "buildingName": "Jan Hus Church",
    "roomFloor": "2nd Floor",
    "city": "New York",
    "state": "NY",
    "zipCode": "10021",
    "detailsBox": "1st Step Gay & lesbian focus.  All are welcome.",
    "wheelChair": false
  },
  {
    "meetingID": "163",
    "streetAddress": "65 East 89th Street",
    "buildingName": "St. Thomas More Church Rectory",
    "roomFloor": "",
    "city": "New York",
    "state": "NY",
    "zipCode": "10128",
    "detailsBox": "Men's Meeting",
    "wheelChair": false
  },
  {
    "meetingID": "1547",
    "streetAddress": "65 East 89th Street",
    "buildingName": "Church of Saint Thomas Moore",
    "roomFloor": "Rectory basement",
    "city": "New York",
    "state": "NY",
    "zipCode": "10128",
    "detailsBox": "Agnostic",
    "wheelChair": false
  },
  {
    "meetingID": "224",
    "streetAddress": "351 East 74th Street",
    "buildingName": "Jan Hus Church",
    "roomFloor": "2nd Floor",
    "city": "New York",
    "state": "NY",
    "zipCode": "10021",
    "detailsBox": "",
    "wheelChair": false
  },
  {
    "meetingID": "225",
    "streetAddress": "135 East 96th Street",
    "buildingName": "St. Francis de Sales Church",
    "roomFloor": "",
    "city": "New York",
    "state": "NY",
    "zipCode": "10128",
    "detailsBox": "lower level",
    "wheelChair": false
  },
  {
    "meetingID": "1040",
    "streetAddress": "351 East 74th Street",
    "buildingName": "Jan Hus Presbyterian Church",
    "roomFloor": "2nd Floor Kitchen",
    "city": "New York",
    "state": "NY",
    "zipCode": "10021",
    "detailsBox": "",
    "wheelChair": false
  },
  {
    "meetingID": "233",
    "streetAddress": "2 East 90th Street",
    "buildingName": "Church of the Heavenly Rest",
    "roomFloor": "",
    "city": "New York",
    "state": "NY",
    "zipCode": "10128",
    "detailsBox": "",
    "wheelChair": false
  },
  {
    "meetingID": "234",
    "streetAddress": "1157 Lexington Avenue",
    "buildingName": "All Souls Uniterian Church",
    "roomFloor": "",
    "city": "New York",
    "state": "NY",
    "zipCode": "10028",
    "detailsBox": "Southside Chapel",
    "wheelChair": true
  },
  {
    "meetingID": "236",
    "streetAddress": "420 East 76th Street",
    "buildingName": "Gracie Square Hospital",
    "roomFloor": "",
    "city": "New York",
    "state": "NY",
    "zipCode": "10021",
    "detailsBox": "Thurs=Topic Meeting, Check in with security at front desk. Gay & lesbian focus.  All are welcome.",
    "wheelChair": true
  },
  {
    "meetingID": "241",
    "streetAddress": "351 East 74th Street",
    "buildingName": "Jan Hus Presbyterian Church",
    "roomFloor": "2nd Floor",
    "city": "New York",
    "state": "NY",
    "zipCode": "10021",
    "detailsBox": "All Meetings Are Non-Smoking.",
    "wheelChair": false
  },
  {
    "meetingID": "245",
    "streetAddress": "351 East 74th Street",
    "buildingName": "Jan Hus Church",
    "roomFloor": "2nd Floor Chapel Room",
    "city": "New York",
    "state": "NY",
    "zipCode": "10021",
    "detailsBox": "All meetings are 11th Step Meditation format.",
    "wheelChair": false
  },
  {
    "meetingID": "1551",
    "streetAddress": "1285 Madison Avenue",
    "buildingName": "Philomathist Center",
    "roomFloor": "",
    "city": "New York",
    "state": "NY",
    "zipCode": "10128",
    "detailsBox": "Ring Bell for entry",
    "wheelChair": false
  },
  {
    "meetingID": "248",
    "streetAddress": "48 East 84th Street",
    "buildingName": "St. Ignatius Loyola School",
    "roomFloor": "",
    "city": "New York",
    "state": "NY",
    "zipCode": "10028",
    "detailsBox": "Tue.6:30=Literature Topic,Sat=Meets in the Rectory. Wheel Chair Access on Tuesday & Sunday Only",
    "wheelChair": true
  },
  {
    "meetingID": "257",
    "streetAddress": "408 East 82nd Street",
    "buildingName": "St. Stephen of Hungary Church",
    "roomFloor": "Rectory",
    "city": "New York",
    "state": "NY",
    "zipCode": "10028",
    "detailsBox": "Round Robin format & No Meeting on Legal Holidays.",
    "wheelChair": false
  },
  {
    "meetingID": "442",
    "streetAddress": "351 East 74th Street",
    "buildingName": "Jan Hus Church",
    "roomFloor": "2nd Floor Front Room",
    "city": "New York",
    "state": "NY",
    "zipCode": "10021",
    "detailsBox": "AA Literature Topic Meeting & Open last Monday. Women's Meeting",
    "wheelChair": false
  },
  {
    "meetingID": "262",
    "streetAddress": "351 East 74th Street",
    "buildingName": "Jan Hus Church",
    "roomFloor": "2nd FloorFront Room",
    "city": "New York",
    "state": "NY",
    "zipCode": "10021",
    "detailsBox": "Daily Reflections readings & round robin format Discussion",
    "wheelChair": false
  },
  {
    "meetingID": "274",
    "streetAddress": "125 East 85th Street",
    "buildingName": "Congregational Kehilath Jeshurun",
    "roomFloor": "Ramaz School Entrance",
    "city": "New York",
    "state": "NY",
    "zipCode": "10028",
    "detailsBox": "",
    "wheelChair": true
  },
  {
    "meetingID": "289",
    "streetAddress": "351 East 74th Street",
    "buildingName": "Jan Hus Church",
    "roomFloor": "2nd Floor Library Room",
    "city": "New York",
    "state": "NY",
    "zipCode": "10021",
    "detailsBox": "Big Book Study",
    "wheelChair": false
  },
  {
    "meetingID": "1371",
    "streetAddress": "351 East 74th Street",
    "buildingName": "Jan Hus Church",
    "roomFloor": "2nd Floor Kitchen",
    "city": "New York",
    "state": "NY",
    "zipCode": "10021",
    "detailsBox": "Women's Meeting.",
    "wheelChair": false
  },
  {
    "meetingID": "294",
    "streetAddress": "865 Madison Avenue",
    "buildingName": "St. James Church",
    "roomFloor": "3rd Floor",
    "city": "New York",
    "state": "NY",
    "zipCode": "10021",
    "detailsBox": "",
    "wheelChair": true
  },
  {
    "meetingID": "295",
    "streetAddress": "62 East 92nd Street",
    "buildingName": "Brick Church Parish House",
    "roomFloor": "Basement",
    "city": "New York",
    "state": "NY",
    "zipCode": "10128",
    "detailsBox": "Tue.8pm=Topic Round Robin, Anniv Last Fri.@ 6:45 Church Closed Friday; No Meetings In July & August All meetings are non-smoking.",
    "wheelChair": true
  },
  {
    "meetingID": "299",
    "streetAddress": "351 East 74th Street",
    "buildingName": "Jan Hus Church",
    "roomFloor": "2nd Floor Front Room",
    "city": "New York",
    "state": "NY",
    "zipCode": "10021",
    "detailsBox": "",
    "wheelChair": false
  },
  {
    "meetingID": "309",
    "streetAddress": "420 East 87th Street",
    "buildingName": "St. Joseph's School",
    "roomFloor": "Basement",
    "city": "New York",
    "state": "NY",
    "zipCode": "10128",
    "detailsBox": "",
    "wheelChair": false
  },
  {
    "meetingID": "446",
    "streetAddress": "593 Park Avenue",
    "buildingName": "Central Presbyterian Church",
    "roomFloor": "5th Floor Library",
    "city": "New York",
    "state": "NY",
    "zipCode": "10128",
    "detailsBox": "",
    "wheelChair": true
  },
  {
    "meetingID": "1372",
    "streetAddress": "65 East 89th Street",
    "buildingName": "St. Thomas More Church",
    "roomFloor": "Ring Red Buzzer Chelsea Room",
    "city": "New York",
    "state": "NY",
    "zipCode": "10128",
    "detailsBox": "",
    "wheelChair": true
  },
  {
    "meetingID": "314",
    "streetAddress": "865 Madison Avenue",
    "buildingName": "St. James Episcopal Church",
    "roomFloor": "Basement",
    "city": "New York",
    "state": "NY",
    "zipCode": "10021",
    "detailsBox": "Mon.6pm & Thu.6pm Meetings end @ 6:50pm.",
    "wheelChair": false
  },
  {
    "meetingID": "1529",
    "streetAddress": "Church of the Good Shepard",
    "buildingName": "",
    "roomFloor": "543 Main Street Basement",
    "city": "New York",
    "state": "NY",
    "zipCode": "10044",
    "detailsBox": "",
    "wheelChair": true
  },
  {
    "meetingID": "347",
    "streetAddress": "413 East 79th Street",
    "buildingName": "St. Monica's Church",
    "roomFloor": "Basement",
    "city": "New York",
    "state": "NY",
    "zipCode": "10021",
    "detailsBox": "Sun.10am=11th S, Tue.6am=Came To Believe Thu.6am=Step & Trad.",
    "wheelChair": false
  },
  {
    "meetingID": "356",
    "streetAddress": "351 East 74th Street",
    "buildingName": "Jan Hus Church",
    "roomFloor": "Sanctuary",
    "city": "New York",
    "state": "NY",
    "zipCode": "10021",
    "detailsBox": "Women's Meeting",
    "wheelChair": false
  },
  {
    "meetingID": "366",
    "streetAddress": "310 East 67th Street",
    "buildingName": "New York Blood Center",
    "roomFloor": "Auditorium",
    "city": "New York",
    "state": "NY",
    "zipCode": "10065",
    "detailsBox": "Non-Smoking Meeting.",
    "wheelChair": true
  },
  {
    "meetingID": "374",
    "streetAddress": "331 East 70th Street",
    "buildingName": "Lenox Hill Neighborhood House",
    "roomFloor": "",
    "city": "New York",
    "state": "NY",
    "zipCode": "10021",
    "detailsBox": "",
    "wheelChair": false
  },
  {
    "meetingID": "376",
    "streetAddress": "411 East 68th Street",
    "buildingName": "Church of St. Catherine of Siena",
    "roomFloor": "",
    "city": "New York",
    "state": "NY",
    "zipCode": "10021",
    "detailsBox": "Enter through Parish House",
    "wheelChair": true
  },
  {
    "meetingID": "383",
    "streetAddress": "2 East 90th Street",
    "buildingName": "Church of the Heavenly Rest",
    "roomFloor": "Basement",
    "city": "New York",
    "state": "NY",
    "zipCode": "10128",
    "detailsBox": "",
    "wheelChair": false
  },
  {
    "meetingID": "388",
    "streetAddress": "341 East 87th Street",
    "buildingName": "Holy Trinity Church",
    "roomFloor": "Choir Room (Ring Bell)",
    "city": "New York",
    "state": "NY",
    "zipCode": "10128",
    "detailsBox": "Anniv Last Tuesday @ 7:15pm All meetings are non-smoking. Last Fri. @ 7PM = T",
    "wheelChair": false
  },
  {
    "meetingID": "403",
    "streetAddress": "351 East 74th Street",
    "buildingName": "Jan Hus Church",
    "roomFloor": "2nd Floor Museum Room",
    "city": "New York",
    "state": "NY",
    "zipCode": "10021",
    "detailsBox": "No prayers & a Non-Smoking Meeting.",
    "wheelChair": false
  },
  {
    "meetingID": "404",
    "streetAddress": "351 East 74th Street",
    "buildingName": "Jan Hus Church",
    "roomFloor": "2nd Floor Kitchen",
    "city": "New York",
    "state": "NY",
    "zipCode": "10021",
    "detailsBox": "Round Robin format",
    "wheelChair": false
  },
  {
    "meetingID": "431",
    "streetAddress": "351 East 74th Street",
    "buildingName": "Jan Hus Church",
    "roomFloor": "2nd Floor  Masaryk Room",
    "city": "New York",
    "state": "NY",
    "zipCode": "10021",
    "detailsBox": "Non-Smoking Meeting.",
    "wheelChair": false
  },
  {
    "meetingID": "32",
    "streetAddress": "109 West 129th Street",
    "buildingName": "SRO Building",
    "roomFloor": "Basement",
    "city": "New York",
    "state": "NY",
    "zipCode": "10027",
    "detailsBox": "",
    "wheelChair": true
  },
  {
    "meetingID": "36",
    "streetAddress": "240 West 145th Street",
    "buildingName": "Union Baptist Church",
    "roomFloor": "",
    "city": "New York",
    "state": "NY",
    "zipCode": "10039",
    "detailsBox": "Thu=Altern.BB, Living Sober & Other A.A. Literature. Fri.=Alternates between Step & Tradition.",
    "wheelChair": true
  },
  {
    "meetingID": "58",
    "streetAddress": "469 West 142nd Street",
    "buildingName": "Our Lady of Lourdes Church",
    "roomFloor": "Basement",
    "city": "New York",
    "state": "NY",
    "zipCode": "10031",
    "detailsBox": "Topic 1st Saturday.",
    "wheelChair": false
  },
  {
    "meetingID": "1028",
    "streetAddress": "204 West 134th Street",
    "buildingName": "St. Phillip Church",
    "roomFloor": "1st Floor",
    "city": "New York",
    "state": "NY",
    "zipCode": "10030",
    "detailsBox": "B-3rd Saturday",
    "wheelChair": false
  },
  {
    "meetingID": "151",
    "streetAddress": "2044 Adam Clayton Powell Blvd",
    "buildingName": "Spiritual Renewal Church",
    "roomFloor": "",
    "city": "New York",
    "state": "NY",
    "zipCode": "10027",
    "detailsBox": "T If there is a fifth Wednesday.",
    "wheelChair": false
  },
  {
    "meetingID": "1366",
    "streetAddress": "469 West 142nd Street",
    "buildingName": "",
    "roomFloor": "1st Floor",
    "city": "New York",
    "state": "NY",
    "zipCode": "10031",
    "detailsBox": "Spanish speaking meeting.",
    "wheelChair": false
  },
  {
    "meetingID": "1490",
    "streetAddress": "521 West 126th Street",
    "buildingName": "St. Mary's Episcopal",
    "roomFloor": "",
    "city": "New York",
    "state": "NY",
    "zipCode": "10027",
    "detailsBox": "Contact in Advance for Wheelcahir Accessibility",
    "wheelChair": true
  },
  {
    "meetingID": "229",
    "streetAddress": "109 West 129th Street",
    "buildingName": "SRO Building Community Room",
    "roomFloor": "Basement",
    "city": "New York",
    "state": "NY",
    "zipCode": "10027",
    "detailsBox": "All meetings are non-smoking.",
    "wheelChair": true
  },
  {
    "meetingID": "232",
    "streetAddress": "469 West 142nd Street",
    "buildingName": "Our Lady of Lourdes",
    "roomFloor": "Basement",
    "city": "New York",
    "state": "NY",
    "zipCode": "10031",
    "detailsBox": "",
    "wheelChair": false
  },
  {
    "meetingID": "237",
    "streetAddress": "2044 Seventh Avenue",
    "buildingName": "",
    "roomFloor": "",
    "city": "New York",
    "state": "NY",
    "zipCode": "10027",
    "detailsBox": "S 2nd, BB 3rd, OD 4th, Living Sober 5th wk.",
    "wheelChair": true
  },
  {
    "meetingID": "246",
    "streetAddress": "127 West 127th Street",
    "buildingName": "S.A.G.E.",
    "roomFloor": "",
    "city": "New York",
    "state": "NY",
    "zipCode": "10027",
    "detailsBox": "Meeting is closed on holidays",
    "wheelChair": true
  },
  {
    "meetingID": "250",
    "streetAddress": "310 West 139th Street",
    "buildingName": "Grace Congregational Baptist Church",
    "roomFloor": "Basement",
    "city": "New York",
    "state": "NY",
    "zipCode": "10037",
    "detailsBox": "T 1st Monday at 7PM Open 1st Friday 8:10pm, Pitch other Fridays 8:10pm",
    "wheelChair": false
  },
  {
    "meetingID": "261",
    "streetAddress": "409 West 141st Street",
    "buildingName": "St. James Church",
    "roomFloor": "Basement",
    "city": "New York",
    "state": "NY",
    "zipCode": "10031",
    "detailsBox": "",
    "wheelChair": false
  },
  {
    "meetingID": "303",
    "streetAddress": "91 Claremont Avenue",
    "buildingName": "Riverside Church",
    "roomFloor": "4th Floor Room 414",
    "city": "New York",
    "state": "NY",
    "zipCode": "10027",
    "detailsBox": "",
    "wheelChair": true
  },
  {
    "meetingID": "306",
    "streetAddress": "1727 Amsterdam Avenue",
    "buildingName": "Upper Manhattan Mental Health Center",
    "roomFloor": "1st Floor in the Rear",
    "city": "New York",
    "state": "NY",
    "zipCode": "10031",
    "detailsBox": "1st Sun-OD; 2nd Sun-S; 3rd Sun-Topic; 4th Sun-T; 5th Sun-OD",
    "wheelChair": true
  },
  {
    "meetingID": "308",
    "streetAddress": "469 West 142nd Street",
    "buildingName": "Our Lady of Lourdes Church",
    "roomFloor": "Basement",
    "city": "New York",
    "state": "NY",
    "zipCode": "10037",
    "detailsBox": "S 4th Saturday Men's Meeting",
    "wheelChair": false
  },
  {
    "meetingID": "315",
    "streetAddress": "91 Claremont Avenue",
    "buildingName": "Riverside Church",
    "roomFloor": "and The Cloisters Club Room",
    "city": "New York",
    "state": "NY",
    "zipCode": "10027",
    "detailsBox": "Non-Smoking Meeting.",
    "wheelChair": true
  },
  {
    "meetingID": "316",
    "streetAddress": "219 West 132nd Street",
    "buildingName": "St. Aloysius School",
    "roomFloor": "Cafeteria",
    "city": "New York",
    "state": "NY",
    "zipCode": "10027",
    "detailsBox": "S 2nd & T 4th Tue All meetings are non-smoking.  No children allowed at meetings.",
    "wheelChair": false
  },
  {
    "meetingID": "320",
    "streetAddress": "211 West 129th Street",
    "buildingName": "Salem United Methodist Church Community Center",
    "roomFloor": "Downstairs in the Gym",
    "city": "New York",
    "state": "NY",
    "zipCode": "10027",
    "detailsBox": "O 2nd Wednesday",
    "wheelChair": true
  },
  {
    "meetingID": "352",
    "streetAddress": "425 West 144th Street",
    "buildingName": "Convent Baptist Church Education Building",
    "roomFloor": "1st Floor",
    "city": "New York",
    "state": "NY",
    "zipCode": "10031",
    "detailsBox": "Men's Meeting",
    "wheelChair": true
  },
  {
    "meetingID": "363",
    "streetAddress": "204 West 134th Street",
    "buildingName": "St. Phillip's Church",
    "roomFloor": "Basement",
    "city": "New York",
    "state": "NY",
    "zipCode": "10030",
    "detailsBox": "S 2nd, C 3rd, BB 4th, & Grapevine 5th Thu.",
    "wheelChair": true
  },
  {
    "meetingID": "367",
    "streetAddress": "506 Lenox Avenue",
    "buildingName": "Harlem Hospital King Pavilion",
    "roomFloor": "Room #3101 3rd Floor",
    "city": "New York",
    "state": "NY",
    "zipCode": "10037",
    "detailsBox": "B 1st, OD 2nd, S3 3rd, C Literature 4th, & S11 5th Sun.",
    "wheelChair": true
  },
  {
    "meetingID": "1575",
    "streetAddress": "1727 Amsterdam Avenue",
    "buildingName": "Council Center for Problems of Living",
    "roomFloor": "1st Floor in the Rear",
    "city": "New York",
    "state": "NY",
    "zipCode": "10031",
    "detailsBox": "",
    "wheelChair": true
  },
  {
    "meetingID": "390",
    "streetAddress": "1854 Amsterdam Avenue",
    "buildingName": "",
    "roomFloor": "Basement",
    "city": "New York",
    "state": "NY",
    "zipCode": "10031",
    "detailsBox": "",
    "wheelChair": false
  },
  {
    "meetingID": "1428",
    "streetAddress": "469 West 142nd Street",
    "buildingName": "Our Lady of Lourdes Church",
    "roomFloor": "Basement",
    "city": "New York",
    "state": "NY",
    "zipCode": "10031",
    "detailsBox": "Meeting meets each Saturday from mid-August thru mid-December",
    "wheelChair": false
  },
  {
    "meetingID": "432",
    "streetAddress": "58-66 West 135th Street",
    "buildingName": "Metropolitan AME Church",
    "roomFloor": "",
    "city": "New York",
    "state": "NY",
    "zipCode": "10037",
    "detailsBox": "Non-Smoking Meeting.",
    "wheelChair": true
  },
  {
    "meetingID": "447",
    "streetAddress": "35 East 125 Street",
    "buildingName": "Harlem Children's Zone Admin. Offices",
    "roomFloor": "1st Floor Conference Room",
    "city": "New York",
    "state": "NY",
    "zipCode": "10035",
    "detailsBox": "O 2nd, S 3rd, Anniv. 4th & BB 5th Sat.",
    "wheelChair": true
  },
  {
    "meetingID": "139",
    "streetAddress": "223 East 117th Street",
    "buildingName": "Peter Jay Sharpe Building",
    "roomFloor": "1st Floor Dining Room",
    "city": "New York",
    "state": "NY",
    "zipCode": "10035",
    "detailsBox": "Living Sober 1st Tuesday.",
    "wheelChair": true
  },
  {
    "meetingID": "181",
    "streetAddress": "2126 2nd Avenue",
    "buildingName": "",
    "roomFloor": "1st Floor",
    "city": "New York",
    "state": "NY",
    "zipCode": "10029",
    "detailsBox": "Spanish speaking meetings.",
    "wheelChair": true
  },
  {
    "meetingID": "219",
    "streetAddress": "22 East 119th Street",
    "buildingName": "Veterans Residence",
    "roomFloor": "1st Floor Cafeteria",
    "city": "New York",
    "state": "NY",
    "zipCode": "10035",
    "detailsBox": "ID REQUIRED TO ENTER BUILDING",
    "wheelChair": true
  },
  {
    "meetingID": "33",
    "streetAddress": "701 West 168th Street and Fort Washington Avenue",
    "buildingName": "Columbia Presbyterian Hospital",
    "roomFloor": "",
    "city": "New York",
    "state": "NY",
    "zipCode": "10032",
    "detailsBox": "Check with Security for Room # T Last Thu, Living Sober & Anniv Last Fri. No meetings on public holidays",
    "wheelChair": true
  },
  {
    "meetingID": "65",
    "streetAddress": "715 West 179th Street",
    "buildingName": "Holy Rood Church",
    "roomFloor": "",
    "city": "New York",
    "state": "NY",
    "zipCode": "10033",
    "detailsBox": "Living Sober Last Tuesday, T Last Wednesday",
    "wheelChair": false
  },
  {
    "meetingID": "820",
    "streetAddress": "715 West 179th Street",
    "buildingName": "Holy Rood Church",
    "roomFloor": "",
    "city": "New York",
    "state": "NY",
    "zipCode": "10040",
    "detailsBox": "10th Step",
    "wheelChair": true
  },
  {
    "meetingID": "138",
    "streetAddress": "431 West 204th Street",
    "buildingName": "St. Jude's School",
    "roomFloor": "Basement",
    "city": "New York",
    "state": "NY",
    "zipCode": "10034",
    "detailsBox": "BB 1st & T Last Wed.",
    "wheelChair": false
  },
  {
    "meetingID": "158",
    "streetAddress": "550 West 155th Street",
    "buildingName": "Church of the Intercession",
    "roomFloor": "2nd Floor Guild Room",
    "city": "New York",
    "state": "NY",
    "zipCode": "10032",
    "detailsBox": "Men's meeting & Gay men's focus. All are welcome. Anniversary last Sat., 1st Sat.=S followed by Bus. Mtg.",
    "wheelChair": false
  },
  {
    "meetingID": "174",
    "streetAddress": "557 West 156th Street",
    "buildingName": "Casita Esperanza",
    "roomFloor": "",
    "city": "New York",
    "state": "NY",
    "zipCode": "10032",
    "detailsBox": "Spanish Speaking Meetings.",
    "wheelChair": true
  },
  {
    "meetingID": "179",
    "streetAddress": "35 Thayer Street",
    "buildingName": "",
    "roomFloor": "Basement",
    "city": "New York",
    "state": "NY",
    "zipCode": "10040",
    "detailsBox": "Spanish speaking meetings.",
    "wheelChair": true
  },
  {
    "meetingID": "180",
    "streetAddress": "715 West 179th Street",
    "buildingName": "Episcopal Holy Rood Church",
    "roomFloor": "1st Floor",
    "city": "New York",
    "state": "NY",
    "zipCode": "10033",
    "detailsBox": "Spanish speaking meetings.",
    "wheelChair": true
  },
  {
    "meetingID": "182",
    "streetAddress": "502 West 165th Street",
    "buildingName": "Church Santa Rosa de Lima",
    "roomFloor": "Basement",
    "city": "New York",
    "state": "NY",
    "zipCode": "10032",
    "detailsBox": "Spanish speaking meetings.",
    "wheelChair": false
  },
  {
    "meetingID": "216",
    "streetAddress": "91 Arden Street",
    "buildingName": "Our Lady Queen of Martyrs",
    "roomFloor": "",
    "city": "New York",
    "state": "NY",
    "zipCode": "10034",
    "detailsBox": "Spanish Speaking Meetings.",
    "wheelChair": false
  },
  {
    "meetingID": "1477",
    "streetAddress": "20 Cumming Street",
    "buildingName": "Holy Trinity Episcopal Church",
    "roomFloor": "",
    "city": "New York",
    "state": "NY",
    "zipCode": "10034",
    "detailsBox": "LGBT All welcome. Sun= As Bill See it; Wed=Steps1-3 Sun.meeting in Sanctuary; Wed meeting in Auditorium",
    "wheelChair": false
  },
  {
    "meetingID": "226",
    "streetAddress": "84 Vermilyea Avenue",
    "buildingName": "Mount Washington Presbyterian Church",
    "roomFloor": "",
    "city": "New York",
    "state": "NY",
    "zipCode": "10034",
    "detailsBox": "Sat. Closed meeting rotating step/speaker/trad/anniversary In Dec. first two weeks will be Step meeting",
    "wheelChair": false
  },
  {
    "meetingID": "227",
    "streetAddress": "620 Isham Street",
    "buildingName": "Church of the Good Shepherd",
    "roomFloor": "",
    "city": "New York",
    "state": "NY",
    "zipCode": "10034",
    "detailsBox": "Open Anniv. Last Mon.",
    "wheelChair": false
  },
  {
    "meetingID": "1553",
    "streetAddress": "2005 Amsterdam Avenue",
    "buildingName": "COATHA Church on the Hill Senior Center",
    "roomFloor": "",
    "city": "New York",
    "state": "NY",
    "zipCode": "10032",
    "detailsBox": "Open Discussion 1st, 2nd, 4th,and 5th when applicable. OPEN meeting is 3rd Fridays",
    "wheelChair": true
  },
  {
    "meetingID": "827",
    "streetAddress": "178 Bennett Avenue",
    "buildingName": "Our Saviour's Atonement Lutheran Church",
    "roomFloor": "2nd Floor (Lorenz Library)",
    "city": "New York",
    "state": "NY",
    "zipCode": "10040",
    "detailsBox": "Men's Meeting",
    "wheelChair": false
  },
  {
    "meetingID": "256",
    "streetAddress": "178 Bennett Avenue",
    "buildingName": "Our Saviour's Atonement Church",
    "roomFloor": "2nd Floor",
    "city": "New York",
    "state": "NY",
    "zipCode": "10040",
    "detailsBox": "1st- Step, 2nd-OD, 3rd-Beg., 4th- BB, 5th- OD",
    "wheelChair": false
  },
  {
    "meetingID": "395",
    "streetAddress": "91 Arden Street",
    "buildingName": "Our Lady Queen of Martyrs",
    "roomFloor": "",
    "city": "New York",
    "state": "NY",
    "zipCode": "10034",
    "detailsBox": "",
    "wheelChair": false
  },
  {
    "meetingID": "396",
    "streetAddress": "20 Cummings Street",
    "buildingName": "Holy Trinity Church",
    "roomFloor": "",
    "city": "New York",
    "state": "NY",
    "zipCode": "10034",
    "detailsBox": "",
    "wheelChair": false
  },
  {
    "meetingID": "399",
    "streetAddress": "715 West 179th Street",
    "buildingName": "Holy Rood Church",
    "roomFloor": "",
    "city": "New York",
    "state": "NY",
    "zipCode": "10033",
    "detailsBox": "",
    "wheelChair": true
  },
  {
    "meetingID": "400",
    "streetAddress": "189th Street and Bennett Avenue",
    "buildingName": "Cornerstone Center",
    "roomFloor": "Kitchen",
    "city": "New York",
    "state": "NY",
    "zipCode": "10040",
    "detailsBox": "",
    "wheelChair": false
  },
  {
    "meetingID": "414",
    "streetAddress": "178 Bennett Avenue",
    "buildingName": "The Corner Stone Center",
    "roomFloor": "2nd Floor",
    "city": "New York",
    "state": "NY",
    "zipCode": "10040",
    "detailsBox": "",
    "wheelChair": false
  },
  {
    "meetingID": "426",
    "streetAddress": "178 Bennett Avenue",
    "buildingName": "Cornerstone Center",
    "roomFloor": "Kitchen",
    "city": "New York",
    "state": "NY",
    "zipCode": "10040",
    "detailsBox": "",
    "wheelChair": false
  }
]