[{"zoneID":10,"meetingID":"33","streetAddress":"701 West 168th Street and Fort Washington Avenue","buildingName":"Columbia Presbyterian Hospital","roomFloor":"","city":"New York","state":"NY","zipCode":"10032","detailsBox":"Check with Security for Room # T Last Thu, Living Sober & Anniv Last Fri. No meetings on public holidays","wheelChair":true,"latLong":{"lat":"40.8421349959684","lng":"-73.9420058396877"}},{"zoneID":10,"meetingID":"65","streetAddress":"715 West 179th Street","buildingName":"Holy Rood Church","roomFloor":"","city":"New York","state":"NY","zipCode":"10033","detailsBox":"Living Sober Last Tuesday, T Last Wednesday","wheelChair":false,"latLong":{"lat":"40.8490796467369","lng":"-73.9373313893221"}},{"zoneID":10,"meetingID":"820","streetAddress":"715 West 179th Street","buildingName":"Holy Rood Church","roomFloor":"","city":"New York","state":"NY","zipCode":"10040","detailsBox":"10th Step","wheelChair":true,"latLong":{"lat":"40.8490796467369","lng":"-73.9373313893221"}},{"zoneID":10,"meetingID":"138","streetAddress":"431 West 204th Street","buildingName":"St. Jude's School","roomFloor":"Basement","city":"New York","state":"NY","zipCode":"10034","detailsBox":"BB 1st & T Last Wed.","wheelChair":false,"latLong":{"lat":"40.8620966104922","lng":"-73.9190004613749"}},{"zoneID":10,"meetingID":"158","streetAddress":"550 West 155th Street","buildingName":"Church of the Intercession","roomFloor":"2nd Floor Guild Room","city":"New York","state":"NY","zipCode":"10032","detailsBox":"Men's meeting & Gay men's focus. All are welcome. Anniversary last Sat., 1st Sat.=S followed by Bus. Mtg.","wheelChair":false,"latLong":{"lat":"40.8320961144213","lng":"-73.944465684352"}},{"zoneID":10,"meetingID":"174","streetAddress":"557 West 156th Street","buildingName":"Casita Esperanza","roomFloor":"","city":"New York","state":"NY","zipCode":"10032","detailsBox":"Spanish Speaking Meetings.","wheelChair":true,"latLong":{"lat":"40.8330065334804","lng":"-73.9440819529521"}},{"zoneID":10,"meetingID":"179","streetAddress":"35 Thayer Street","buildingName":"","roomFloor":"Basement","city":"New York","state":"NY","zipCode":"10040","detailsBox":"Spanish speaking meetings.","wheelChair":true,"latLong":{"lat":"40.8626229492642","lng":"-73.9263833803336"}},{"zoneID":10,"meetingID":"180","streetAddress":"715 West 179th Street","buildingName":"Episcopal Holy Rood Church","roomFloor":"1st Floor","city":"New York","state":"NY","zipCode":"10033","detailsBox":"Spanish speaking meetings.","wheelChair":true,"latLong":{"lat":"40.8490796467369","lng":"-73.9373313893221"}},{"zoneID":10,"meetingID":"182","streetAddress":"502 West 165th Street","buildingName":"Church Santa Rosa de Lima","roomFloor":"Basement","city":"New York","state":"NY","zipCode":"10032","detailsBox":"Spanish speaking meetings.","wheelChair":false,"latLong":{"lat":"40.8378476619065","lng":"-73.9384773058967"}},{"zoneID":10,"meetingID":"216","streetAddress":"91 Arden Street","buildingName":"Our Lady Queen of Martyrs","roomFloor":"","city":"New York","state":"NY","zipCode":"10034","detailsBox":"Spanish Speaking Meetings.","wheelChair":false,"latLong":{"lat":"40.8639","lng":"-73.9283"}},{"zoneID":10,"meetingID":"1477","streetAddress":"20 Cumming Street","buildingName":"Holy Trinity Episcopal Church","roomFloor":"","city":"New York","state":"NY","zipCode":"10034","detailsBox":"LGBT All welcome. Sun= As Bill See it; Wed=Steps1-3 Sun.meeting in Sanctuary; Wed meeting in Auditorium","wheelChair":false,"latLong":{"lat":"40.8664805601797","lng":"-73.9264534882199"}},{"zoneID":10,"meetingID":"226","streetAddress":"84 Vermilyea Avenue","buildingName":"Mount Washington Presbyterian Church","roomFloor":"","city":"New York","state":"NY","zipCode":"10034","detailsBox":"Sat. Closed meeting rotating step/speaker/trad/anniversary In Dec. first two weeks will be Step meeting","wheelChair":false,"latLong":{"lat":"40.866","lng":"-73.9231"}},{"zoneID":10,"meetingID":"227","streetAddress":"620 Isham Street","buildingName":"Church of the Good Shepherd","roomFloor":"","city":"New York","state":"NY","zipCode":"10034","detailsBox":"Open Anniv. Last Mon.","wheelChair":false,"latLong":{"lat":"40.8692532379724","lng":"-73.9206625253877"}},{"zoneID":10,"meetingID":"1553","streetAddress":"2005 Amsterdam Avenue","buildingName":"COATHA Church on the Hill Senior Center","roomFloor":"","city":"New York","state":"NY","zipCode":"10032","detailsBox":"Open Discussion 1st, 2nd, 4th,and 5th when applicable. OPEN meeting is 3rd Fridays","wheelChair":true,"latLong":{"lat":"40.8343","lng":"-73.9408"}},{"zoneID":10,"meetingID":"827","streetAddress":"178 Bennett Avenue","buildingName":"Our Saviour's Atonement Lutheran Church","roomFloor":"2nd Floor (Lorenz Library)","city":"New York","state":"NY","zipCode":"10040","detailsBox":"Men's Meeting","wheelChair":false,"latLong":{"lat":"40.8560152221363","lng":"-73.9342776437758"}},{"zoneID":10,"meetingID":"256","streetAddress":"178 Bennett Avenue","buildingName":"Our Saviour's Atonement Church","roomFloor":"2nd Floor","city":"New York","state":"NY","zipCode":"10040","detailsBox":"1st- Step, 2nd-OD, 3rd-Beg., 4th- BB, 5th- OD","wheelChair":false,"latLong":{"lat":"40.856","lng":"-73.9343"}},{"zoneID":10,"meetingID":"395","streetAddress":"91 Arden Street","buildingName":"Our Lady Queen of Martyrs","roomFloor":"","city":"New York","state":"NY","zipCode":"10034","detailsBox":"","wheelChair":false,"latLong":{"lat":"40.8639155612836","lng":"-73.9282546578791"}},{"zoneID":10,"meetingID":"396","streetAddress":"20 Cummings Street","buildingName":"Holy Trinity Church","roomFloor":"","city":"New York","state":"NY","zipCode":"10034","detailsBox":"","wheelChair":false,"latLong":{"lat":"40.8664805601797","lng":"-73.9264534882199"}},{"zoneID":10,"meetingID":"399","streetAddress":"715 West 179th Street","buildingName":"Holy Rood Church","roomFloor":"","city":"New York","state":"NY","zipCode":"10033","detailsBox":"","wheelChair":true,"latLong":{"lat":"40.8490796467369","lng":"-73.9373313893221"}},{"zoneID":10,"meetingID":"400","streetAddress":"189th Street and Bennett Avenue","buildingName":"Cornerstone Center","roomFloor":"Kitchen","city":"New York","state":"NY","zipCode":"10040","detailsBox":"","wheelChair":false,"latLong":{"lat":"40.6639307188879","lng":"-73.9382749875207"}},{"zoneID":10,"meetingID":"414","streetAddress":"178 Bennett Avenue","buildingName":"The Corner Stone Center","roomFloor":"2nd Floor","city":"New York","state":"NY","zipCode":"10040","detailsBox":"","wheelChair":false,"latLong":{"lat":"40.8560152221363","lng":"-73.9342776437758"}},{"zoneID":10,"meetingID":"426","streetAddress":"178 Bennett Avenue","buildingName":"Cornerstone Center","roomFloor":"Kitchen","city":"New York","state":"NY","zipCode":"10040","detailsBox":"","wheelChair":false,"latLong":{"lat":"40.856","lng":"-73.9343"}},{"zoneID":1,"meetingID":"1505","streetAddress":"20 Cardinal Hayes Place","buildingName":"St Andrews Church","roomFloor":"Rectory Basement","city":"New York","state":"NY","zipCode":"10007","detailsBox":"@Duane and Centre behind Federal courthouse enter thru driveway behind Church No meetings on Holidays","wheelChair":false,"latLong":{"lat":"40.7132597018695","lng":"-74.0023994478748"}},{"zoneID":1,"meetingID":"74","streetAddress":"20 Cardinal Hayes Place","buildingName":"St. Andrew's Church","roomFloor":"Enter through driveway behind Church","city":"New York","state":"NY","zipCode":"10007","detailsBox":"No meetings on Holidays. **LOCATION SUBJECT TO CHANGE- Call Inter-Group","wheelChair":false,"latLong":{"lat":"40.7132597018695","lng":"-74.0023994478748"}},{"zoneID":1,"meetingID":"78","streetAddress":"29 Mott Street","buildingName":"Church of the Transfiguration","roomFloor":"Basement","city":"New York","state":"NY","zipCode":"10013","detailsBox":"","wheelChair":false,"latLong":{"lat":"40.7148047974301","lng":"-73.9990377012436"}},{"zoneID":1,"meetingID":"137","streetAddress":"49 Fulton Street","buildingName":"St. Margaret's Residence","roomFloor":"1st Floor Library","city":"New York","state":"NY","zipCode":"10038","detailsBox":"","wheelChair":true,"latLong":{"lat":"40.7080475730195","lng":"-74.0042375398091"}},{"zoneID":1,"meetingID":"1556","streetAddress":"44 John Street","buildingName":"","roomFloor":"","city":"New York","state":"NY","zipCode":"10038","detailsBox":"Thursday 1:30 = Alt. Step/Tradition Email exchangeviews1215@yahoo.com for questions","wheelChair":false,"latLong":{"lat":"40.637886729854","lng":"-74.1427971484797"}},{"zoneID":1,"meetingID":"1557","streetAddress":"49 Fulton Street","buildingName":"","roomFloor":"","city":"New York","state":"NY","zipCode":"10038","detailsBox":"This is new location as of 9-12-14 M 7:30 am= Trad 1st Monday.","wheelChair":true,"latLong":{"lat":"40.7080475730195","lng":"-74.0042375398091"}},{"zoneID":1,"meetingID":"161","streetAddress":"20 Cardinal Hayes Place","buildingName":"St. Andrew's Church","roomFloor":"Enter through driveway behind Church","city":"New York","state":"NY","zipCode":"10007","detailsBox":"Note: Location Subject to change","wheelChair":true,"latLong":{"lat":"40.7132597018695","lng":"-74.0023994478748"}},{"zoneID":1,"meetingID":"164","streetAddress":"22 Barclay Street","buildingName":"St. Peter's Church","roomFloor":"","city":"New York","state":"NY","zipCode":"null","detailsBox":"","wheelChair":false,"latLong":{"lat":"40.7125098758043","lng":"-74.0094653605709"}},{"zoneID":1,"meetingID":"296","streetAddress":"20 Cardinal Hayes Place","buildingName":"St. Andrew's Church","roomFloor":"Enter through driveway behind Church","city":"New York","state":"NY","zipCode":"10007","detailsBox":"*Business meeting last Tuesday @ Mar,Jun,Sep & Dec.only. **Promises 1st Wednesday, ***T Last Thursday ** LOCATION IS SUBJECT TO CHANGE","wheelChair":true,"latLong":{"lat":"40.7133","lng":"-74.0024"}},{"zoneID":1,"meetingID":"1402","streetAddress":"22 Barclay Street","buildingName":"Saint Peter's Church","roomFloor":"","city":"New York","state":"NY","zipCode":"10007","detailsBox":"Enter on Church Street Lower floor, Parish Office Room","wheelChair":false,"latLong":{"lat":"40.7125","lng":"-74.0095"}},{"zoneID":1,"meetingID":"89","streetAddress":"283 West Broadway","buildingName":"Hazelden Tribeca","roomFloor":"","city":"New York","state":"NY","zipCode":"10013","detailsBox":"Mental Health Challenges in Sobriety. *Alternating Closed & rotating 1, 2, 3 Step every other week. Open â€“ Last Wednesday.","wheelChair":true,"latLong":{"lat":"40.7208","lng":"-74.0049"}},{"zoneID":1,"meetingID":"321","streetAddress":"125 Barclay Street","buildingName":"Municipal Union Bldg DC 37","roomFloor":"","city":"New York","state":"NY","zipCode":"10007","detailsBox":"Ask security guard for room #","wheelChair":false,"latLong":{"lat":"40.7143","lng":"-74.013"}},{"zoneID":1,"meetingID":"1555","streetAddress":"49 Fulton Street","buildingName":"","roomFloor":"","city":"New York","state":"NY","zipCode":"10038","detailsBox":"this is the new location as of 9/8/14 tribecagroup2014@gmail.com","wheelChair":true,"latLong":{"lat":"40.7080475730195","lng":"-74.0042375398091"}},{"zoneID":1,"meetingID":"343","streetAddress":"49 Fulton Street","buildingName":"St. Margaret's House","roomFloor":"","city":"New York","state":"NY","zipCode":"10038","detailsBox":"11th Step Meditation (Mon), Topic (Thu)","wheelChair":true,"latLong":{"lat":"40.7080475730195","lng":"-74.0042375398091"}},{"zoneID":1,"meetingID":"1195","streetAddress":"49 Fulton Street","buildingName":"St. Margaret's House","roomFloor":"Conference Room #1","city":"New York","state":"NY","zipCode":"10038","detailsBox":"*Co-ed meeting, all are welcome.","wheelChair":true,"latLong":{"lat":"40.7080475730195","lng":"-74.0042375398091"}},{"zoneID":1,"meetingID":"385","streetAddress":"20 Cardinal Hayes Place","buildingName":"Church of Saint Andrew","roomFloor":"","city":"New York","state":"NY","zipCode":"10007","detailsBox":"Step 1st Wednesday","wheelChair":false,"latLong":{"lat":"40.7133","lng":"-74.0024"}},{"zoneID":1,"meetingID":"387","streetAddress":"22 Barclay Street","buildingName":"St. Peter's Church","roomFloor":"","city":"New York","state":"NY","zipCode":"10006","detailsBox":"Monday step - 3rd and 11th step workshop tribecagroup2014@gmail.com","wheelChair":false,"latLong":{"lat":"40.7125","lng":"-74.0095"}},{"zoneID":1,"meetingID":"1446","streetAddress":"283 West Broadway","buildingName":"Tribeca 12 Building","roomFloor":"","city":"New York","state":"NY","zipCode":"10013","detailsBox":"Walk thru green doors; first floor, rear. Addtl meditation meeting on Sunday at 11:15 if room full","wheelChair":true,"latLong":{"lat":"40.7208247814361","lng":"-74.0048537254953"}},{"zoneID":1,"meetingID":"1549","streetAddress":"20 Cardinal Hayes Place","buildingName":"St. Andrew's Church","roomFloor":"","city":"New York","state":"NY","zipCode":"10007","detailsBox":"","wheelChair":false,"latLong":{"lat":"40.7133","lng":"-74.0024"}},{"zoneID":1,"meetingID":"434","streetAddress":"283 West Broadway","buildingName":"Hazelden Center","roomFloor":"","city":"New York","state":"NY","zipCode":"10013","detailsBox":"Lesbian, Gay, Bi-sexual & Transgendered Focus All are welcome.","wheelChair":false,"latLong":{"lat":"40.7208","lng":"-74.0049"}},{"zoneID":1,"meetingID":"130","streetAddress":"283 West Broadway","buildingName":"Hazelden Center","roomFloor":"","city":"New York","state":"NY","zipCode":"10013","detailsBox":"","wheelChair":true,"latLong":{"lat":"40.7208","lng":"-74.0049"}},{"zoneID":1,"meetingID":"435","streetAddress":"283 West Broadway","buildingName":"Hazelden Center","roomFloor":"","city":"New York","state":"NY","zipCode":"10013","detailsBox":"Open Anniv. Last Saturday.","wheelChair":true,"latLong":{"lat":"40.7208","lng":"-74.0049"}},{"zoneID":2,"meetingID":"38","streetAddress":"273 Bowery","buildingName":"University Settlement","roomFloor":"Downstairs","city":"New York","state":"NY","zipCode":"10002","detailsBox":"","wheelChair":true,"latLong":{"lat":"40.7236818990557","lng":"-73.9924846000013"}},{"zoneID":2,"meetingID":"42","streetAddress":"232 West 11th Street","buildingName":"Manhattan Seventh-Day Adventist Church","roomFloor":"","city":"New York","state":"NY","zipCode":"10014","detailsBox":"","wheelChair":false,"latLong":{"lat":"40.7362371953365","lng":"-74.0025217528845"}},{"zoneID":2,"meetingID":"1539","streetAddress":"283 West Broadway","buildingName":"Hazelden Center","roomFloor":"","city":"New York","state":"NY","zipCode":"10013","detailsBox":"Sex inventory 4th step literature meeting Meets 1st and 3rd Saturday of the month from noon-1","wheelChair":true,"latLong":{"lat":"40.7208","lng":"-74.0049"}},{"zoneID":2,"meetingID":"1515","streetAddress":"232 West 11th Street","buildingName":"Seventh Day Adventist Church","roomFloor":"","city":"New York","state":"NY","zipCode":"10014","detailsBox":"","wheelChair":false,"latLong":{"lat":"40.7362371953365","lng":"-74.0025217528845"}},{"zoneID":2,"meetingID":"59","streetAddress":"220 West Houston Street","buildingName":"","roomFloor":"2nd Floor","city":"New York","state":"NY","zipCode":"10014","detailsBox":"NOTE: Meeting only meets on the 1st & 3rd Sunday of each month *Big Book Workshop, Meeting ends at Noon.","wheelChair":false,"latLong":{"lat":"40.7286","lng":"-74.0046"}},{"zoneID":2,"meetingID":"1415","streetAddress":"253 Center Street","buildingName":"Golden Bridge Yoga Center","roomFloor":"3rd Floor","city":"New York","state":"NY","zipCode":"10013","detailsBox":"No shoes worn in meeting location. A short meditation opens the meeting.","wheelChair":false,"latLong":{"lat":"40.7206","lng":"-73.998"}},{"zoneID":2,"meetingID":"353","streetAddress":"273 Bowery","buildingName":"University Settlement (The Chinatown YMCA)","roomFloor":"","city":"New York","state":"NY","zipCode":"10002","detailsBox":"Ask front desk for meeting location","wheelChair":true,"latLong":{"lat":"40.7235","lng":"-73.9922"}},{"zoneID":2,"meetingID":"170","streetAddress":"487 Hudson Street","buildingName":"St. Luke's Episcopal School","roomFloor":"Basement","city":"New York","state":"NY","zipCode":"10014","detailsBox":"Mon.Step=Rotates Steps 1,2&3, Fri.= T. Last Friday. Parents with children are welcome.","wheelChair":false,"latLong":{"lat":"40.7326","lng":"-74.0067"}},{"zoneID":2,"meetingID":"173","streetAddress":"292 Henry Street","buildingName":"St. Augustine's Church","roomFloor":"Basement","city":"New York","state":"NY","zipCode":"10002","detailsBox":"Spanish speaking meetings.","wheelChair":true,"latLong":{"lat":"40.7137","lng":"-73.983"}},{"zoneID":2,"meetingID":"217","streetAddress":"232 West 11th Street","buildingName":"Manhattan Church of The Seventh-day Adventist","roomFloor":"","city":"New York","state":"NY","zipCode":"10014","detailsBox":"Topic Meeting for gay men approaching and over 40. All are welcome.","wheelChair":true,"latLong":{"lat":"40.7362371953365","lng":"-74.0025217528845"}},{"zoneID":2,"meetingID":"737","streetAddress":"141 Henry Street","buildingName":"Church of Saint Theresa Rectory","roomFloor":"1st Floor","city":"New York","state":"NY","zipCode":"10002","detailsBox":"","wheelChair":false,"latLong":{"lat":"40.6964","lng":"-73.9934"}},{"zoneID":2,"meetingID":"251","streetAddress":"220 West Houston Street","buildingName":"","roomFloor":"2nd Floor","city":"New York","state":"NY","zipCode":"10014","detailsBox":"Sun.12:30=Meditation, 2am Meetings=Pitch meeting with candlelight. Mon.8pm=Topic, Tues.10pm=T last Tues., Thu.10pm=Problems in Sobriety Sun.8pm=Bus.Meeting last Sun.,Sat.10pm=Anniv.Last","wheelChair":false,"latLong":{"lat":"40.7286","lng":"-74.0046"}},{"zoneID":2,"meetingID":"277","streetAddress":"83 Christopher Street","buildingName":"St. John's Lutheran Church","roomFloor":"Left of Church","city":"New York","state":"NY","zipCode":"10014","detailsBox":"Gay & Lesbian focus.  All are welcome.","wheelChair":false,"latLong":{"lat":"40.7335784357573","lng":"-74.0037470106206"}},{"zoneID":2,"meetingID":"297","streetAddress":"50 Perry Street","buildingName":"","roomFloor":"Ground Floor","city":"New York","state":"NY","zipCode":"10014","detailsBox":"No 8:30 or 10:15 1st Wed of month due to Bus. meeting Wed.10:15pm=No BB 1st Wed.","wheelChair":false,"latLong":{"lat":"40.7355","lng":"-74.0032"}},{"zoneID":2,"meetingID":"583","streetAddress":"232 West 11th Street","buildingName":"Seventh Day Adventist Church","roomFloor":"","city":"New York","state":"NY","zipCode":"10014","detailsBox":"","wheelChair":false,"latLong":{"lat":"40.7362371953365","lng":"-74.0025217528845"}},{"zoneID":2,"meetingID":"311","streetAddress":"224 Waverly Place","buildingName":"St. John's Episcopal Church","roomFloor":"1st Floor Event Room","city":"New York","state":"NY","zipCode":"10014","detailsBox":"Fri.7:00pm=Promises Meeting All meetings are Gay & Lesbian focused.  All are welcome.","wheelChair":false,"latLong":{"lat":"40.7361","lng":"-74.0019"}},{"zoneID":2,"meetingID":"317","streetAddress":"154 Sullivan Street","buildingName":"St. Anthony's of Padua","roomFloor":"","city":"New York","state":"NY","zipCode":"10012","detailsBox":"Wed.=Topic, Thu.=Promises & Fri.=T Last Fri.","wheelChair":false,"latLong":{"lat":"40.6793","lng":"-74.0143"}},{"zoneID":2,"meetingID":"835","streetAddress":"273 Bowery Street","buildingName":"Chinatown YMCA","roomFloor":"","city":"New York","state":"NY","zipCode":"10012","detailsBox":"","wheelChair":true,"latLong":{"lat":"40.7236818990557","lng":"-73.9924846000013"}},{"zoneID":2,"meetingID":"349","streetAddress":"371 6th Avenue","buildingName":"St. Joseph's Church","roomFloor":"Basement","city":"New York","state":"NY","zipCode":"10014","detailsBox":"Gay & Lesbian Focus.  All are welcome.","wheelChair":true,"latLong":{"lat":"40.7325778975834","lng":"-74.0004316773161"}},{"zoneID":2,"meetingID":"359","streetAddress":"155 Sullivan Street","buildingName":"St. Anthony of Padua Church","roomFloor":"Basement","city":"New York","state":"NY","zipCode":"10012","detailsBox":"Mon.7pm=Anniv Last Mon., Fri.6:30pm=Interpreted for Deaf and Hard of Hearing. Friday Meeting occasionally changes the location;  please call New York Inter-Group to confirm meeting location.","wheelChair":false,"latLong":{"lat":"40.6792638294954","lng":"-74.0145383587302"}},{"zoneID":2,"meetingID":"361","streetAddress":"7 East 10th Strert","buildingName":"The Bronfman Cernter @ NYU","roomFloor":"","city":"New York","state":"NY","zipCode":"10003","detailsBox":"Lower level","wheelChair":false,"latLong":{"lat":"40.7333014567065","lng":"-73.9949355719509"}},{"zoneID":2,"meetingID":"1456","streetAddress":"232 West 11th Street","buildingName":"Seventh Adventist Church","roomFloor":"Basement","city":"New York","state":"NY","zipCode":"null","detailsBox":"Literature","wheelChair":false,"latLong":{"lat":"40.7362371953365","lng":"-74.0025217528845"}},{"zoneID":2,"meetingID":"1542","streetAddress":"81 Christopher Street","buildingName":"St. John's Lutheran Church","roomFloor":"","city":"New York","state":"NY","zipCode":"10014","detailsBox":"The speaker will have 10+ years of sobriety. All welcome. Please ring Meeting Bell only","wheelChair":false,"latLong":{"lat":"40.6367336526525","lng":"-74.1643758607423"}},{"zoneID":2,"meetingID":"1405","streetAddress":"273 Bowery","buildingName":"University Settlement (The Chinatown YMCA)","roomFloor":"Downstairs","city":"New York","state":"NY","zipCode":"10002","detailsBox":"Men's Meeting","wheelChair":true,"latLong":{"lat":"40.7236818990557","lng":"-73.9924846000013"}},{"zoneID":2,"meetingID":"1046","streetAddress":"232 West 11th Street","buildingName":"Manhattan Seventh-Day Adventist Church","roomFloor":"","city":"New York","state":"NY","zipCode":"10014","detailsBox":"","wheelChair":false,"latLong":{"lat":"40.7362371953365","lng":"-74.0025217528845"}},{"zoneID":2,"meetingID":"405","streetAddress":"232 West 11th Street","buildingName":"Manhattan Church of The Seventh-day Adventist","roomFloor":"","city":"New York","state":"NY","zipCode":"10014","detailsBox":"","wheelChair":true,"latLong":{"lat":"40.7362371953365","lng":"-74.0025217528845"}},{"zoneID":2,"meetingID":"410","streetAddress":"83 Christopher Street","buildingName":"St. John's Lutheran Church","roomFloor":"Basement","city":"New York","state":"NY","zipCode":"10014","detailsBox":"Focus women 5+ years of sobriety. All are welcome. Enter through Red Door left of church, Buzzer-Meeting Room","wheelChair":true,"latLong":{"lat":"40.7336","lng":"-74.0037"}},{"zoneID":2,"meetingID":"420","streetAddress":"220 West Houston Street","buildingName":"","roomFloor":"2nd Floor","city":"New York","state":"NY","zipCode":"10014","detailsBox":"Women's Meeting","wheelChair":false,"latLong":{"lat":"40.7286","lng":"-74.0046"}},{"zoneID":2,"meetingID":"422","streetAddress":"273 Bowery","buildingName":"University Settlement @ Houston Street Center","roomFloor":"Classroom Floor","city":"New York","state":"NY","zipCode":"10002","detailsBox":"*Women's Meeting Lesbian focus.  All are welcome.","wheelChair":true,"latLong":{"lat":"40.7236818990557","lng":"-73.9924846000013"}},{"zoneID":3,"meetingID":"394","streetAddress":"155 East 22nd Street","buildingName":"Gustavus Adolphus Church","roomFloor":"Basement","city":"New York","state":"NY","zipCode":"10010","detailsBox":"Trad.1st Wed., Fri.=Topic, Sat.=Round Robin Sharing All meetings are non-smoking.","wheelChair":false,"latLong":{"lat":"40.6456241405083","lng":"-73.9566432425704"}},{"zoneID":3,"meetingID":"1463","streetAddress":"61 Fourth Avenue","buildingName":"Three Jewels Community Center","roomFloor":"3rd Floor","city":"New York","state":"NY","zipCode":"10003","detailsBox":"Topic meeting, focus is on meditation Thursday meeting ends at 7:10","wheelChair":false,"latLong":{"lat":"40.6823550359262","lng":"-73.9795868290333"}},{"zoneID":3,"meetingID":"445","streetAddress":"7 East 10th Street","buildingName":"N.Y.U Bronfman Center","roomFloor":"2nd Floor","city":"New York","state":"NY","zipCode":"10003","detailsBox":"Only meets on the 1st Wednesday of the month. A.A.'s 12 Concepts Meeting.","wheelChair":false,"latLong":{"lat":"40.7332540959031","lng":"-73.9948230189705"}},{"zoneID":3,"meetingID":"43","streetAddress":"208 West 13th Street","buildingName":"Lesbian, Gay, Bi-Sexual & Transgender Community Center","roomFloor":"3rd Floor Room #312","city":"New York","state":"NY","zipCode":"10011","detailsBox":"GLBT Focus. All are welcome.","wheelChair":false,"latLong":{"lat":"40.7381015874774","lng":"-74.0009719369804"}},{"zoneID":3,"meetingID":"45","streetAddress":"123 East 15th Street","buildingName":"Seafarers & Intl House","roomFloor":"2nd Floor Conference Room","city":"New York","state":"NY","zipCode":"10003","detailsBox":"","wheelChair":true,"latLong":{"lat":"40.6470987877411","lng":"-73.9654484272783"}},{"zoneID":3,"meetingID":"52","streetAddress":"61 Gramercy Park North","buildingName":"Calvary Church Parish House","roomFloor":"","city":"New York","state":"NY","zipCode":"10010","detailsBox":"","wheelChair":false,"latLong":{"lat":"40.7387150255991","lng":"-73.9865734299535"}},{"zoneID":3,"meetingID":"55","streetAddress":"155 East 22nd Street","buildingName":"Gustavus Adolphus Lutheran Church","roomFloor":"Ground Floor","city":"New York","state":"NY","zipCode":"10010","detailsBox":"","wheelChair":true,"latLong":{"lat":"40.6456241405083","lng":"-73.9566432425704"}},{"zoneID":3,"meetingID":"56","streetAddress":"127 East 22nd Street","buildingName":"Mabel Bacon High School of the Future","roomFloor":"2nd Floor Auditorium","city":"New York","state":"NY","zipCode":"10010","detailsBox":"no entry before 5:30","wheelChair":true,"latLong":{"lat":"40.7389817654159","lng":"-73.985336401427"}},{"zoneID":3,"meetingID":"1431","streetAddress":"602 East 9th Street","buildingName":"Trinity Lower East Side Lutheran Parish","roomFloor":"","city":"New York","state":"NY","zipCode":"10009","detailsBox":"Ground Floor Anniversaries last Thursday of month","wheelChair":true,"latLong":{"lat":"40.7256865491758","lng":"-73.9791544569912"}},{"zoneID":3,"meetingID":"1427","streetAddress":"125 West 14th Street","buildingName":"McBurney YMCA","roomFloor":"Kuttner Room","city":"New York","state":"NY","zipCode":"10011","detailsBox":"","wheelChair":true,"latLong":{"lat":"40.737690789482","lng":"-73.997394196627"}},{"zoneID":3,"meetingID":"1577","streetAddress":"346 West 20th Street","buildingName":"St. Peters Episcopal Church- Rectory","roomFloor":"","city":"New York","state":"NY","zipCode":"10011","detailsBox":"Wed. alternates between Step and Tradition","wheelChair":false,"latLong":{"lat":"40.7440018974012","lng":"-74.0014509597722"}},{"zoneID":3,"meetingID":"76","streetAddress":"125 West 14th Street","buildingName":"McBurney YMCA","roomFloor":"Ground Floor","city":"New York","state":"NY","zipCode":"10011","detailsBox":"Anniv. Last Thursday All Meetings Are Non-Smoking","wheelChair":true,"latLong":{"lat":"40.737690789482","lng":"-73.997394196627"}},{"zoneID":3,"meetingID":"132","streetAddress":"414 East 14th Street","buildingName":"Our Lady of Immaculate Conception","roomFloor":"Auditorium","city":"New York","state":"NY","zipCode":"10009","detailsBox":"","wheelChair":true,"latLong":{"lat":"40.7311439629982","lng":"-73.9822721414822"}},{"zoneID":3,"meetingID":"133","streetAddress":"119 Ninth Avenue","buildingName":"Fulton Senior Center","roomFloor":"","city":"New York","state":"NY","zipCode":"10011","detailsBox":"Non-Smoking Meeting.","wheelChair":true,"latLong":{"lat":"40.7892802585622","lng":"-73.8488782528208"}},{"zoneID":3,"meetingID":"1493","streetAddress":"202 West 24 Street","buildingName":"Christopher House","roomFloor":"Mezzanine","city":"New York","state":"NY","zipCode":"10011","detailsBox":"Check in at front desk all meetings are non-smoking","wheelChair":true,"latLong":{"lat":"40.7447064928879","lng":"-73.9952593824343"}},{"zoneID":3,"meetingID":"140","streetAddress":"28 Gramercy Park South","buildingName":"Brotherhood Synagogue","roomFloor":"1st Floor","city":"New York","state":"NY","zipCode":"10003","detailsBox":"*Open Anniv Last Wednesday Non-Smoking Meeting.","wheelChair":true,"latLong":{"lat":"40.7371581633267","lng":"-73.9853137813165"}},{"zoneID":3,"meetingID":"141","streetAddress":"50 East 7th Street","buildingName":"Middle Collegiate Church","roomFloor":"3rd and 4th floors","city":"New York","state":"NY","zipCode":"10003","detailsBox":"LGBT; all welcome. Tues 7pm=Artists in Recovery, all welcome. 8:30 1st Tues of Month Bus mtg. at 8:05","wheelChair":false,"latLong":{"lat":"40.727842175225","lng":"-73.9880097296677"}},{"zoneID":3,"meetingID":"147","streetAddress":"273 Bowery","buildingName":"University Settlement House","roomFloor":"2nd Floor Classroom","city":"New York","state":"NY","zipCode":"10003","detailsBox":"","wheelChair":true,"latLong":{"lat":"40.7236818990557","lng":"-73.9924846000013"}},{"zoneID":3,"meetingID":"166","streetAddress":"802 Broadway","buildingName":"Grace Church Office Building","roomFloor":"3rd Floor Conference Room","city":"New York","state":"NY","zipCode":"10003","detailsBox":"","wheelChair":true,"latLong":{"lat":"40.7320478046546","lng":"-73.9911904036263"}},{"zoneID":3,"meetingID":"167","streetAddress":"28 Grammercy Park South","buildingName":"Brothhood Synagogue","roomFloor":"2nd Floor","city":"New York","state":"NY","zipCode":"10010","detailsBox":"Last Mon.6:30pm=Anniv Last Thursday Tradition","wheelChair":true,"latLong":{"lat":"40.7371581633267","lng":"-73.9853137813165"}},{"zoneID":3,"meetingID":"438","streetAddress":"209 East 16th Street","buildingName":"Saint George Episcopal Church","roomFloor":"Basement","city":"New York","state":"NY","zipCode":"10003","detailsBox":"Tue.Topic=Gratitude, Thu=11th Step Meditation Meeting,","wheelChair":false,"latLong":{"lat":"40.7346489697825","lng":"-73.9860544344337"}},{"zoneID":3,"meetingID":"177","streetAddress":"44 2nd Avenue","buildingName":"Church of the Nativity","roomFloor":"Main Floor","city":"New York","state":"NY","zipCode":"10003","detailsBox":"Spanish speaking meeting.","wheelChair":false,"latLong":{"lat":"40.5913360380677","lng":"-73.9818486824745"}},{"zoneID":3,"meetingID":"178","streetAddress":"229 West 14th Street","buildingName":"Our Lady of Guadalupe Church","roomFloor":"","city":"New York","state":"NY","zipCode":"10011","detailsBox":"Mon=Step 1st Mon. Spanish speaking meetings.","wheelChair":false,"latLong":{"lat":"40.7389806770461","lng":"-74.0004662035248"}},{"zoneID":3,"meetingID":"201","streetAddress":"229 West 14th Street","buildingName":"Our Lady of Guadalupe Church","roomFloor":"","city":"New York","state":"NY","zipCode":"10011","detailsBox":"Spanish speaking meeting.","wheelChair":false,"latLong":{"lat":"40.7389806770461","lng":"-74.0004662035248"}},{"zoneID":3,"meetingID":"222","streetAddress":"208 West 13th Street","buildingName":"Lesbian, Gay, Bi-Sexual & Transgender Community Center","roomFloor":"","city":"New York","state":"NY","zipCode":"10011","detailsBox":"Interpreted for the deaf and hard of hearing Check listing at the center for the room number.","wheelChair":true,"latLong":{"lat":"40.7381015874774","lng":"-74.0009719369804"}},{"zoneID":3,"meetingID":"228","streetAddress":"28 Gramercy Park South","buildingName":"Brotherhood Synagogue","roomFloor":"","city":"New York","state":"NY","zipCode":"10003","detailsBox":"Please Do Not Call the Synagogue for Meeting Info.","wheelChair":true,"latLong":{"lat":"40.7371581633267","lng":"-73.9853137813165"}},{"zoneID":3,"meetingID":"1462","streetAddress":"208 West 13th Street","buildingName":"Lesbian, Gay, Bisexual, & Transgender Community Center","roomFloor":"Room 212","city":"New York","state":"NY","zipCode":"10001","detailsBox":"LA Transplants/Vistors    All Welcome","wheelChair":true,"latLong":{"lat":"40.7381015874774","lng":"-74.0009719369804"}},{"zoneID":3,"meetingID":"1495","streetAddress":"307 West 26th Street","buildingName":"The Upright Citizens Brigade Theatre","roomFloor":"","city":"New York","state":"NY","zipCode":"10011","detailsBox":"","wheelChair":true,"latLong":{"lat":"40.7473708388913","lng":"-73.9972612945271"}},{"zoneID":3,"meetingID":"1526","streetAddress":"343 West 25th Street","buildingName":"St. Columba Church","roomFloor":"","city":"New York","state":"NY","zipCode":"10001","detailsBox":"","wheelChair":false,"latLong":{"lat":"40.7471694175559","lng":"-73.9987316903289"}},{"zoneID":3,"meetingID":"238","streetAddress":"80 Street Mark's Place","buildingName":"Theatre 80","roomFloor":"2nd Floor","city":"New York","state":"NY","zipCode":"10003","detailsBox":"Tue.7pm=4th & 5th Step Workshop, **Beginners 3 speaker panel Sat.& Sun.10am Meeting is in the main theatre.","wheelChair":false,"latLong":{"lat":"40.6639307188879","lng":"-73.9382749875207"}},{"zoneID":3,"meetingID":"239","streetAddress":"208 West 13th Street","buildingName":"Lesbian, Gay, Bi-Sexual & Transgender Community Center","roomFloor":"","city":"New York","state":"NY","zipCode":"10011","detailsBox":"Gay & lesbian focus.  All are welcome.","wheelChair":true,"latLong":{"lat":"40.7381015874774","lng":"-74.0009719369804"}},{"zoneID":3,"meetingID":"242","streetAddress":"51 East 25th Street","buildingName":"Intercare","roomFloor":"Lower Level","city":"New York","state":"NY","zipCode":"10010","detailsBox":"","wheelChair":true,"latLong":{"lat":"40.7408088821358","lng":"-73.9836251390165"}},{"zoneID":3,"meetingID":"243","streetAddress":"155 East 22nd Street","buildingName":"Gustavus Adolphus Church","roomFloor":"Basement","city":"New York","state":"NY","zipCode":"10010","detailsBox":"Open Anniv Last Tuesday. All meetings are non-smoking.","wheelChair":false,"latLong":{"lat":"40.7385487033475","lng":"-73.9843107652274"}},{"zoneID":3,"meetingID":"268","streetAddress":"7 East 10th Street","buildingName":"Bronfman Center","roomFloor":"2nd Floor (Note: A photo ID is required to enter the building.)","city":"New York","state":"NY","zipCode":"10003","detailsBox":"Tue.2pm=11th Step Meditation, Thu.12:30pm=Topic, Fri.12:30pm Note: There Is No 2:00 Meeting On The Last Day Of The Month Anniv. Last Weekday of the Month","wheelChair":false,"latLong":{"lat":"40.6483895400048","lng":"-73.9705803172279"}},{"zoneID":3,"meetingID":"269","streetAddress":"315 West 22nd Street","buildingName":"German Evangelist Lutheran Church of St. Paul","roomFloor":"1st Floor","city":"New York","state":"NY","zipCode":"10011","detailsBox":"Anniv. Last Thursday","wheelChair":false,"latLong":{"lat":"40.7448881630939","lng":"-73.9993530097064"}},{"zoneID":3,"meetingID":"279","streetAddress":"15 Rutherford Place","buildingName":"Friends Meeting House","roomFloor":"Basement","city":"New York","state":"NY","zipCode":"10003","detailsBox":"T 1st Monday, Anniv Last Friday. All meetings are non-smoking.","wheelChair":false,"latLong":{"lat":"40.7338","lng":"-73.9851"}},{"zoneID":3,"meetingID":"1406","streetAddress":"25 East 15th","buildingName":"The Realization Center","roomFloor":"","city":"New York","state":"NY","zipCode":"10003","detailsBox":"","wheelChair":false,"latLong":{"lat":"40.7365752836269","lng":"-73.9926126552032"}},{"zoneID":3,"meetingID":"286","streetAddress":"175 9th Avenue","buildingName":"General Theological Seminary","roomFloor":"1st and 2nd Floor","city":"New York","state":"NY","zipCode":"10011","detailsBox":"Fri.6pm OD=11th Step Meditation, Fri.7:15pm O=Anniv Last Friday, +HIV Topic LGBTQ Friendly.  All are welcome. Fri 7:15 CD=Relationships in Sobriety Business meeting at Holy Apostoles on 1st Monday a","wheelChair":false,"latLong":{"lat":"40.823374824522","lng":"-73.8091397830108"}},{"zoneID":3,"meetingID":"1416","streetAddress":"19 Union Square West","buildingName":"The Realization Center","roomFloor":"7th Floor Conference Room B","city":"New York","state":"NY","zipCode":"10003","detailsBox":"Women's Meeting except for last Tuesday of the month.","wheelChair":true,"latLong":{"lat":"40.7361","lng":"-73.9912"}},{"zoneID":3,"meetingID":"293","streetAddress":"155 East 22nd Street","buildingName":"Gustavus Adolphus Church","roomFloor":"1st Floor","city":"New York","state":"NY","zipCode":"10010","detailsBox":"Mon.BB Meeting is in the basement, Tue.6:45pm=T Last Tue. Basement is not Wheel Chair Accessible.","wheelChair":false,"latLong":{"lat":"40.7385487033475","lng":"-73.9843107652274"}},{"zoneID":3,"meetingID":"300","streetAddress":"423 East 23rd Street","buildingName":"Veterans Administration Hospital","roomFloor":"3rd fl Conference Room 3076 south","city":"New York","state":"NY","zipCode":"10010","detailsBox":"","wheelChair":true,"latLong":{"lat":"40.7365750204561","lng":"-73.9777724933453"}},{"zoneID":3,"meetingID":"301","streetAddress":"209 East 16th Street","buildingName":"St. George's Church","roomFloor":"Olmstead Hall","city":"New York","state":"NY","zipCode":"10003","detailsBox":"T Last Tuesday, Thu.=Topic","wheelChair":false,"latLong":{"lat":"40.7346489697825","lng":"-73.9860544344337"}},{"zoneID":3,"meetingID":"1587","streetAddress":"411 East 12th Street","buildingName":"","roomFloor":"","city":"New York","state":"NY","zipCode":"10009","detailsBox":"","wheelChair":false,"latLong":{"lat":"40.6395158943622","lng":"-73.9668529481007"}},{"zoneID":3,"meetingID":"322","streetAddress":"209 East 16th Street","buildingName":"St. George's Church","roomFloor":"","city":"New York","state":"NY","zipCode":"10003","detailsBox":"Beginners meeting meets in Olmsted Hall Big Book topic meeting meets in the Music Room","wheelChair":false,"latLong":{"lat":"40.7346489697825","lng":"-73.9860544344337"}},{"zoneID":3,"meetingID":"344","streetAddress":"44 2nd Avenue","buildingName":"Church of the Nativity","roomFloor":"","city":"New York","state":"NY","zipCode":"10003","detailsBox":"","wheelChair":false,"latLong":{"lat":"40.6736416428477","lng":"-73.9926313100494"}},{"zoneID":3,"meetingID":"357","streetAddress":"12 West 11th Street","buildingName":"Church of the Ascension Parish House","roomFloor":"Ground Floor","city":"New York","state":"NY","zipCode":"10011","detailsBox":"T Last Tue., Fri=Topic, Sat=11th Step Meditation","wheelChair":false,"latLong":{"lat":"40.7340978938148","lng":"-73.9954339239964"}},{"zoneID":3,"meetingID":"371","streetAddress":"116 West 11th Street","buildingName":"P.S. 41 (see footnote re: temp location)","roomFloor":"Cafeteria","city":"New York","state":"NY","zipCode":"10011","detailsBox":"TEMPORARILY MEETING AT THE LGBT CENTER 208 W 13TH UNTIL FURTHER NOTICE","wheelChair":true,"latLong":{"lat":"40.7355527136856","lng":"-73.9988979600227"}},{"zoneID":3,"meetingID":"1566","streetAddress":"116 West 11th Street","buildingName":"PS 41 Elementary School","roomFloor":"","city":"New York","state":"NY","zipCode":"10011","detailsBox":"","wheelChair":false,"latLong":{"lat":"40.7355527136856","lng":"-73.9988979600227"}},{"zoneID":3,"meetingID":"744","streetAddress":"239 East 21st Street","buildingName":"Epiphany Roman Catholic Church","roomFloor":"Church Rectory","city":"New York","state":"NY","zipCode":"10009","detailsBox":"","wheelChair":false,"latLong":{"lat":"40.7372618768885","lng":"-73.9831755420921"}},{"zoneID":3,"meetingID":"1042","streetAddress":"80 5th Avenue","buildingName":"","roomFloor":"14th Floor Room #1408C","city":"New York","state":"NY","zipCode":"10011","detailsBox":"","wheelChair":true,"latLong":{"lat":"40.68063295139","lng":"-73.9777099270851"}},{"zoneID":3,"meetingID":"342","streetAddress":"12 West 12th Street","buildingName":"First Presbyterian Church","roomFloor":"6th Floor-Roof Level","city":"New York","state":"NY","zipCode":"10011","detailsBox":"Tue=S Last Tue. & focus is on women with 5 years of sobriety or more.  All are welcome Fri=O Last Fri. & focus is on women with 5 years of sobriety or less.  All are welcome. Friday beginners = Trans Welcome","wheelChair":true,"latLong":{"lat":"40.7347362617638","lng":"-73.9949685934818"}},{"zoneID":3,"meetingID":"354","streetAddress":"208 West 13th Street","buildingName":"Lesbian, Gay, Bi-Sexual & Transgender Community Center","roomFloor":"","city":"New York","state":"NY","zipCode":"10011","detailsBox":"S&M Lifestyles","wheelChair":false,"latLong":{"lat":"40.7381015874774","lng":"-74.0009719369804"}},{"zoneID":3,"meetingID":"443","streetAddress":"155 East 22nd Street","buildingName":"Gustavus Adolphus Church","roomFloor":"","city":"New York","state":"NY","zipCode":"10010","detailsBox":"Meeting In Basement 11th Step Meditation Meeting","wheelChair":false,"latLong":{"lat":"40.7385487033475","lng":"-73.9843107652274"}},{"zoneID":3,"meetingID":"373","streetAddress":"319 Eastr 24th Street","buildingName":"East Midtown Plaza (Community Room H)","roomFloor":"","city":"New York","state":"NY","zipCode":"10010","detailsBox":"","wheelChair":true,"latLong":{"lat":"40.6639307188879","lng":"-73.9382749875207"}},{"zoneID":3,"meetingID":"745","streetAddress":"10 East Union Square","buildingName":"Beth Israel Hospital @ Karpas Cancer Center Library","roomFloor":"4th Floor Conf.Rm.#4A18","city":"New York","state":"NY","zipCode":"10003","detailsBox":"Focus is on dealing with cancer in recovery.  All are welcome","wheelChair":true,"latLong":{"lat":"40.7348417836113","lng":"-73.9897829129804"}},{"zoneID":3,"meetingID":"377","streetAddress":"206-208 East 11th Street","buildingName":"All Saints Ukrainian Orthodox Church","roomFloor":"","city":"New York","state":"NY","zipCode":"10003","detailsBox":"Sunday=As Bill Sees It Ukrainian language translation is available if needed.","wheelChair":false,"latLong":{"lat":"40.6639307188879","lng":"-73.9382749875207"}},{"zoneID":3,"meetingID":"378","streetAddress":"123 East 15th Street","buildingName":"Seafarers & International House","roomFloor":"2nd Floor","city":"New York","state":"NY","zipCode":"10003","detailsBox":"Fri B = 1st Time in AA Only","wheelChair":true,"latLong":{"lat":"40.6470987877411","lng":"-73.9654484272783"}},{"zoneID":3,"meetingID":"381","streetAddress":"411 East 12th Street","buildingName":"","roomFloor":"Basement","city":"New York","state":"NY","zipCode":"10009","detailsBox":"Sun.4:30=Business Mtg Only 1st & Anniv Last Sunday Sun.7:30pm,Tue.5:30,Wed.8:30pm & Sat.10:30am=11th Step Meditation Mon.5:30=Gratitude & Sat.7:30am=AA Grapevine","wheelChair":false,"latLong":{"lat":"40.6395158943622","lng":"-73.9668529481007"}},{"zoneID":3,"meetingID":"152","streetAddress":"125 West 14th Street","buildingName":"McBurney YMCA","roomFloor":"1st Floor Meeting Room","city":"New York","state":"NY","zipCode":"10011","detailsBox":"","wheelChair":true,"latLong":{"lat":"40.737690789482","lng":"-73.997394196627"}},{"zoneID":3,"meetingID":"1522","streetAddress":"208 West 13th Street","buildingName":"LGBT Community Center","roomFloor":"","city":"New York","state":"NY","zipCode":"10011","detailsBox":"Trans-female focus","wheelChair":true,"latLong":{"lat":"40.7381015874774","lng":"-74.0009719369804"}},{"zoneID":3,"meetingID":"392","streetAddress":"10 Union Square East","buildingName":"Beth Israel Phillips Ambulatory Center","roomFloor":"2nd Floor Conference Room #3","city":"New York","state":"NY","zipCode":"10003","detailsBox":"","wheelChair":true,"latLong":{"lat":"40.7348417836113","lng":"-73.9897829129804"}},{"zoneID":3,"meetingID":"1037","streetAddress":"155 West 22nd Street","buildingName":"St. Francis Residence","roomFloor":"1st Floor","city":"New York","state":"NY","zipCode":"10011","detailsBox":"","wheelChair":true,"latLong":{"lat":"40.742975462255","lng":"-73.9948187519044"}},{"zoneID":3,"meetingID":"397","streetAddress":"208 West 13th Street","buildingName":"Lesbian, Gay, Bi-Sexual & Transgender Community Center","roomFloor":"","city":"New York","state":"NY","zipCode":"10011","detailsBox":"Sun.5:30pm meets only on the last Sunday of the month No Prayers - All Welcome - Check listing for Rm #","wheelChair":false,"latLong":{"lat":"40.7381015874774","lng":"-74.0009719369804"}},{"zoneID":3,"meetingID":"398","streetAddress":"12 West 12th Street","buildingName":"First Presbyterian Church","roomFloor":"Third Floor","city":"New York","state":"NY","zipCode":"10011","detailsBox":"1st & 3rd Wk=Step/Big Book , 2nd & 4th Wk=Promises","wheelChair":true,"latLong":{"lat":"40.7347362617638","lng":"-73.9949685934818"}},{"zoneID":3,"meetingID":"1466","streetAddress":"20 Washington Square North","buildingName":"The Caring Community","roomFloor":"2nd Floor","city":"New York","state":"NY","zipCode":"10011","detailsBox":"","wheelChair":true,"latLong":{"lat":"40.7319","lng":"-73.9978"}},{"zoneID":3,"meetingID":"837","streetAddress":"344 East 14th Street","buildingName":"14th Street Y","roomFloor":"","city":"New York","state":"NY","zipCode":"10003","detailsBox":"Please Do Not Call the Y for Meeting Info.","wheelChair":true,"latLong":{"lat":"40.6411745150501","lng":"-73.9654592524133"}},{"zoneID":3,"meetingID":"407","streetAddress":"155 West 22nd Street","buildingName":"St. Francis Residence","roomFloor":"1st Floor","city":"New York","state":"NY","zipCode":"10011","detailsBox":"","wheelChair":false,"latLong":{"lat":"40.742975462255","lng":"-73.9948187519044"}},{"zoneID":3,"meetingID":"416","streetAddress":"208 West 13th Street","buildingName":"Lesbian, Gay, Bi-Sexual & Transgender Community Center","roomFloor":"","city":"New York","state":"NY","zipCode":"10011","detailsBox":"Lesbian and gay focus.  All are welcome Meeting format is \"Round Robin.\"","wheelChair":true,"latLong":{"lat":"40.7381015874774","lng":"-74.0009719369804"}},{"zoneID":3,"meetingID":"415","streetAddress":"602 East 9th Street","buildingName":"Trinity Lutheran Church","roomFloor":"Ground Floor","city":"New York","state":"NY","zipCode":"10009","detailsBox":"","wheelChair":true,"latLong":{"lat":"40.7256865491758","lng":"-73.9791544569912"}},{"zoneID":3,"meetingID":"418","streetAddress":"208 West 13th Street","buildingName":"Gay, Lesbian, Bi-Sexual & Transgender Community Center","roomFloor":"","city":"New York","state":"NY","zipCode":"10011","detailsBox":"Topic Meeting & Anniv. Last Tuesday.","wheelChair":false,"latLong":{"lat":"40.7381015874774","lng":"-74.0009719369804"}},{"zoneID":3,"meetingID":"421","streetAddress":"208 West 13th Street","buildingName":"Lesbian, Gay, Bi-Sexual & Transgender Community Center","roomFloor":"","city":"New York","state":"NY","zipCode":"10011","detailsBox":"Women's Meeting Lesbian Focus.  All are welcome","wheelChair":true,"latLong":{"lat":"40.7381015874774","lng":"-74.0009719369804"}},{"zoneID":3,"meetingID":"427","streetAddress":"19 Union Square West","buildingName":"Realization Center","roomFloor":"7th Floor Ask for room #.","city":"New York","state":"NY","zipCode":"10003","detailsBox":"11th Step Meditation Meeting.","wheelChair":true,"latLong":{"lat":"40.7360946967377","lng":"-73.9912290994142"}},{"zoneID":3,"meetingID":"1535","streetAddress":"173 East 3rd Street","buildingName":"Most Holy Redeemer Church","roomFloor":"","city":"New York","state":"NY","zipCode":"10009","detailsBox":"Rotating Literature","wheelChair":false,"latLong":{"lat":"40.6478013436514","lng":"-73.9781507315578"}},{"zoneID":3,"meetingID":"433","streetAddress":"50 East 7th Street","buildingName":"Middle Collegiate Church ","roomFloor":"","city":"New York","state":"NY","zipCode":"10003","detailsBox":"Basement","wheelChair":false,"latLong":{"lat":"40.727842175225","lng":"-73.9880097296677"}},{"zoneID":4,"meetingID":"159","streetAddress":"252 West 46th Street","buildingName":"46th Street Club House","roomFloor":"3rd Floor","city":"New York","state":"NY","zipCode":"10036","detailsBox":"","wheelChair":false,"latLong":{"lat":"40.7591895426735","lng":"-73.9867385774772"}},{"zoneID":4,"meetingID":"29","streetAddress":"303 West 42nd Street","buildingName":"","roomFloor":"Room #404","city":"New York","state":"NY","zipCode":"10036","detailsBox":"Sat=A.A. Literature","wheelChair":false,"latLong":{"lat":"40.7573472021927","lng":"-73.9898278386809"}},{"zoneID":4,"meetingID":"1146","streetAddress":"303 West 42nd Street","buildingName":"","roomFloor":"3rd Floor Room #306","city":"New York","state":"NY","zipCode":"10036","detailsBox":"Sun=11th Step, Wed=Gratitude, Thu=Daily Reflections","wheelChair":false,"latLong":{"lat":"40.7573472021927","lng":"-73.9898278386809"}},{"zoneID":4,"meetingID":"39","streetAddress":"305 7th Avenue","buildingName":"S.A.G.E.","roomFloor":"6th Floor","city":"New York","state":"NY","zipCode":"10001","detailsBox":"","wheelChair":true,"latLong":{"lat":"40.6674893549871","lng":"-73.9809602387341"}},{"zoneID":4,"meetingID":"582","streetAddress":"1 West 53rd Street","buildingName":"Saint Thomas Church","roomFloor":"3rd Floor Andrew Hall","city":"New York","state":"NY","zipCode":"10019","detailsBox":"Gay & Lesbian Focus.  All are welcome.","wheelChair":true,"latLong":{"lat":"40.7605078757684","lng":"-73.9758124645304"}},{"zoneID":4,"meetingID":"44","streetAddress":"303 West 42nd Street","buildingName":"","roomFloor":"3rd Floor Room #306","city":"New York","state":"NY","zipCode":"10036","detailsBox":"Sun.2pm=Women's Meeting","wheelChair":false,"latLong":{"lat":"40.7573472021927","lng":"-73.9898278386809"}},{"zoneID":4,"meetingID":"47","streetAddress":"133 West 46th Street","buildingName":"St. Mary the Virgin Church","roomFloor":"3rd Floor","city":"New York","state":"NY","zipCode":"10036","detailsBox":"T Last Thursday All meetings are non-smoking.","wheelChair":false,"latLong":{"lat":"40.7578644754971","lng":"-73.9831494978391"}},{"zoneID":4,"meetingID":"49","streetAddress":"441 West 26th Street","buildingName":"Hudson Guild","roomFloor":"2nd Floor Activity Room A","city":"New York","state":"NY","zipCode":"10001","detailsBox":"","wheelChair":true,"latLong":{"lat":"40.7491018941578","lng":"-74.001388696334"}},{"zoneID":4,"meetingID":"50","streetAddress":"446 West 33rd Street","buildingName":"GMHC","roomFloor":"6th Floor Room #6046","city":"New York","state":"NY","zipCode":"10001","detailsBox":"Gay & Lesbian focus.  All are welcome.","wheelChair":true,"latLong":{"lat":"40.7534748563734","lng":"-73.9988113218168"}},{"zoneID":4,"meetingID":"1208","streetAddress":"252 West 46th Street","buildingName":"46th Street Clubhouse","roomFloor":"3rd Floor","city":"New York","state":"NY","zipCode":"10036","detailsBox":"All are welcome.","wheelChair":false,"latLong":{"lat":"40.7591895426735","lng":"-73.9867385774772"}},{"zoneID":4,"meetingID":"113","streetAddress":"422 West 57th Street","buildingName":"Trinity Presbyterian Church","roomFloor":"Upstairs","city":"New York","state":"NY","zipCode":"10019","detailsBox":"","wheelChair":false,"latLong":{"lat":"40.7681070513278","lng":"-73.9863970797226"}},{"zoneID":4,"meetingID":"571","streetAddress":"252 West 46th Street","buildingName":"46th Street Club House","roomFloor":"3rd Floor","city":"New York","state":"NY","zipCode":"10036","detailsBox":"","wheelChair":false,"latLong":{"lat":"40.7591895426735","lng":"-73.9867385774772"}},{"zoneID":4,"meetingID":"1449","streetAddress":"303 West 42nd Street","buildingName":"","roomFloor":"","city":"New York","state":"NY","zipCode":"10036","detailsBox":"","wheelChair":false,"latLong":{"lat":"40.7573472021927","lng":"-73.9898278386809"}},{"zoneID":4,"meetingID":"62","streetAddress":"139 West 31st Street","buildingName":"St. Francis of Assisi Education Center","roomFloor":"3rd Floor","city":"New York","state":"NY","zipCode":"10001","detailsBox":"No Meeting on Legal Holidays All meetings are non-smoking.","wheelChair":false,"latLong":{"lat":"40.7484468866129","lng":"-73.9902352468194"}},{"zoneID":4,"meetingID":"60","streetAddress":"339 West 47th Street","buildingName":"The Actor's Temple","roomFloor":"","city":"New York","state":"NY","zipCode":"10036","detailsBox":"Non-Smoking Meeting.","wheelChair":false,"latLong":{"lat":"40.7609549990382","lng":"-73.9885447699323"}},{"zoneID":4,"meetingID":"569","streetAddress":"252 West 46th Street","buildingName":"46th Street Club House","roomFloor":"3rd Floor","city":"New York","state":"NY","zipCode":"10036","detailsBox":"Readings from Living Sober","wheelChair":false,"latLong":{"lat":"40.7591895426735","lng":"-73.9867385774772"}},{"zoneID":4,"meetingID":"131","streetAddress":"211 West 30th Street","buildingName":"St. John's Hall","roomFloor":"","city":"New York","state":"NY","zipCode":"10001","detailsBox":"","wheelChair":false,"latLong":{"lat":"40.7486793956479","lng":"-73.9927286472649"}},{"zoneID":4,"meetingID":"135","streetAddress":"252 West 46th Street","buildingName":"46th Street Club House","roomFloor":"3rd Floor","city":"New York","state":"NY","zipCode":"10036","detailsBox":"Women's Meeting","wheelChair":false,"latLong":{"lat":"40.7591895426735","lng":"-73.9867385774772"}},{"zoneID":4,"meetingID":"1048","streetAddress":"1 West 53rd Street","buildingName":"St. Thomas Church","roomFloor":"3rd Floor","city":"New York","state":"NY","zipCode":"10019","detailsBox":"","wheelChair":true,"latLong":{"lat":"40.7605078757684","lng":"-73.9758124645304"}},{"zoneID":4,"meetingID":"153","streetAddress":"422 West 57th Street","buildingName":"Trinity Presbyterian Church","roomFloor":"","city":"New York","state":"NY","zipCode":"10019","detailsBox":"Tue.12:30 = T 1st Tuesday Beginners upstairs; other meetings in the chapel","wheelChair":false,"latLong":{"lat":"40.7681070513278","lng":"-73.9863970797226"}},{"zoneID":4,"meetingID":"156","streetAddress":"7 West 55th Street","buildingName":"Fifth Av Presbyterian Church","roomFloor":"5th Floor","city":"New York","state":"NY","zipCode":"10019","detailsBox":"Monday thru Thursday Beginners Meeting 5th floor Monday thru Thursday Open Discussion 3rd floor Wednesday Step Meeting","wheelChair":true,"latLong":{"lat":"40.7618390938974","lng":"-73.975091742462"}},{"zoneID":4,"meetingID":"157","streetAddress":"252 West 46th Street","buildingName":"46th Street Club House","roomFloor":"","city":"New York","state":"NY","zipCode":"10036","detailsBox":"","wheelChair":false,"latLong":{"lat":"40.7591895426735","lng":"-73.9867385774772"}},{"zoneID":4,"meetingID":"169","streetAddress":"729 7th Avenue","buildingName":"The Actors Fund of America","roomFloor":"10th Floor small conference room","city":"New York","state":"NY","zipCode":"10019","detailsBox":"Focus is on those in the entertainment industry.  All are welcome. As Bill Sees It","wheelChair":true,"latLong":{"lat":"40.760037679013","lng":"-73.9839212337742"}},{"zoneID":4,"meetingID":"171","streetAddress":"538 West 47th Street","buildingName":"Apartment Building","roomFloor":"","city":"New York","state":"NY","zipCode":"10036","detailsBox":"All meetings are Open Discussion format.","wheelChair":false,"latLong":{"lat":"40.763245485234","lng":"-73.9944361996955"}},{"zoneID":4,"meetingID":"220","streetAddress":"1000 Tenth Avenue","buildingName":"Mount Sinai - Roosevelt Hospital","roomFloor":"8th Floor Room #8G49","city":"New York","state":"NY","zipCode":"10019","detailsBox":"Anniv. 1st Monday, T 2nd & S Last Thursday, NOTE: On legal holidays, the meeting meets on the 1st Floor (Ask for the room at the reception desk)","wheelChair":true,"latLong":{"lat":"40.7700536177104","lng":"-73.9877635987168"}},{"zoneID":4,"meetingID":"221","streetAddress":"303 West 42nd Street","buildingName":"","roomFloor":"3rd Floor Room #306","city":"New York","state":"NY","zipCode":"10036","detailsBox":"","wheelChair":false,"latLong":{"lat":"40.7573472021927","lng":"-73.9898278386809"}},{"zoneID":4,"meetingID":"572","streetAddress":"252 West 46th Street","buildingName":"46th Street Club House","roomFloor":"3rd Floor","city":"New York","state":"NY","zipCode":"10036","detailsBox":"Big Book Workshop","wheelChair":false,"latLong":{"lat":"40.7591895426735","lng":"-73.9867385774772"}},{"zoneID":4,"meetingID":"231","streetAddress":"307 West 26th Street","buildingName":"Upright Citizens Brigade Theatre","roomFloor":"","city":"New York","state":"NY","zipCode":"10001","detailsBox":"All meetings are non-smoking.","wheelChair":false,"latLong":{"lat":"40.7473708388913","lng":"-73.9972612945271"}},{"zoneID":4,"meetingID":"1450","streetAddress":"405 West 59th Street","buildingName":"St. Paul's Episcopal Parish House","roomFloor":"","city":"New York","state":"NY","zipCode":"10019","detailsBox":"Room LL2","wheelChair":true,"latLong":{"lat":"40.7697787078634","lng":"-73.9858686267659"}},{"zoneID":4,"meetingID":"253","streetAddress":"303 West 42nd Street","buildingName":"","roomFloor":"","city":"New York","state":"NY","zipCode":"10036","detailsBox":"T Last Sunday, Mon=Came To Believe, Last Sat. Open Anniversary Last Sat. meets at 252 West 46th Street","wheelChair":false,"latLong":{"lat":"40.7573472021927","lng":"-73.9898278386809"}},{"zoneID":4,"meetingID":"254","streetAddress":"422 West 57th Street","buildingName":"Trinity Presbyterian Church ","roomFloor":"","city":"New York","state":"NY","zipCode":"10019","detailsBox":"Open on Holidays.","wheelChair":true,"latLong":{"lat":"40.7681070513278","lng":"-73.9863970797226"}},{"zoneID":4,"meetingID":"1200","streetAddress":"133 West 46th Street","buildingName":"St. Mary the Virgin Church","roomFloor":"3rd Floor","city":"New York","state":"NY","zipCode":"10036","detailsBox":"","wheelChair":false,"latLong":{"lat":"40.7578644754971","lng":"-73.9831494978391"}},{"zoneID":4,"meetingID":"273","streetAddress":"133 West 46th Street","buildingName":"St. Mary the Virgin Church","roomFloor":"2nd and 3rd Floor","city":"New York","state":"NY","zipCode":"10036","detailsBox":"Tue.Step=#'s 4-7, Wed.5:30=Grapevine Topic, Thu.12:30 Step=#'s 4-7 Thu.5:30=T last Thu.,Fri.BB=T last Fri. Fri.Step=#'s 8-12","wheelChair":false,"latLong":{"lat":"40.7578644754971","lng":"-73.9831494978391"}},{"zoneID":4,"meetingID":"561","streetAddress":"303 West 42nd Street","buildingName":"","roomFloor":"Room #306","city":"New York","state":"NY","zipCode":"10036","detailsBox":"","wheelChair":false,"latLong":{"lat":"40.7573472021927","lng":"-73.9898278386809"}},{"zoneID":4,"meetingID":"285","streetAddress":"296 9th Avenue","buildingName":"Holy Apostles Church Rectory","roomFloor":"2nd Floor","city":"New York","state":"NY","zipCode":"10001","detailsBox":"Business meeting held on 1st Monday at 7:45pm LGBTQ Friendly.  All are welcome.","wheelChair":false,"latLong":{"lat":"40.7493642017494","lng":"-73.9991233310954"}},{"zoneID":4,"meetingID":"287","streetAddress":"139 West 31st Street","buildingName":"St. Francis of Assisi Center","roomFloor":"3rd Floor","city":"New York","state":"NY","zipCode":"10001","detailsBox":"All meetings are non-smoking.","wheelChair":false,"latLong":{"lat":"40.7484468866129","lng":"-73.9902352468194"}},{"zoneID":4,"meetingID":"1400","streetAddress":"1 West 53rd Street","buildingName":"St. Thomas Church","roomFloor":"3rd Floor","city":"New York","state":"NY","zipCode":"10019","detailsBox":"","wheelChair":true,"latLong":{"lat":"40.7605078757684","lng":"-73.9758124645304"}},{"zoneID":4,"meetingID":"302","streetAddress":"484 West 43rd Street","buildingName":"Manhattan Plaza Health Club","roomFloor":"1st Floor","city":"New York","state":"NY","zipCode":"10036","detailsBox":"Fri=Living Sober, Sat=Promises","wheelChair":true,"latLong":{"lat":"40.7600416876915","lng":"-73.9946015443691"}},{"zoneID":4,"meetingID":"304","streetAddress":"7 West 55th Street","buildingName":"Fifth Av Presbyterian Church","roomFloor":"","city":"New York","state":"NY","zipCode":"10019","detailsBox":"","wheelChair":true,"latLong":{"lat":"40.7618390938974","lng":"-73.975091742462"}},{"zoneID":4,"meetingID":"568","streetAddress":"252 West 46th Street","buildingName":"46th Street Club House","roomFloor":"3rd Floor","city":"New York","state":"NY","zipCode":"10036","detailsBox":"","wheelChair":false,"latLong":{"lat":"40.7591895426735","lng":"-73.9867385774772"}},{"zoneID":4,"meetingID":"307","streetAddress":"252 West 46th Street","buildingName":"46th Street Club House","roomFloor":"3rd Floor","city":"New York","state":"NY","zipCode":"10036","detailsBox":"Gay, Lesbian, Bisexual & Transgender Focus.  All are welcome. *Last Saturday of month=\"Open Anniversary\"","wheelChair":false,"latLong":{"lat":"40.7591895426735","lng":"-73.9867385774772"}},{"zoneID":4,"meetingID":"312","streetAddress":"4 West 43rd Street","buildingName":"The Learning Center","roomFloor":"","city":"New York","state":"NY","zipCode":"10017","detailsBox":"","wheelChair":true,"latLong":{"lat":"40.7541070968091","lng":"-73.9805131973307"}},{"zoneID":4,"meetingID":"573","streetAddress":"252 West 46th Street","buildingName":"46th Street Club House","roomFloor":"3rd Floor","city":"New York","state":"NY","zipCode":"10036","detailsBox":"Rotating Step meeting.","wheelChair":false,"latLong":{"lat":"40.7591895426735","lng":"-73.9867385774772"}},{"zoneID":4,"meetingID":"1356","streetAddress":"296 Ninth Avenue","buildingName":"Church of The Holy Apostles","roomFloor":"Rectory 1st Floor","city":"New York","state":"NY","zipCode":"10001","detailsBox":"Topic meeting, focus is on Spirituality","wheelChair":false,"latLong":{"lat":"40.7493642017494","lng":"-73.9991233310954"}},{"zoneID":4,"meetingID":"364","streetAddress":"1 West 53rd Street","buildingName":"St. Thomas Church Parish House","roomFloor":"3rd Floor","city":"New York","state":"NY","zipCode":"10019","detailsBox":"Round Robin Meeting.","wheelChair":false,"latLong":{"lat":"40.7605078757684","lng":"-73.9758124645304"}},{"zoneID":4,"meetingID":"365","streetAddress":"210 West 31st Street","buildingName":"St. John the Baptist Church","roomFloor":"Basement (On Left)","city":"New York","state":"NY","zipCode":"10001","detailsBox":"T Last Thursday; S other Thursdays All meetings are non-smoking.","wheelChair":false,"latLong":{"lat":"40.7491443998598","lng":"-73.9923418714109"}},{"zoneID":4,"meetingID":"142","streetAddress":"422 West 57th Street","buildingName":"Trinity Presbyterian Church","roomFloor":"","city":"New York","state":"NY","zipCode":"10019","detailsBox":"T-1st Wednesday","wheelChair":false,"latLong":{"lat":"40.7681070513278","lng":"-73.9863970797226"}},{"zoneID":4,"meetingID":"574","streetAddress":"252 West 46th Street","buildingName":"46th Street Club House","roomFloor":"3rd Floor","city":"New York","state":"NY","zipCode":"10036","detailsBox":"","wheelChair":false,"latLong":{"lat":"40.7591895426735","lng":"-73.9867385774772"}},{"zoneID":4,"meetingID":"1481","streetAddress":"134 West 29th Street","buildingName":"","roomFloor":"2nd Floor Studio 203","city":"New York","state":"NY","zipCode":"10001","detailsBox":"Agnostic- no prayer","wheelChair":true,"latLong":{"lat":"40.7469927833142","lng":"-73.9910926609818"}},{"zoneID":4,"meetingID":"408","streetAddress":"1000 Tenth Avenue","buildingName":"Mount Sinai - Roosevelt Hospital","roomFloor":"8th Fl Room #8G-49","city":"New York","state":"NY","zipCode":"10019","detailsBox":"","wheelChair":true,"latLong":{"lat":"40.7700536177104","lng":"-73.9877635987168"}},{"zoneID":4,"meetingID":"419","streetAddress":"446 West 33rd Street","buildingName":"GMHC","roomFloor":"","city":"New York","state":"NY","zipCode":"10001","detailsBox":"S 1st, C 2nd, BB 3rd, O Anniversary Meeting 4th Friday Women's Meeting.","wheelChair":true,"latLong":{"lat":"40.7534748563734","lng":"-73.9988113218168"}},{"zoneID":4,"meetingID":"436","streetAddress":"423 West 46th Street","buildingName":"St. Clements Church","roomFloor":"","city":"New York","state":"NY","zipCode":"10036","detailsBox":"","wheelChair":true,"latLong":{"lat":"40.7614822876876","lng":"-73.9917070561952"}},{"zoneID":4,"meetingID":"1438","streetAddress":"252 West 46th Street","buildingName":"46th Street Club House","roomFloor":"3rd Floor","city":"New York","state":"NY","zipCode":"10036","detailsBox":"Young People BB Meeting","wheelChair":false,"latLong":{"lat":"40.7591895426735","lng":"-73.9867385774772"}},{"zoneID":5,"meetingID":"37","streetAddress":"122 East 37th Street","buildingName":"","roomFloor":"Basement","city":"New York","state":"NY","zipCode":"10016","detailsBox":"FRONT BASEMENT ONLY","wheelChair":false,"latLong":{"lat":"40.6540144942404","lng":"-73.9432341596893"}},{"zoneID":5,"meetingID":"63","streetAddress":"30 East 35th Street","buildingName":"","roomFloor":"","city":"New York","state":"NY","zipCode":"10016","detailsBox":"All meetings are Round Robin format except Thursday. Tue=Alternating Step/Trad.","wheelChair":false,"latLong":{"lat":"40.7481488985518","lng":"-73.9820319171686"}},{"zoneID":5,"meetingID":"70","streetAddress":"350 East 56th Street","buildingName":"Cathedral High School","roomFloor":"","city":"New York","state":"NY","zipCode":"10022","detailsBox":"3rd Floor library","wheelChair":false,"latLong":{"lat":"40.6492985267749","lng":"-73.9243803052476"}},{"zoneID":5,"meetingID":"98","streetAddress":"619 Lexington Avenue","buildingName":"St. Peter's Lutheran Church @ Citicorp Center","roomFloor":"Lower Level Music Rooms","city":"New York","state":"NY","zipCode":"10022","detailsBox":"T -7:30am last Mon., Anniv -12:30 Last Thursday","wheelChair":false,"latLong":{"lat":"40.7588098853474","lng":"-73.9704556871007"}},{"zoneID":5,"meetingID":"134","streetAddress":"122 East 37th Street","buildingName":"","roomFloor":"Basement","city":"New York","state":"NY","zipCode":"10016","detailsBox":"Wed.6:15 BB=OD Big Book Study Fri.7:30pm=Anniv. Meeting every Fri.","wheelChair":false,"latLong":{"lat":"40.6540144942404","lng":"-73.9432341596893"}},{"zoneID":5,"meetingID":"145","streetAddress":"28 East 35th Street","buildingName":"J.H. Holmes Community House","roomFloor":"","city":"New York","state":"NY","zipCode":"10016","detailsBox":"T Last Wednesday","wheelChair":false,"latLong":{"lat":"40.6540370303515","lng":"-73.9451809146884"}},{"zoneID":5,"meetingID":"165","streetAddress":"350 East 56th Street","buildingName":"Cathedral High School ","roomFloor":"","city":"New York","state":"NY","zipCode":"10022","detailsBox":"Beginners Meeting 2nd & 4th Sunday Step Meeting 1st &3rd Sunday","wheelChair":false,"latLong":{"lat":"40.6492985267749","lng":"-73.9243803052476"}},{"zoneID":5,"meetingID":"168","streetAddress":"283 Lexington Avenue","buildingName":"Soldiers, Sailors, Marines & Airmen's Club","roomFloor":"2nd Floor","city":"New York","state":"NY","zipCode":"10016","detailsBox":"T=Last Tuesday, Fri=Anniv. 2nd to Last Friday. All meetings are non-smoking.","wheelChair":false,"latLong":{"lat":"40.748","lng":"-73.9784"}},{"zoneID":5,"meetingID":"441","streetAddress":"122 East 37th Street","buildingName":"","roomFloor":"Basement","city":"New York","state":"NY","zipCode":"10016","detailsBox":"Portugese speaking meeting.","wheelChair":false,"latLong":{"lat":"40.6540144942404","lng":"-73.9432341596893"}},{"zoneID":5,"meetingID":"235","streetAddress":"619 Lexington Avenue","buildingName":"St. Peter's Lutheran Church @ CitiCorp Center","roomFloor":"Lower Level 2 in The Studio","city":"New York","state":"NY","zipCode":"10022","detailsBox":"All meetings are non-smoking.","wheelChair":true,"latLong":{"lat":"40.7588098853474","lng":"-73.9704556871007"}},{"zoneID":5,"meetingID":"240","streetAddress":"141 East 43rd Street","buildingName":"Saint Agnes Church","roomFloor":"Basement Hall elevator is available.","city":"New York","state":"NY","zipCode":"10017","detailsBox":"Enter main Church entrance, turn left, meeting is downstairs. T 3rd Wed. Open Anniv. or Open Disc. Meeting last Fri.","wheelChair":true,"latLong":{"lat":"40.6523881959639","lng":"-73.9371587997014"}},{"zoneID":5,"meetingID":"1441","streetAddress":"122 East 37th Street","buildingName":"MUSTARD SEED","roomFloor":"","city":"New York","state":"NY","zipCode":"10016","detailsBox":"","wheelChair":false,"latLong":{"lat":"40.6540144942404","lng":"-73.9432341596893"}},{"zoneID":5,"meetingID":"247","streetAddress":"122 East 37th Street","buildingName":"Mustard Seed","roomFloor":"","city":"New York","state":"NY","zipCode":"10016","detailsBox":"11th S Meditation ENT BASEMENT ONLY","wheelChair":false,"latLong":{"lat":"40.6540144942404","lng":"-73.9432341596893"}},{"zoneID":5,"meetingID":"258","streetAddress":"141 East 43rd Street","buildingName":"St. Agnes Church","roomFloor":"","city":"New York","state":"NY","zipCode":"10017","detailsBox":"","wheelChair":false,"latLong":{"lat":"40.7519228249496","lng":"-73.9748688424442"}},{"zoneID":5,"meetingID":"264","streetAddress":"209 Madison Avenue","buildingName":"Church of the Incarnation","roomFloor":"2nd Floor","city":"New York","state":"NY","zipCode":"10016","detailsBox":"No Meetings on Legal Holidays.","wheelChair":false,"latLong":{"lat":"40.7486","lng":"-73.9821"}},{"zoneID":5,"meetingID":"265","streetAddress":"122 East 37th Street","buildingName":"","roomFloor":"Basement","city":"New York","state":"NY","zipCode":"10016","detailsBox":"Sun.7:30am,Tue.6:15pm B & Wed.6:15pm C =Meditation Wkshp., Sun.9:30am Step=Back to Basics, Fri.7:30pm=Anniv.every Fri. Thurs. 8am back room, Gratitude","wheelChair":false,"latLong":{"lat":"40.7484070354431","lng":"-73.9788161102815"}},{"zoneID":5,"meetingID":"323","streetAddress":"240 East 31st Street","buildingName":"Church of the Good Shepherd","roomFloor":"","city":"New York","state":"NY","zipCode":"10016","detailsBox":"Focus is on members under 60 days.  All are welcome. Anniversaries last week of month","wheelChair":true,"latLong":{"lat":"40.6447359577704","lng":"-73.9480330026725"}},{"zoneID":5,"meetingID":"1141","streetAddress":"619 Lexington Avenue","buildingName":"St. Peter's Lutheran Church @ CitiCorp Center","roomFloor":"Lower Level","city":"New York","state":"NY","zipCode":"10022","detailsBox":"Living Sober","wheelChair":true,"latLong":{"lat":"40.6894456672046","lng":"-73.9367719544511"}},{"zoneID":5,"meetingID":"341","streetAddress":"114 East 35th Street","buildingName":"The New York New Church","roomFloor":"2nd Floor","city":"New York","state":"NY","zipCode":"10016","detailsBox":"","wheelChair":true,"latLong":{"lat":"40.6525273050912","lng":"-73.9450186857815"}},{"zoneID":5,"meetingID":"346","streetAddress":"230 East 60th Street","buildingName":"ALL SAINTS CHURCH","roomFloor":"","city":"New York","state":"NY","zipCode":"10022","detailsBox":"Fri.6:30=Steps 3 & 11","wheelChair":false,"latLong":{"lat":"40.7618052824589","lng":"-73.9654716790864"}},{"zoneID":5,"meetingID":"1581","streetAddress":"244 East 58th Street","buildingName":"Caron Foundation","roomFloor":"","city":"New York","state":"NY","zipCode":"10022","detailsBox":"","wheelChair":true,"latLong":{"lat":"40.6498884631618","lng":"-73.9225346093351"}},{"zoneID":5,"meetingID":"350","streetAddress":"619 Lexington Avenue","buildingName":"St. Peter's Lutheran Church @ CitiCorp Center","roomFloor":"Lower Level","city":"New York","state":"NY","zipCode":"10022","detailsBox":"Women's Meeting.","wheelChair":true,"latLong":{"lat":"40.6894","lng":"-73.9368"}},{"zoneID":5,"meetingID":"362","streetAddress":"325 Park Avenue","buildingName":"St. Bartholomew's Church","roomFloor":"","city":"New York","state":"NY","zipCode":"10022","detailsBox":"Anniv. Last Mon., T-Last Wed., Topic-Last Fri. All meetings are OPEN to Public NOTE: Monday & Wednesday in Choir Room. Friday in Vestry Room. Also check the Board at Church entrance.","wheelChair":false,"latLong":{"lat":"40.7574634720886","lng":"-73.9733951693811"}},{"zoneID":5,"meetingID":"1516","streetAddress":"236 East 31st Street","buildingName":"CHURCH OF THE GOOD SHEPARD","roomFloor":"basement","city":"New York","state":"NY","zipCode":"10016","detailsBox":"","wheelChair":false,"latLong":{"lat":"40.6448441059185","lng":"-73.9480450026725"}},{"zoneID":5,"meetingID":"379","streetAddress":"308 East 55th Street","buildingName":"Conservative Synagogue","roomFloor":"","city":"New York","state":"NY","zipCode":"10022","detailsBox":"","wheelChair":false,"latLong":{"lat":"40.6502318973681","lng":"-73.9254638554268"}},{"zoneID":5,"meetingID":"386","streetAddress":"244 East 58th Street","buildingName":"The Caron Foundation","roomFloor":"","city":"New York","state":"NY","zipCode":"10022","detailsBox":"","wheelChair":true,"latLong":{"lat":"40.6498884631618","lng":"-73.9225346093351"}},{"zoneID":5,"meetingID":"389","streetAddress":"244 East 58th Street","buildingName":"Caron Foundation","roomFloor":"Lower Level","city":"New York","state":"NY","zipCode":"10022","detailsBox":"","wheelChair":true,"latLong":{"lat":"40.7604192581185","lng":"-73.9660691339251"}},{"zoneID":5,"meetingID":"424","streetAddress":"109 East 50th Street","buildingName":"","roomFloor":"","city":"New York","state":"NY","zipCode":"10022","detailsBox":"11th Step, Anniv. 3rd Wednesday No Smoking","wheelChair":true,"latLong":{"lat":"40.7570109520275","lng":"-73.9733483642645"}},{"zoneID":6,"meetingID":"34","streetAddress":"207 West 96th Street","buildingName":"Holy Name Church","roomFloor":"Basement","city":"New York","state":"NY","zipCode":"10025","detailsBox":"Mon=As Bill Sees It, Wed=Living Sober","wheelChair":false,"latLong":{"lat":"40.794213540618","lng":"-73.9705213185661"}},{"zoneID":6,"meetingID":"35","streetAddress":"120 West 69th Street","buildingName":"Christ & St. Stephen's Church","roomFloor":"Basement","city":"New York","state":"NY","zipCode":"10023","detailsBox":"","wheelChair":false,"latLong":{"lat":"40.7755654476221","lng":"-73.9806385532506"}},{"zoneID":6,"meetingID":"41","streetAddress":"422 West 57th Street","buildingName":"Trinity Presbyterian Church","roomFloor":"","city":"New York","state":"NY","zipCode":"10023","detailsBox":"Tues= AA Literature/Topic meeting The group's focus is on long-term sobriety; but all A.A. members are welcome.","wheelChair":false,"latLong":{"lat":"40.7681070513278","lng":"-73.9863970797226"}},{"zoneID":6,"meetingID":"1562","streetAddress":"164 West 74th Street","buildingName":"Phoenix House","roomFloor":"1st Floor","city":"New York","state":"NY","zipCode":"10023","detailsBox":"","wheelChair":true,"latLong":{"lat":"40.7794255507423","lng":"-73.9797175099267"}},{"zoneID":6,"meetingID":"46","streetAddress":"207 West 96th Street","buildingName":"Holy Name Church","roomFloor":"Little Room Basement","city":"New York","state":"NY","zipCode":"10025","detailsBox":"","wheelChair":false,"latLong":{"lat":"40.794213540618","lng":"-73.9705213185661"}},{"zoneID":6,"meetingID":"48","streetAddress":"144 West 90th Street","buildingName":"St. Gregory's Church","roomFloor":"Basement","city":"New York","state":"NY","zipCode":"10024","detailsBox":"T - Last Friday, Anniversary-Last Saturday.","wheelChair":false,"latLong":{"lat":"40.7897029664383","lng":"-73.9720897206413"}},{"zoneID":6,"meetingID":"51","streetAddress":"141 West 73rd Street","buildingName":"Hamilton House","roomFloor":"","city":"New York","state":"NY","zipCode":"10023","detailsBox":"Anniv. Meeting last Monday.","wheelChair":true,"latLong":{"lat":"40.7786676707999","lng":"-73.9794206828762"}},{"zoneID":6,"meetingID":"57","streetAddress":"4 West 76th Street","buildingName":"Fourth Universalist Church","roomFloor":"","city":"New York","state":"NY","zipCode":"10023","detailsBox":"Alternating Step and Tradition meeting.","wheelChair":false,"latLong":{"lat":"40.7787527067962","lng":"-73.9741749847811"}},{"zoneID":6,"meetingID":"61","streetAddress":"221 West 107th Street","buildingName":"Church of the Ascension","roomFloor":"Basement","city":"New York","state":"NY","zipCode":"10025","detailsBox":"All Meetings Are Non-Smoking. Anniversary meeting last Tues at 6:15","wheelChair":false,"latLong":{"lat":"40.8014194326656","lng":"-73.965712913103"}},{"zoneID":6,"meetingID":"66","streetAddress":"207 West 96th Street","buildingName":"Holy Name Church","roomFloor":"Basement Little Room","city":"New York","state":"NY","zipCode":"10025","detailsBox":"","wheelChair":false,"latLong":{"lat":"40.794213540618","lng":"-73.9705213185661"}},{"zoneID":6,"meetingID":"67","streetAddress":"215 West 82nd Street","buildingName":"Holy Trinity Rectory","roomFloor":"","city":"New York","state":"NY","zipCode":"10024","detailsBox":"Men's Meeting","wheelChair":true,"latLong":{"lat":"40.7852818734432","lng":"-73.9771060064311"}},{"zoneID":6,"meetingID":"69","streetAddress":"601 West 114th Street","buildingName":"Broadway Presbyterian Church","roomFloor":"2nd Red Door","city":"New York","state":"NY","zipCode":"10025","detailsBox":"","wheelChair":false,"latLong":{"lat":"40.806792168115","lng":"-73.9648182706744"}},{"zoneID":6,"meetingID":"73","streetAddress":"Central Park West and 76th Street","buildingName":"Universalist Church","roomFloor":"basement gymnasium","city":"New York","state":"NY","zipCode":"10023","detailsBox":"T Last Thursday","wheelChair":false,"latLong":{"lat":"40.6639307188879","lng":"-73.9382749875207"}},{"zoneID":6,"meetingID":"1423","streetAddress":"5 West 63rd Street","buildingName":"West Side YMCA at 63rd Street","roomFloor":"Downstairs in large meeting Room","city":"New York","state":"NY","zipCode":"10023","detailsBox":"10:15pm = Topic Meeting","wheelChair":true,"latLong":{"lat":"40.7706369459873","lng":"-73.9801360925244"}},{"zoneID":6,"meetingID":"79","streetAddress":"4 West 76th Street","buildingName":"Universalist Church","roomFloor":"In the Gym","city":"New York","state":"NY","zipCode":"10023","detailsBox":"S 1st & T Last Friday","wheelChair":false,"latLong":{"lat":"40.7787527067962","lng":"-73.9741749847811"}},{"zoneID":6,"meetingID":"110","streetAddress":"160 Central Park West","buildingName":"Fourth Universalist Society","roomFloor":"Gym Basement","city":"New York","state":"NY","zipCode":"10023","detailsBox":"","wheelChair":false,"latLong":{"lat":"40.7788","lng":"-73.9743"}},{"zoneID":6,"meetingID":"108","streetAddress":"152 West 66th Street","buildingName":"Good Shepherd Faith Church","roomFloor":"Basement Level Chapel","city":"New York","state":"NY","zipCode":"10023","detailsBox":"Enter basement level @ red door on left side of the building.","wheelChair":false,"latLong":{"lat":"40.7745154157361","lng":"-73.9839560220244"}},{"zoneID":6,"meetingID":"129","streetAddress":"3 West 95th Street","buildingName":"Second Presbyterian Church","roomFloor":"Lower Level Auditorium","city":"New York","state":"NY","zipCode":"10025","detailsBox":"Children are welcome at all meetings. All meetings are non-smoking.","wheelChair":false,"latLong":{"lat":"40.7911041586476","lng":"-73.9652137815578"}},{"zoneID":6,"meetingID":"1552","streetAddress":"251 West 80th Street","buildingName":"All Angels Church","roomFloor":"","city":"New York","state":"NY","zipCode":"10024","detailsBox":"","wheelChair":true,"latLong":{"lat":"40.7846682032335","lng":"-73.9795816951321"}},{"zoneID":6,"meetingID":"148","streetAddress":"111 West 71st Street","buildingName":"Hargrave House","roomFloor":"","city":"New York","state":"NY","zipCode":"10023","detailsBox":"","wheelChair":false,"latLong":{"lat":"40.7778588431339","lng":"-73.9817266749472"}},{"zoneID":6,"meetingID":"149","streetAddress":"5 West 63rd Street","buildingName":"West Side YMCA","roomFloor":"1st Floor","city":"New York","state":"NY","zipCode":"10023","detailsBox":"","wheelChair":true,"latLong":{"lat":"40.7706369459873","lng":"-73.9801360925244"}},{"zoneID":6,"meetingID":"154","streetAddress":"5 West 63rd Street","buildingName":"West Side YMCA","roomFloor":"","city":"New York","state":"NY","zipCode":"10023","detailsBox":"T 1st Saturday @ 12:30pm","wheelChair":false,"latLong":{"lat":"40.7706369459873","lng":"-73.9801360925244"}},{"zoneID":6,"meetingID":"155","streetAddress":"207 West 96th Street","buildingName":"Holy Name Church","roomFloor":"Basement Little Room","city":"New York","state":"NY","zipCode":"10025","detailsBox":"Last Sat. of month at 10:15 = anniversary meeting","wheelChair":false,"latLong":{"lat":"40.794213540618","lng":"-73.9705213185661"}},{"zoneID":6,"meetingID":"1202","streetAddress":"26 West 84th Street","buildingName":"Church of St. Matthew and St. Timothy","roomFloor":"","city":"New York","state":"NY","zipCode":"10024","detailsBox":"MEETING NOW TAKES PLACE YEAR ROUND! Up concrete steps, take stairs on left, 2nd Floor (Sandford Hall)","wheelChair":false,"latLong":{"lat":"40.7841938596871","lng":"-73.9710515495699"}},{"zoneID":6,"meetingID":"172","streetAddress":"200 West 97th Street","buildingName":"Holy Name School","roomFloor":"Basement","city":"New York","state":"NY","zipCode":"10025","detailsBox":"Spanish speaking meetings.","wheelChair":false,"latLong":{"lat":"40.7946604892952","lng":"-73.9699229082063"}},{"zoneID":6,"meetingID":"176","streetAddress":"218 West 108th Street","buildingName":"Grace House","roomFloor":"Main Floor","city":"New York","state":"NY","zipCode":"10025","detailsBox":"B Last Friday Bilingual (English-Spanish) Meetings.","wheelChair":true,"latLong":{"lat":"40.8018805838188","lng":"-73.9653228864665"}},{"zoneID":6,"meetingID":"1136","streetAddress":"125 West 104th Street","buildingName":"Iglesia Metodista Grace","roomFloor":"1st Floor","city":"New York","state":"NY","zipCode":"10025","detailsBox":"Spanish speaking meeting.","wheelChair":true,"latLong":{"lat":"40.7987406120379","lng":"-73.9655262153158"}},{"zoneID":6,"meetingID":"218","streetAddress":"141 West 73rd Street","buildingName":"Hamilton House","roomFloor":"","city":"New York","state":"NY","zipCode":"10023","detailsBox":"","wheelChair":true,"latLong":{"lat":"40.7786676707999","lng":"-73.9794206828762"}},{"zoneID":6,"meetingID":"230","streetAddress":"236 West 73rd Street","buildingName":"Rutgers Church","roomFloor":"5th Floor","city":"New York","state":"NY","zipCode":"10023","detailsBox":"Wed.6pm=Interpreted for the deaf and hard of hearing. Gay Men & Women Focus.  All are welcome.","wheelChair":true,"latLong":{"lat":"40.7797419736686","lng":"-73.9824391794657"}},{"zoneID":6,"meetingID":"244","streetAddress":"165 West 105th Street","buildingName":"West End Presbyterian Church","roomFloor":"Basement","city":"New York","state":"NY","zipCode":"10025","detailsBox":"","wheelChair":false,"latLong":{"lat":"40.7994268657992","lng":"-73.9651796384307"}},{"zoneID":6,"meetingID":"1436","streetAddress":"207 West 96th Street","buildingName":"Holy Name Church","roomFloor":"","city":"New York","state":"NY","zipCode":"10025","detailsBox":"","wheelChair":false,"latLong":{"lat":"40.794213540618","lng":"-73.9705213185661"}},{"zoneID":6,"meetingID":"249","streetAddress":"207 West 96th Street","buildingName":"Holy Name Church Rectory","roomFloor":"Basement Little Room","city":"New York","state":"NY","zipCode":"10025","detailsBox":"Mon=11th Step Meditation, Fri= Alt.Step & Tradition Meeting","wheelChair":false,"latLong":{"lat":"40.794213540618","lng":"-73.9705213185661"}},{"zoneID":6,"meetingID":"263","streetAddress":"2504 Broadway","buildingName":"Advent Lutheran Church","roomFloor":"Basement","city":"New York","state":"NY","zipCode":"10025","detailsBox":"All meetings are non-smoking.","wheelChair":true,"latLong":{"lat":"40.79276170855","lng":"-73.9728434697471"}},{"zoneID":6,"meetingID":"1468","streetAddress":"405 West 114th Street","buildingName":"Church of Notre Dame","roomFloor":"Merton Room","city":"New York","state":"NY","zipCode":"10025","detailsBox":"","wheelChair":true,"latLong":{"lat":"40.8048256658321","lng":"-73.9601273784998"}},{"zoneID":6,"meetingID":"270","streetAddress":"368 West End Ave","buildingName":"West End Collegiate Church","roomFloor":"1st Floor","city":"New York","state":"NY","zipCode":"10024","detailsBox":"All meetings are non-smoking.","wheelChair":false,"latLong":{"lat":"40.7832332498012","lng":"-73.9817586862341"}},{"zoneID":6,"meetingID":"281","streetAddress":"225 West 99th Street","buildingName":"St. Michael's Parish House","roomFloor":"1st Floor","city":"New York","state":"NY","zipCode":"10025","detailsBox":"T 1st Monday Non-Smoking Meeting.","wheelChair":false,"latLong":{"lat":"40.7964563991192","lng":"-73.9698142603959"}},{"zoneID":6,"meetingID":"282","streetAddress":"251 West 100th Street","buildingName":"Anshe Chesed Synagogue","roomFloor":"","city":"New York","state":"NY","zipCode":"10025","detailsBox":"Non-Smoking Meeting.","wheelChair":true,"latLong":{"lat":"40.7975126103017","lng":"-73.9703865089032"}},{"zoneID":6,"meetingID":"283","streetAddress":"207 West 96th Street","buildingName":"Holy Name Church","roomFloor":"Basement Little Room","city":"New York","state":"NY","zipCode":"10025","detailsBox":"Anniv. Last Thursday, Fri=Promises, Sat=As Bill Sees It","wheelChair":false,"latLong":{"lat":"40.794213540618","lng":"-73.9705213185661"}},{"zoneID":6,"meetingID":"291","streetAddress":"26 West 84th Street","buildingName":"Church of St. Matthew & St. Timothy","roomFloor":"","city":"New York","state":"NY","zipCode":"10024","detailsBox":"Interpreted for the Deaf and Hard of Hearing No meetings on holidays On Ground Floor Mon. & Wed.; Basement on Thurs.","wheelChair":true,"latLong":{"lat":"40.7841938596871","lng":"-73.9710515495699"}},{"zoneID":6,"meetingID":"305","streetAddress":"5 West 63rd Street","buildingName":"West Side YMCA","roomFloor":"Basement Room D","city":"New York","state":"NY","zipCode":"10023","detailsBox":"","wheelChair":false,"latLong":{"lat":"40.7706369459873","lng":"-73.9801360925244"}},{"zoneID":6,"meetingID":"372","streetAddress":"5 West 63rd Street","buildingName":"West Side YMCA","roomFloor":"","city":"New York","state":"NY","zipCode":"10023","detailsBox":"Men's Meeting","wheelChair":false,"latLong":{"lat":"40.7706369459873","lng":"-73.9801360925244"}},{"zoneID":6,"meetingID":"355","streetAddress":"152 West 71st Street","buildingName":"Blessed Sacrament Church Rectory","roomFloor":"","city":"New York","state":"NY","zipCode":"10023","detailsBox":"Alternates Betw.the Steps & Promises.","wheelChair":false,"latLong":{"lat":"40.7772016417146","lng":"-73.9806325775781"}},{"zoneID":6,"meetingID":"319","streetAddress":"340 West 85th Street","buildingName":"Volunteers of America","roomFloor":"Basement","city":"New York","state":"NY","zipCode":"10024","detailsBox":"Living Sober","wheelChair":false,"latLong":{"lat":"40.7886669980932","lng":"-73.979694394257"}},{"zoneID":6,"meetingID":"1511","streetAddress":"164 West 74 Street","buildingName":"Phoenix House","roomFloor":"1st Floor (ask at Front Desk)","city":"New York","state":"NY","zipCode":"10024","detailsBox":"","wheelChair":false,"latLong":{"lat":"40.7794255507423","lng":"-73.9797175099267"}},{"zoneID":6,"meetingID":"351","streetAddress":"368 West End Avenue","buildingName":"West End Collegiate Church","roomFloor":"1st Floor","city":"New York","state":"NY","zipCode":"10024","detailsBox":"All Meetings Are Non-Smoking.","wheelChair":false,"latLong":{"lat":"40.7832332498012","lng":"-73.9817586862341"}},{"zoneID":6,"meetingID":"313","streetAddress":"552 West End Avenue","buildingName":"St. Ignatius Church","roomFloor":"Basement","city":"New York","state":"NY","zipCode":"10024","detailsBox":"Anniv.  Last Sunday","wheelChair":false,"latLong":{"lat":"40.7893","lng":"-73.9773"}},{"zoneID":6,"meetingID":"375","streetAddress":"131 West 72nd Street","buildingName":"","roomFloor":"3rd Floor Room #2F","city":"New York","state":"NY","zipCode":"10023","detailsBox":"Round Robin Topic Meeting.","wheelChair":false,"latLong":{"lat":"40.7778619659525","lng":"-73.9796338969511"}},{"zoneID":6,"meetingID":"391","streetAddress":"207 West 96th Street","buildingName":"Holy Name Church","roomFloor":"Basement Little Room","city":"New York","state":"NY","zipCode":"10025","detailsBox":"T Last Friday","wheelChair":false,"latLong":{"lat":"40.794213540618","lng":"-73.9705213185661"}},{"zoneID":6,"meetingID":"401","streetAddress":"152 West 71st Street","buildingName":"Blessed Sacrament Church Rectory","roomFloor":"Ring Bell","city":"New York","state":"NY","zipCode":"10023","detailsBox":"10am=As Bill Sees It, 11:15am=Topic Meeting","wheelChair":false,"latLong":{"lat":"40.7772016417146","lng":"-73.9806325775781"}},{"zoneID":6,"meetingID":"402","streetAddress":"30 West 68th Street","buildingName":"Stephen Wise Free Synagogue","roomFloor":"Check security desk for Room #","city":"New York","state":"NY","zipCode":"10023","detailsBox":"S Last Thursday,  No Prayers.","wheelChair":true,"latLong":{"lat":"40.7739244423422","lng":"-73.9786943991706"}},{"zoneID":6,"meetingID":"1204","streetAddress":"207 West 96th Street","buildingName":"Holy Name Church","roomFloor":"Basement Little Room","city":"New York","state":"NY","zipCode":"10025","detailsBox":"Issues of medication in recovery are discussed.  All are welcome.","wheelChair":false,"latLong":{"lat":"40.794213540618","lng":"-73.9705213185661"}},{"zoneID":6,"meetingID":"409","streetAddress":"263 West 86th Street","buildingName":"Church of St. Paul & St. Andrew","roomFloor":"1st Floor","city":"New York","state":"NY","zipCode":"10024","detailsBox":"","wheelChair":true,"latLong":{"lat":"40.7885417036581","lng":"-73.9768136256861"}},{"zoneID":6,"meetingID":"411","streetAddress":"306 West 102nd Street","buildingName":"Addiction Institute","roomFloor":"2nd Floor","city":"New York","state":"NY","zipCode":"10025","detailsBox":"","wheelChair":false,"latLong":{"lat":"40.7990296730168","lng":"-73.970556588718"}},{"zoneID":6,"meetingID":"412","streetAddress":"152 West 71st Street","buildingName":"Blessed Sacrament Church Rectory","roomFloor":"","city":"New York","state":"NY","zipCode":"10023","detailsBox":"","wheelChair":false,"latLong":{"lat":"40.7772016417146","lng":"-73.9806325775781"}},{"zoneID":6,"meetingID":"413","streetAddress":"26 West 84th Street","buildingName":"Church of St.Matthew & St. Timothy","roomFloor":"Stanford Room (blue door)","city":"New York","state":"NY","zipCode":"10024","detailsBox":"Anniv. Meeting Last Saturday.","wheelChair":false,"latLong":{"lat":"40.7841938596871","lng":"-73.9710515495699"}},{"zoneID":6,"meetingID":"1583","streetAddress":"595 Columbus Avenue","buildingName":"Goddard Riverside Community Center","roomFloor":"","city":"New York","state":"NY","zipCode":"10024","detailsBox":"","wheelChair":true,"latLong":{"lat":"40.788","lng":"-73.9708"}},{"zoneID":6,"meetingID":"417","streetAddress":"306 West 102nd Street","buildingName":"Trinity Halfway House","roomFloor":"2nd Floor","city":"New York","state":"NY","zipCode":"10025","detailsBox":"S 2nd Wednesday","wheelChair":false,"latLong":{"lat":"40.7990296730168","lng":"-73.970556588718"}},{"zoneID":6,"meetingID":"423","streetAddress":"213 West 82nd Street","buildingName":"Holy Trinity Church","roomFloor":"","city":"New York","state":"NY","zipCode":"10024","detailsBox":"Women's Meeting","wheelChair":true,"latLong":{"lat":"40.7852679542513","lng":"-73.9770730367342"}},{"zoneID":6,"meetingID":"1488","streetAddress":"152 West 71st Street","buildingName":"Blessed Sacrament (Rectory)","roomFloor":"","city":"New York","state":"NY","zipCode":"10023","detailsBox":"Wed= Alternate BB and Living Sober.","wheelChair":false,"latLong":{"lat":"40.7772016417146","lng":"-73.9806325775781"}},{"zoneID":6,"meetingID":"1487","streetAddress":"152 West 71st street","buildingName":"","roomFloor":"","city":"New York","state":"NY","zipCode":"null","detailsBox":"","wheelChair":true,"latLong":{"lat":"40.7772016417146","lng":"-73.9806325775781"}},{"zoneID":6,"meetingID":"428","streetAddress":"152 West 71st Street","buildingName":"Blessed Sacrament (Rectory)","roomFloor":"","city":"New York","state":"NY","zipCode":"10023","detailsBox":"Women's Meeting","wheelChair":true,"latLong":{"lat":"40.7772016417146","lng":"-73.9806325775781"}},{"zoneID":6,"meetingID":"429","streetAddress":"160 Central Park West","buildingName":"Universalist Church","roomFloor":"Downstairs","city":"New York","state":"NY","zipCode":"10023","detailsBox":"Women's Meeting","wheelChair":false,"latLong":{"lat":"40.7787794973326","lng":"-73.9743080403139"}},{"zoneID":6,"meetingID":"430","streetAddress":"207 West 96th Street","buildingName":"Holy Name Church","roomFloor":"Basement Little Room","city":"New York","state":"NY","zipCode":"10025","detailsBox":"","wheelChair":false,"latLong":{"lat":"40.794213540618","lng":"-73.9705213185661"}},{"zoneID":7,"meetingID":"742","streetAddress":"351 East 74th Street","buildingName":"Jan Hus Church","roomFloor":"2nd Floor","city":"New York","state":"NY","zipCode":"10021","detailsBox":"Topic Meeting","wheelChair":false,"latLong":{"lat":"40.7696928502877","lng":"-73.9561615460009"}},{"zoneID":7,"meetingID":"437","streetAddress":"48 East 80th Street","buildingName":"Manhattan Church of Christ","roomFloor":"2nd Floor Library Ring Bell Next to Sign.","city":"New York","state":"NY","zipCode":"10021","detailsBox":"Traditions Meeting","wheelChair":true,"latLong":{"lat":"40.7768220721206","lng":"-73.9614309247863"}},{"zoneID":7,"meetingID":"40","streetAddress":"184 East 76th Street","buildingName":"St. Jean Baptiste Church","roomFloor":"Basement","city":"New York","state":"NY","zipCode":"10021","detailsBox":"","wheelChair":true,"latLong":{"lat":"40.7729024777959","lng":"-73.960301601538"}},{"zoneID":7,"meetingID":"1357","streetAddress":"351 East 74th Street","buildingName":"Jan Hus Church","roomFloor":"2nd Floor","city":"New York","state":"NY","zipCode":"10021","detailsBox":"Mon=Living Sober, Thu=11 Step with meditation, Fri=3rd Step","wheelChair":false,"latLong":{"lat":"40.7696928502877","lng":"-73.9561615460009"}},{"zoneID":7,"meetingID":"54","streetAddress":"1393 York Avenue","buildingName":"Church of the Epiphany","roomFloor":"","city":"New York","state":"NY","zipCode":"10021","detailsBox":"","wheelChair":false,"latLong":{"lat":"40.7683","lng":"-73.9529"}},{"zoneID":7,"meetingID":"53","streetAddress":"520 Park Avenue","buildingName":"Christ United Methodist Church","roomFloor":"","city":"New York","state":"NY","zipCode":"10021","detailsBox":"Three speaker","wheelChair":true,"latLong":{"lat":"40.7638025340206","lng":"-73.9694752938161"}},{"zoneID":7,"meetingID":"1518","streetAddress":"337 East 74th Street","buildingName":"Archdiocian Cathedral of the Holy Trinity","roomFloor":"","city":"New York","state":"NY","zipCode":"10021","detailsBox":"","wheelChair":true,"latLong":{"lat":"40.7698342644291","lng":"-73.9564962732736"}},{"zoneID":7,"meetingID":"1517","streetAddress":"1157 Lexington Avenue","buildingName":"All Souls Church","roomFloor":"","city":"New York","state":"NY","zipCode":"10075","detailsBox":"Two speaker","wheelChair":true,"latLong":{"lat":"40.7754","lng":"-73.9584"}},{"zoneID":7,"meetingID":"64","streetAddress":"420 East 76th Street","buildingName":"Gracie Square Hospital","roomFloor":"","city":"New York","state":"NY","zipCode":"10021","detailsBox":"*Open Last Friday Check with front desk security for meeting room location.","wheelChair":true,"latLong":{"lat":"40.7701096895349","lng":"-73.9536801743601"}},{"zoneID":7,"meetingID":"68","streetAddress":"230 East 90th Street","buildingName":"Our Lady of Good Counsel Church","roomFloor":"Downstairs","city":"New York","state":"NY","zipCode":"10128","detailsBox":"Anniv. Last Sunday; every other month.","wheelChair":false,"latLong":{"lat":"40.7810111151832","lng":"-73.9514664469095"}},{"zoneID":7,"meetingID":"71","streetAddress":"65 East 89th Street","buildingName":"St. Thomas More Church","roomFloor":"Basement","city":"New York","state":"NY","zipCode":"10128","detailsBox":"","wheelChair":false,"latLong":{"lat":"40.6512891458602","lng":"-73.9194885249005"}},{"zoneID":7,"meetingID":"72","streetAddress":"865 Madison Avenue","buildingName":"St. James Episcopal Church","roomFloor":"Basement","city":"New York","state":"NY","zipCode":"10021","detailsBox":"","wheelChair":false,"latLong":{"lat":"40.7713","lng":"-73.9656"}},{"zoneID":7,"meetingID":"75","streetAddress":"1296 Lexington Avenue","buildingName":"Immanuel Lutheran Church","roomFloor":"Basement","city":"New York","state":"NY","zipCode":"10128","detailsBox":"Fri.6:15=Women's Meeting","wheelChair":false,"latLong":{"lat":"40.780135833909","lng":"-73.9552304898083"}},{"zoneID":7,"meetingID":"144","streetAddress":"351 East 74th Street","buildingName":"Jan Hus Church","roomFloor":"Mazaryk Room","city":"New York","state":"NY","zipCode":"10021","detailsBox":"11th Step Meditation Meeting.","wheelChair":false,"latLong":{"lat":"40.7696928502877","lng":"-73.9561615460009"}},{"zoneID":7,"meetingID":"150","streetAddress":"1157 Lexington Avenue","buildingName":"All Souls Uniterian Church","roomFloor":"1st Floor","city":"New York","state":"NY","zipCode":"10028","detailsBox":"Topic Meeting","wheelChair":false,"latLong":{"lat":"40.7754","lng":"-73.9584"}},{"zoneID":7,"meetingID":"160","streetAddress":"351 East 74th Street","buildingName":"Jan Hus Church","roomFloor":"Mazaryk Room","city":"New York","state":"NY","zipCode":"10021","detailsBox":"","wheelChair":false,"latLong":{"lat":"40.7696928502877","lng":"-73.9561615460009"}},{"zoneID":7,"meetingID":"162","streetAddress":"351 East 74th Street","buildingName":"Jan Hus Church","roomFloor":"2nd Floor","city":"New York","state":"NY","zipCode":"10021","detailsBox":"1st Step Gay & lesbian focus.  All are welcome.","wheelChair":false,"latLong":{"lat":"40.7696928502877","lng":"-73.9561615460009"}},{"zoneID":7,"meetingID":"163","streetAddress":"65 East 89th Street","buildingName":"St. Thomas More Church Rectory","roomFloor":"","city":"New York","state":"NY","zipCode":"10128","detailsBox":"Men's Meeting","wheelChair":false,"latLong":{"lat":"40.7825781068574","lng":"-73.956669661672"}},{"zoneID":7,"meetingID":"1547","streetAddress":"65 East 89th Street","buildingName":"Church of Saint Thomas Moore","roomFloor":"Rectory basement","city":"New York","state":"NY","zipCode":"10128","detailsBox":"Agnostic","wheelChair":false,"latLong":{"lat":"40.6512891458602","lng":"-73.9194885249005"}},{"zoneID":7,"meetingID":"224","streetAddress":"351 East 74th Street","buildingName":"Jan Hus Church","roomFloor":"2nd Floor","city":"New York","state":"NY","zipCode":"10021","detailsBox":"","wheelChair":false,"latLong":{"lat":"40.7696928502877","lng":"-73.9561615460009"}},{"zoneID":7,"meetingID":"225","streetAddress":"135 East 96th Street","buildingName":"St. Francis de Sales Church","roomFloor":"","city":"New York","state":"NY","zipCode":"10128","detailsBox":"lower level","wheelChair":false,"latLong":{"lat":"40.6629600737202","lng":"-73.9234070311321"}},{"zoneID":7,"meetingID":"1040","streetAddress":"351 East 74th Street","buildingName":"Jan Hus Presbyterian Church","roomFloor":"2nd Floor Kitchen","city":"New York","state":"NY","zipCode":"10021","detailsBox":"","wheelChair":false,"latLong":{"lat":"40.7696928502877","lng":"-73.9561615460009"}},{"zoneID":7,"meetingID":"233","streetAddress":"2 East 90th Street","buildingName":"Church of the Heavenly Rest","roomFloor":"","city":"New York","state":"NY","zipCode":"10128","detailsBox":"","wheelChair":false,"latLong":{"lat":"40.7840115307841","lng":"-73.9585847103751"}},{"zoneID":7,"meetingID":"234","streetAddress":"1157 Lexington Avenue","buildingName":"All Souls Uniterian Church","roomFloor":"","city":"New York","state":"NY","zipCode":"10028","detailsBox":"Southside Chapel","wheelChair":true,"latLong":{"lat":"40.7754537712743","lng":"-73.9583651919557"}},{"zoneID":7,"meetingID":"236","streetAddress":"420 East 76th Street","buildingName":"Gracie Square Hospital","roomFloor":"","city":"New York","state":"NY","zipCode":"10021","detailsBox":"Thurs=Topic Meeting, Check in with security at front desk. Gay & lesbian focus.  All are welcome.","wheelChair":true,"latLong":{"lat":"40.7701096895349","lng":"-73.9536801743601"}},{"zoneID":7,"meetingID":"241","streetAddress":"351 East 74th Street","buildingName":"Jan Hus Presbyterian Church","roomFloor":"2nd Floor","city":"New York","state":"NY","zipCode":"10021","detailsBox":"All Meetings Are Non-Smoking.","wheelChair":false,"latLong":{"lat":"40.7696928502877","lng":"-73.9561615460009"}},{"zoneID":7,"meetingID":"245","streetAddress":"351 East 74th Street","buildingName":"Jan Hus Church","roomFloor":"2nd Floor Chapel Room","city":"New York","state":"NY","zipCode":"10021","detailsBox":"All meetings are 11th Step Meditation format.","wheelChair":false,"latLong":{"lat":"40.7696928502877","lng":"-73.9561615460009"}},{"zoneID":7,"meetingID":"1551","streetAddress":"1285 Madison Avenue","buildingName":"Philomathist Center","roomFloor":"","city":"New York","state":"NY","zipCode":"10128","detailsBox":"Ring Bell for entry","wheelChair":false,"latLong":{"lat":"40.7843271566301","lng":"-73.9560938594834"}},{"zoneID":7,"meetingID":"248","streetAddress":"48 East 84th Street","buildingName":"St. Ignatius Loyola School","roomFloor":"","city":"New York","state":"NY","zipCode":"10028","detailsBox":"Tue.6:30=Literature Topic,Sat=Meets in the Rectory. Wheel Chair Access on Tuesday & Sunday Only","wheelChair":true,"latLong":{"lat":"40.7793609621452","lng":"-73.9595772935813"}},{"zoneID":7,"meetingID":"257","streetAddress":"408 East 82nd Street","buildingName":"St. Stephen of Hungary Church","roomFloor":"Rectory","city":"New York","state":"NY","zipCode":"10028","detailsBox":"Round Robin format & No Meeting on Legal Holidays.","wheelChair":false,"latLong":{"lat":"40.7741274706806","lng":"-73.9511027458637"}},{"zoneID":7,"meetingID":"442","streetAddress":"351 East 74th Street","buildingName":"Jan Hus Church","roomFloor":"2nd Floor Front Room","city":"New York","state":"NY","zipCode":"10021","detailsBox":"AA Literature Topic Meeting & Open last Monday. Women's Meeting","wheelChair":false,"latLong":{"lat":"40.7696928502877","lng":"-73.9561615460009"}},{"zoneID":7,"meetingID":"262","streetAddress":"351 East 74th Street","buildingName":"Jan Hus Church","roomFloor":"2nd FloorFront Room","city":"New York","state":"NY","zipCode":"10021","detailsBox":"Daily Reflections readings & round robin format Discussion","wheelChair":false,"latLong":{"lat":"40.7696928502877","lng":"-73.9561615460009"}},{"zoneID":7,"meetingID":"274","streetAddress":"125 East 85th Street","buildingName":"Congregational Kehilath Jeshurun","roomFloor":"Ramaz School Entrance","city":"New York","state":"NY","zipCode":"10028","detailsBox":"","wheelChair":true,"latLong":{"lat":"40.779171458173","lng":"-73.9566990114508"}},{"zoneID":7,"meetingID":"289","streetAddress":"351 East 74th Street","buildingName":"Jan Hus Church","roomFloor":"2nd Floor Library Room","city":"New York","state":"NY","zipCode":"10021","detailsBox":"Big Book Study","wheelChair":false,"latLong":{"lat":"40.7696928502877","lng":"-73.9561615460009"}},{"zoneID":7,"meetingID":"1371","streetAddress":"351 East 74th Street","buildingName":"Jan Hus Church","roomFloor":"2nd Floor Kitchen","city":"New York","state":"NY","zipCode":"10021","detailsBox":"Women's Meeting.","wheelChair":false,"latLong":{"lat":"40.7696928502877","lng":"-73.9561615460009"}},{"zoneID":7,"meetingID":"294","streetAddress":"865 Madison Avenue","buildingName":"St. James Church","roomFloor":"3rd Floor","city":"New York","state":"NY","zipCode":"10021","detailsBox":"","wheelChair":true,"latLong":{"lat":"40.771333373478","lng":"-73.9655866478562"}},{"zoneID":7,"meetingID":"295","streetAddress":"62 East 92nd Street","buildingName":"Brick Church Parish House","roomFloor":"Basement","city":"New York","state":"NY","zipCode":"10128","detailsBox":"Tue.8pm=Topic Round Robin, Anniv Last Fri.@ 6:45 Church Closed Friday; No Meetings In July & August All meetings are non-smoking.","wheelChair":true,"latLong":{"lat":"40.7843589236057","lng":"-73.95552298444"}},{"zoneID":7,"meetingID":"299","streetAddress":"351 East 74th Street","buildingName":"Jan Hus Church","roomFloor":"2nd Floor Front Room","city":"New York","state":"NY","zipCode":"10021","detailsBox":"","wheelChair":false,"latLong":{"lat":"40.7696928502877","lng":"-73.9561615460009"}},{"zoneID":7,"meetingID":"309","streetAddress":"420 East 87th Street","buildingName":"St. Joseph's School","roomFloor":"Basement","city":"New York","state":"NY","zipCode":"10128","detailsBox":"","wheelChair":false,"latLong":{"lat":"40.7772735074771","lng":"-73.9484486458256"}},{"zoneID":7,"meetingID":"446","streetAddress":"593 Park Avenue","buildingName":"Central Presbyterian Church","roomFloor":"5th Floor Library","city":"New York","state":"NY","zipCode":"10128","detailsBox":"","wheelChair":true,"latLong":{"lat":"40.7658492755849","lng":"-73.9673399922282"}},{"zoneID":7,"meetingID":"1372","streetAddress":"65 East 89th Street","buildingName":"St. Thomas More Church","roomFloor":"Ring Red Buzzer Chelsea Room","city":"New York","state":"NY","zipCode":"10128","detailsBox":"","wheelChair":true,"latLong":{"lat":"40.6512891458602","lng":"-73.9194885249005"}},{"zoneID":7,"meetingID":"314","streetAddress":"865 Madison Avenue","buildingName":"St. James Episcopal Church","roomFloor":"Basement","city":"New York","state":"NY","zipCode":"10021","detailsBox":"Mon.6pm & Thu.6pm Meetings end @ 6:50pm.","wheelChair":false,"latLong":{"lat":"40.7713","lng":"-73.9656"}},{"zoneID":7,"meetingID":"1529","streetAddress":"543 Main Street","buildingName":"Church of the Good Shepard","roomFloor":"Basement","city":"New York","state":"NY","zipCode":"10044","detailsBox":"","wheelChair":true,"latLong":{"lat":"40.5015308291755","lng":"-74.2441188807621"}},{"zoneID":7,"meetingID":"347","streetAddress":"413 East 79th Street","buildingName":"St. Monica's Church","roomFloor":"Basement","city":"New York","state":"NY","zipCode":"10021","detailsBox":"Sun.10am=11th S, Tue.6am=Came To Believe Thu.6am=Step & Trad.","wheelChair":false,"latLong":{"lat":"40.7723031543769","lng":"-73.9523668002645"}},{"zoneID":7,"meetingID":"356","streetAddress":"351 East 74th Street","buildingName":"Jan Hus Church","roomFloor":"Sanctuary","city":"New York","state":"NY","zipCode":"10021","detailsBox":"Women's Meeting","wheelChair":false,"latLong":{"lat":"40.7696928502877","lng":"-73.9561615460009"}},{"zoneID":7,"meetingID":"366","streetAddress":"310 East 67th Street","buildingName":"New York Blood Center","roomFloor":"Auditorium","city":"New York","state":"NY","zipCode":"10065","detailsBox":"Non-Smoking Meeting.","wheelChair":true,"latLong":{"lat":"40.7654252580644","lng":"-73.9604736729911"}},{"zoneID":7,"meetingID":"374","streetAddress":"331 East 70th Street","buildingName":"Lenox Hill Neighborhood House","roomFloor":"","city":"New York","state":"NY","zipCode":"10021","detailsBox":"","wheelChair":false,"latLong":{"lat":"40.7672680018812","lng":"-73.9585554286266"}},{"zoneID":7,"meetingID":"376","streetAddress":"411 East 68th Street","buildingName":"Church of St. Catherine of Siena","roomFloor":"","city":"New York","state":"NY","zipCode":"10021","detailsBox":"Enter through Parish House","wheelChair":true,"latLong":{"lat":"40.7652239673107","lng":"-73.9575950012117"}},{"zoneID":7,"meetingID":"383","streetAddress":"2 East 90th Street","buildingName":"Church of the Heavenly Rest","roomFloor":"Basement","city":"New York","state":"NY","zipCode":"10128","detailsBox":"","wheelChair":false,"latLong":{"lat":"40.7840115307841","lng":"-73.9585847103751"}},{"zoneID":7,"meetingID":"388","streetAddress":"341 East 87th Street","buildingName":"Holy Trinity Church","roomFloor":"Choir Room (Ring Bell)","city":"New York","state":"NY","zipCode":"10128","detailsBox":"Anniv Last Tuesday @ 7:15pm All meetings are non-smoking. Last Fri. @ 7PM = T","wheelChair":false,"latLong":{"lat":"40.7782257082245","lng":"-73.9502443001809"}},{"zoneID":7,"meetingID":"403","streetAddress":"351 East 74th Street","buildingName":"Jan Hus Church","roomFloor":"2nd Floor Museum Room","city":"New York","state":"NY","zipCode":"10021","detailsBox":"No prayers & a Non-Smoking Meeting.","wheelChair":false,"latLong":{"lat":"40.7696928502877","lng":"-73.9561615460009"}},{"zoneID":7,"meetingID":"404","streetAddress":"351 East 74th Street","buildingName":"Jan Hus Church","roomFloor":"2nd Floor Kitchen","city":"New York","state":"NY","zipCode":"10021","detailsBox":"Round Robin format","wheelChair":false,"latLong":{"lat":"40.7696928502877","lng":"-73.9561615460009"}},{"zoneID":7,"meetingID":"431","streetAddress":"351 East 74th Street","buildingName":"Jan Hus Church","roomFloor":"2nd Floor  Masaryk Room","city":"New York","state":"NY","zipCode":"10021","detailsBox":"Non-Smoking Meeting.","wheelChair":false,"latLong":{"lat":"40.7696928502877","lng":"-73.9561615460009"}},{"zoneID":8,"meetingID":"32","streetAddress":"109 West 129th Street","buildingName":"SRO Building","roomFloor":"Basement","city":"New York","state":"NY","zipCode":"10027","detailsBox":"","wheelChair":true,"latLong":{"lat":"40.8105033439451","lng":"-73.9438349756133"}},{"zoneID":8,"meetingID":"36","streetAddress":"240 West 145th Street","buildingName":"Union Baptist Church","roomFloor":"","city":"New York","state":"NY","zipCode":"10039","detailsBox":"Thu=Altern.BB, Living Sober & Other A.A. Literature. Fri.=Alternates between Step & Tradition.","wheelChair":true,"latLong":{"lat":"40.8220449603096","lng":"-73.9402738669626"}},{"zoneID":8,"meetingID":"58","streetAddress":"469 West 142nd Street","buildingName":"Our Lady of Lourdes Church","roomFloor":"Basement","city":"New York","state":"NY","zipCode":"10031","detailsBox":"Topic 1st Saturday.","wheelChair":false,"latLong":{"lat":"40.8232200234845","lng":"-73.9485449135295"}},{"zoneID":8,"meetingID":"1028","streetAddress":"204 West 134th Street","buildingName":"St. Phillip Church","roomFloor":"1st Floor","city":"New York","state":"NY","zipCode":"10030","detailsBox":"B-3rd Saturday","wheelChair":false,"latLong":{"lat":"40.8146053686072","lng":"-73.9443570754889"}},{"zoneID":8,"meetingID":"151","streetAddress":"2044 Adam Clayton Powell Blvd","buildingName":"Spiritual Renewal Church","roomFloor":"","city":"New York","state":"NY","zipCode":"10027","detailsBox":"T If there is a fifth Wednesday.","wheelChair":false,"latLong":{"lat":"40.8072665297278","lng":"-73.9499061022154"}},{"zoneID":8,"meetingID":"1366","streetAddress":"469 West 142nd Street","buildingName":"","roomFloor":"1st Floor","city":"New York","state":"NY","zipCode":"10031","detailsBox":"Spanish speaking meeting.","wheelChair":false,"latLong":{"lat":"40.8232200234845","lng":"-73.9485449135295"}},{"zoneID":8,"meetingID":"1490","streetAddress":"521 West 126th Street","buildingName":"St. Mary's Episcopal","roomFloor":"","city":"New York","state":"NY","zipCode":"10027","detailsBox":"Contact in Advance for Wheelcahir Accessibility","wheelChair":true,"latLong":{"lat":"40.8144929933342","lng":"-73.9558896362264"}},{"zoneID":8,"meetingID":"229","streetAddress":"109 West 129th Street","buildingName":"SRO Building Community Room","roomFloor":"Basement","city":"New York","state":"NY","zipCode":"10027","detailsBox":"All meetings are non-smoking.","wheelChair":true,"latLong":{"lat":"40.8105033439451","lng":"-73.9438349756133"}},{"zoneID":8,"meetingID":"232","streetAddress":"469 West 142nd Street","buildingName":"Our Lady of Lourdes","roomFloor":"Basement","city":"New York","state":"NY","zipCode":"10031","detailsBox":"","wheelChair":false,"latLong":{"lat":"40.8232200234845","lng":"-73.9485449135295"}},{"zoneID":8,"meetingID":"237","streetAddress":"2044 Seventh Avenue","buildingName":"","roomFloor":"","city":"New York","state":"NY","zipCode":"10027","detailsBox":"S 2nd, BB 3rd, OD 4th, Living Sober 5th wk.","wheelChair":true,"latLong":{"lat":"40.8071759186691","lng":"-73.9497519327616"}},{"zoneID":8,"meetingID":"246","streetAddress":"127 West 127th Street","buildingName":"S.A.G.E.","roomFloor":"","city":"New York","state":"NY","zipCode":"10027","detailsBox":"Meeting is closed on holidays","wheelChair":true,"latLong":{"lat":"40.8094766772235","lng":"-73.9452613355488"}},{"zoneID":8,"meetingID":"250","streetAddress":"310 West 139th Street","buildingName":"Grace Congregational Baptist Church","roomFloor":"Basement","city":"New York","state":"NY","zipCode":"10037","detailsBox":"T 1st Monday at 7PM Open 1st Friday 8:10pm, Pitch other Fridays 8:10pm","wheelChair":false,"latLong":{"lat":"40.8190256453939","lng":"-73.9448681362397"}},{"zoneID":8,"meetingID":"261","streetAddress":"409 West 141st Street","buildingName":"St. James Church","roomFloor":"Basement","city":"New York","state":"NY","zipCode":"10031","detailsBox":"","wheelChair":false,"latLong":{"lat":"40.8215326572652","lng":"-73.9464830279892"}},{"zoneID":8,"meetingID":"303","streetAddress":"91 Claremont Avenue","buildingName":"Riverside Church","roomFloor":"4th Floor Room 414","city":"New York","state":"NY","zipCode":"10027","detailsBox":"","wheelChair":true,"latLong":{"lat":"40.812","lng":"-73.9625"}},{"zoneID":8,"meetingID":"306","streetAddress":"1727 Amsterdam Avenue","buildingName":"Upper Manhattan Mental Health Center","roomFloor":"1st Floor in the Rear","city":"New York","state":"NY","zipCode":"10031","detailsBox":"1st Sun-OD; 2nd Sun-S; 3rd Sun-Topic; 4th Sun-T; 5th Sun-OD","wheelChair":true,"latLong":{"lat":"40.8255","lng":"-73.9472"}},{"zoneID":8,"meetingID":"308","streetAddress":"469 West 142nd Street","buildingName":"Our Lady of Lourdes Church","roomFloor":"Basement","city":"New York","state":"NY","zipCode":"10037","detailsBox":"S 4th Saturday Men's Meeting","wheelChair":false,"latLong":{"lat":"40.8232200234845","lng":"-73.9485449135295"}},{"zoneID":8,"meetingID":"315","streetAddress":"91 Claremont Avenue","buildingName":"Riverside Church","roomFloor":"and The Cloisters Club Room","city":"New York","state":"NY","zipCode":"10027","detailsBox":"Non-Smoking Meeting.","wheelChair":true,"latLong":{"lat":"40.812","lng":"-73.9625"}},{"zoneID":8,"meetingID":"316","streetAddress":"219 West 132nd Street","buildingName":"St. Aloysius School","roomFloor":"Cafeteria","city":"New York","state":"NY","zipCode":"10027","detailsBox":"S 2nd & T 4th Tue All meetings are non-smoking.  No children allowed at meetings.","wheelChair":false,"latLong":{"lat":"40.8136938017217","lng":"-73.9455988432903"}},{"zoneID":8,"meetingID":"320","streetAddress":"211 West 129th Street","buildingName":"Salem United Methodist Church Community Center","roomFloor":"Downstairs in the Gym","city":"New York","state":"NY","zipCode":"10027","detailsBox":"O 2nd Wednesday","wheelChair":true,"latLong":{"lat":"40.811646918986","lng":"-73.9465692736586"}},{"zoneID":8,"meetingID":"352","streetAddress":"425 West 144th Street","buildingName":"Convent Baptist Church Education Building","roomFloor":"1st Floor","city":"New York","state":"NY","zipCode":"10031","detailsBox":"Men's Meeting","wheelChair":true,"latLong":{"lat":"40.8238859925299","lng":"-73.9462723904462"}},{"zoneID":8,"meetingID":"363","streetAddress":"204 West 134th Street","buildingName":"St. Phillip's Church","roomFloor":"Basement","city":"New York","state":"NY","zipCode":"10030","detailsBox":"S 2nd, C 3rd, BB 4th, & Grapevine 5th Thu.","wheelChair":true,"latLong":{"lat":"40.8146053686072","lng":"-73.9443570754889"}},{"zoneID":8,"meetingID":"367","streetAddress":"506 Lenox Avenue","buildingName":"Harlem Hospital King Pavilion","roomFloor":"Room #3101 3rd Floor","city":"New York","state":"NY","zipCode":"10037","detailsBox":"B 1st, OD 2nd, S3 3rd, C Literature 4th, & S11 5th Sun.","wheelChair":true,"latLong":{"lat":"40.8143540280369","lng":"-73.9403080272408"}},{"zoneID":8,"meetingID":"1575","streetAddress":"1727 Amsterdam Avenue","buildingName":"Council Center for Problems of Living","roomFloor":"1st Floor in the Rear","city":"New York","state":"NY","zipCode":"10031","detailsBox":"","wheelChair":true,"latLong":{"lat":"40.8255","lng":"-73.9472"}},{"zoneID":8,"meetingID":"390","streetAddress":"1854 Amsterdam Avenue","buildingName":"","roomFloor":"Basement","city":"New York","state":"NY","zipCode":"10031","detailsBox":"","wheelChair":false,"latLong":{"lat":"40.8295984557205","lng":"-73.9446555334471"}},{"zoneID":8,"meetingID":"1428","streetAddress":"469 West 142nd Street","buildingName":"Our Lady of Lourdes Church","roomFloor":"Basement","city":"New York","state":"NY","zipCode":"10031","detailsBox":"Meeting meets each Saturday from mid-August thru mid-December","wheelChair":false,"latLong":{"lat":"40.8232200234845","lng":"-73.9485449135295"}},{"zoneID":8,"meetingID":"432","streetAddress":"58-66 West 135th Street","buildingName":"Metropolitan AME Church","roomFloor":"","city":"New York","state":"NY","zipCode":"10037","detailsBox":"Non-Smoking Meeting.","wheelChair":true,"latLong":{"lat":"40.6639307188879","lng":"-73.9382749875207"}},{"zoneID":9,"meetingID":"447","streetAddress":"35 East 125 Street","buildingName":"Harlem Children's Zone Admin. Offices","roomFloor":"1st Floor Conference Room","city":"New York","state":"NY","zipCode":"10035","detailsBox":"O 2nd, S 3rd, Anniv. 4th & BB 5th Sat.","wheelChair":true,"latLong":{"lat":"40.8059276652577","lng":"-73.9408673127926"}},{"zoneID":9,"meetingID":"139","streetAddress":"223 East 117th Street","buildingName":"Peter Jay Sharpe Building","roomFloor":"1st Floor Dining Room","city":"New York","state":"NY","zipCode":"10035","detailsBox":"Living Sober 1st Tuesday.","wheelChair":true,"latLong":{"lat":"40.7984929663362","lng":"-73.9389774473402"}},{"zoneID":9,"meetingID":"181","streetAddress":"2126 2nd Avenue","buildingName":"","roomFloor":"1st Floor","city":"New York","state":"NY","zipCode":"10029","detailsBox":"Spanish speaking meetings.","wheelChair":true,"latLong":{"lat":"40.7926447124665","lng":"-73.940850658861"}},{"zoneID":9,"meetingID":"219","streetAddress":"22 East 119th Street","buildingName":"Veterans Residence","roomFloor":"1st Floor Cafeteria","city":"New York","state":"NY","zipCode":"10035","detailsBox":"ID REQUIRED TO ENTER BUILDING","wheelChair":true,"latLong":{"lat":"40.8021918133913","lng":"-73.9443165073746"}}]